area_id,ocd_id,name,country,state,city,district_type,parent_area_id
1,ocd-division/country:mx,MÉXICO,MX,,,0,-1,
2,ocd-division/country:mx/state:ag,Gubernatura de AGUASCALIENTES,MX,AGU,,1,-1,
3,ocd-division/country:mx/state:ag/city:1,Presidencia del municipio de AGUASCALIENTES,MX,AGU,AGUASCALIENTES,3,-1,
4,ocd-division/country:mx/state:ag/fed:1,Diputación del Distrito Federal 1 de AGUASCALIENTES,MX,AGU,"ASIENTOS, CALVILLO, COSIO, JESUS MARIA, PABELLON DE ARTEAGA, RINCON DE ROMOS, SAN JOSE DE GRACIA, TEPEZALA, SAN FRANCISCO DE LOS ROMO, EL LLANO",2,-1,
5,ocd-division/country:mx/state:ag/fed:2,Diputación del Distrito Federal 2 de AGUASCALIENTES,MX,AGU,AGUASCALIENTES,2,-1,
6,ocd-division/country:mx/state:ag/fed:3,Diputación del Distrito Federal 3 de AGUASCALIENTES,MX,AGU,AGUASCALIENTES,2,-1,
7,ocd-division/country:mx/state:bc,Gubernatura de BAJA CALIFORNIA,MX,BCN,,1,-1,
8,ocd-division/country:mx/state:bc/city:4,Presidencia del municipio de TIJUANA,MX,BCN,TIJUANA,3,-1,
9,ocd-division/country:mx/state:bc/fed:1,Diputación del Distrito Federal 1 de BAJA CALIFORNIA,MX,BCN,MEXICALI,2,-1,
10,ocd-division/country:mx/state:bc/fed:2,Diputación del Distrito Federal 2 de BAJA CALIFORNIA,MX,BCN,MEXICALI,2,-1,
11,ocd-division/country:mx/state:bc/fed:3,Diputación del Distrito Federal 3 de BAJA CALIFORNIA,MX,BCN,ENSENADA,2,-1,
12,ocd-division/country:mx/state:bc/fed:4,Diputación del Distrito Federal 4 de BAJA CALIFORNIA,MX,BCN,"TECATE, TIJUANA",2,-1,
13,ocd-division/country:mx/state:bc/fed:5,Diputación del Distrito Federal 5 de BAJA CALIFORNIA,MX,BCN,TIJUANA,2,-1,
14,ocd-division/country:mx/state:bc/fed:6,Diputación del Distrito Federal 6 de BAJA CALIFORNIA,MX,BCN,TIJUANA,2,-1,
15,ocd-division/country:mx/state:bc/fed:7,Diputación del Distrito Federal 7 de BAJA CALIFORNIA,MX,BCN,"ENSENADA, MEXICALI, TECATE, PLAYAS DE ROSARITO",2,-1,
16,ocd-division/country:mx/state:bc/fed:8,Diputación del Distrito Federal 8 de BAJA CALIFORNIA,MX,BCN,TIJUANA,2,-1,
17,ocd-division/country:mx/state:bs,Gubernatura de BAJA CALIFORNIA SUR,MX,BCS,,1,-1,
18,ocd-division/country:mx/state:bs/fed:1,Diputación del Distrito Federal 1 de BAJA CALIFORNIA SUR,MX,BCS,"COMONDU, MULEGE, LA PAZ, LORETO",2,-1,
19,ocd-division/country:mx/state:bs/fed:2,Diputación del Distrito Federal 2 de BAJA CALIFORNIA SUR,MX,BCS,"LA PAZ, LOS CABOS",2,-1,
20,ocd-division/country:mx/state:ch,Gubernatura de CHIHUAHUA,MX,CHH,,1,-1,
21,ocd-division/country:mx/state:ch/city:19,Presidencia del municipio de CHIHUAHUA,MX,CHH,CHIHUAHUA,3,-1,
22,ocd-division/country:mx/state:ch/city:37,Presidencia del municipio de CIUDAD JUÁREZ,MX,CHH,CIUDAD JUÁREZ,3,-1,
23,ocd-division/country:mx/state:ch/fed:1,Diputación del Distrito Federal 1 de CHIHUAHUA,MX,CHH,CIUDAD JUÁREZ,2,-1,
24,ocd-division/country:mx/state:ch/fed:2,Diputación del Distrito Federal 2 de CHIHUAHUA,MX,CHH,"AHUMADA, ASCENSION, BUENAVENTURA, CASAS GRANDES, GALEANA, GUADALUPE, IGNACIO ZARAGOZA, JANOS, JUAREZ, NUEVO CASAS GRANDES, PRAXEDIS G. GUERRERO",2,-1,
25,ocd-division/country:mx/state:ch/fed:3,Diputación del Distrito Federal 3 de CHIHUAHUA,MX,CHH,JUAREZ,2,-1,
26,ocd-division/country:mx/state:ch/fed:4,Diputación del Distrito Federal 4 de CHIHUAHUA,MX,CHH,JUAREZ,2,-1,
27,ocd-division/country:mx/state:ch/fed:5,Diputación del Distrito Federal 5 de CHIHUAHUA,MX,CHH,"ALDAMA, AQUILES SERDAN, CAMARGO, COYAME DEL SOTOL, LA CRUZ, DELICIAS, JIMENEZ, JULIMES, MANUEL BENAVIDES, MEOQUI, OJINAGA, ROSALES, SAN FRANCISCO DE CONCHOS, SAUCILLO",2,-1,
28,ocd-division/country:mx/state:ch/fed:6,Diputación del Distrito Federal 6 de CHIHUAHUA,MX,CHH,CHIHUAHUA,2,-1,
29,ocd-division/country:mx/state:ch/fed:7,Diputación del Distrito Federal 7 de CHIHUAHUA,MX,CHH,"MATACHI, MORIS, NAMIQUIPA, OCAMPO, RIVA PALACIO, TEMOSACHIC, URUACHI, BACHINIVA, BOCOYNA, CUAUHTEMOC, CUSIHUIRIACHI, CHINIPAS, SANTA ISABEL, GOMEZ FARIAS, GRAN MORELOS, GUAZAPARES, GUERRERO, MADERA, MAGUARICHI",2,-1,
30,ocd-division/country:mx/state:ch/fed:8,Diputación del Distrito Federal 8 de CHIHUAHUA,MX,CHH,CHIHUAHUA,2,-1,
31,ocd-division/country:mx/state:ch/fed:9,Diputación del Distrito Federal 9 de CHIHUAHUA,MX,CHH,"SATEVO, EL TULE, URIQUE, VALLE DE ZARAGOZA, ALLENDE, BALLEZA, BATOPILAS DE MANUEL GOMEZ MORIN, CARICHI, CORONADO, DR. BELISARIO DOMINGUEZ, GUACHOCHI, GUADALUPE Y CALVO, HIDALGO DEL PARRAL, HUEJOTITAN, LOPEZ, MATAMOROS, MORELOS, NONOAVA, ROSARIO, SAN FRANCISCO DE BORJA, SAN FRANCISCO DEL ORO, SANTA BARBARA",2,-1,
32,ocd-division/country:mx/state:cl,Gubernatura de COLIMA,MX,COL,,1,-1,
33,ocd-division/country:mx/state:cl/fed:1,Diputación del Distrito Federal 1 de COLIMA,MX,COL,"COLIMA, COMALA, COQUIMATLAN, CUAUHTEMOC, VILLA DE ALVAREZ",2,-1,
34,ocd-division/country:mx/state:cl/fed:2,Diputación del Distrito Federal 2 de COLIMA,MX,COL,"ARMERIA, IXTLAHUACAN, MANZANILLO, MINATITLAN, TECOMAN",2,-1,
35,ocd-division/country:mx/state:cm,Gubernatura de CAMPECHE,MX,CAM,,1,-1,
36,ocd-division/country:mx/state:cm/fed:1,Diputación del Distrito Federal 1 de CAMPECHE,MX,CAM,"CAMPECHE, CALKINI, HECELCHAKAN, HOPELCHEN, TENABO, CALAKMUL, DZITBALCHE",2,-1,
37,ocd-division/country:mx/state:cm/fed:2,Diputación del Distrito Federal 2 de CAMPECHE,MX,CAM,"CARMEN, CHAMPOTON, PALIZADA, ESCARCEGA, CANDELARIA, SEYBAPLAYA",2,-1,
38,ocd-division/country:mx/state:co,Gubernatura de COAHUILA DE ZARAGOZA,MX,COA,,1,-1,
39,ocd-division/country:mx/state:co/city:30,Presidencia del municipio de SALTILLO,MX,COA,SALTILLO,3,-1,
40,ocd-division/country:mx/state:co/city:35,Presidencia del municipio de TORREÓN,MX,COA,TORREÓN,3,-1,
41,ocd-division/country:mx/state:co/fed:1,Diputación del Distrito Federal 1 de COAHUILA DE ZARAGOZA,MX,COA,"ACUÑA, JIMENEZ, MORELOS, NAVA, PIEDRAS NEGRAS, SAN JUAN DE SABINAS, ZARAGOZA",2,-1,
42,ocd-division/country:mx/state:co/fed:2,Diputación del Distrito Federal 2 de COAHUILA DE ZARAGOZA,MX,COA,"CASTAÑOS, CUATROCIENEGAS, FRANCISCO I. MADERO, LAMADRID, MUZQUIZ, NADADORES, OCAMPO, RAMOS ARIZPE, SACRAMENTO, SAN BUENAVENTURA, SAN PEDRO, SIERRA MOJADA",2,-1,
43,ocd-division/country:mx/state:co/fed:3,Diputación del Distrito Federal 3 de COAHUILA DE ZARAGOZA,MX,COA,"ABASOLO, ALLENDE, CANDELA, ESCOBEDO, FRONTERA, GUERRERO, HIDALGO, JUAREZ, MONCLOVA, PROGRESO, SABINAS, SAN JUAN DE SABINAS, VILLA UNION",2,-1,
44,ocd-division/country:mx/state:co/fed:4,Diputación del Distrito Federal 4 de COAHUILA DE ZARAGOZA,MX,COA,"ARTEAGA, SALTILLO",2,-1,
45,ocd-division/country:mx/state:co/fed:5,Diputación del Distrito Federal 5 de COAHUILA DE ZARAGOZA,MX,COA,TORREON,2,-1,
46,ocd-division/country:mx/state:co/fed:6,Diputación del Distrito Federal 6 de COAHUILA DE ZARAGOZA,MX,COA,"MATAMOROS, TORREON, VIESCA",2,-1,
47,ocd-division/country:mx/state:co/fed:7,Diputación del Distrito Federal 7 de COAHUILA DE ZARAGOZA,MX,COA,"GENERAL CEPEDA, PARRAS, SALTILLO",2,-1,
48,ocd-division/country:mx/state:cs,Gubernatura de CHIAPAS,MX,CHP,,1,-1,
49,ocd-division/country:mx/state:cs/city:102,Presidencia del municipio de TUXTLA GUTIÉRREZ,MX,CHP,TUXTLA GUTIÉRREZ,3,-1,
50,ocd-division/country:mx/state:cs/fed:1,Diputación del Distrito Federal 1 de CHIAPAS,MX,CHP,"SABANILLA, SALTO DE AGUA, TILA, TUMBALA, YAJALON, CATAZAJA, LA LIBERTAD, PALENQUE",2,-1,
51,ocd-division/country:mx/state:cs/fed:10,Diputación del Distrito Federal 10 de CHIAPAS,MX,CHP,"JIQUIPILAS, VILLA CORZO, VILLAFLORES, MONTECRISTO DE GUERRERO, EL PARRAL, ANGEL ALBINO CORZO, CINTALAPA, LA CONCORDIA",2,-1,
52,ocd-division/country:mx/state:cs/fed:11,Diputación del Distrito Federal 11 de CHIAPAS,MX,CHP,"ALTAMIRANO, AMATENANGO DEL VALLE, CHANAL, HUIXTAN, LA INDEPENDENCIA, LAS MARGARITAS, OXCHUC, SAN CRISTOBAL DE LAS CASAS, TEOPISCA, MARAVILLA TENEJAPA",2,-1,
53,ocd-division/country:mx/state:cs/fed:12,Diputación del Distrito Federal 12 de CHIAPAS,MX,CHP,"CACAHOATAN, FRONTERA HIDALGO, METAPA, SUCHIATE, TAPACHULA, TUXTLA CHICO, UNION JUAREZ",2,-1,
54,ocd-division/country:mx/state:cs/fed:13,Diputación del Distrito Federal 13 de CHIAPAS,MX,CHP,"AMATENANGO DE LA FRONTERA, BEJUCAL DE OCAMPO, BELLA VISTA, CHICOMUSELO, LA GRANDEZA, HUEHUETAN, MAZAPA DE MADERO, MAZATAN, MOTOZINTLA, EL PORVENIR, SILTEPEC, TAPACHULA, TUZANTAN, CAPITAN LUIS ANGEL VIDAL, HONDURAS DE LA SIERRA",2,-1,
55,ocd-division/country:mx/state:cs/fed:2,Diputación del Distrito Federal 2 de CHIAPAS,MX,CHP,"AMATAN, BOCHIL, EL BOSQUE, CHALCHIHUITAN, CHENALHO, HUITIUPAN, IXHUATAN, IXTAPA, JITOTOL, LARRAINZAR, MITONTIC, PANTELHO, PUEBLO NUEVO SOLISTAHUACAN, SIMOJOVEL, SOYALO, ALDAMA, SAN ANDRES DURAZNAL, SANTIAGO EL PINAR, RINCON CHAMULA SAN PEDRO",2,-1,
56,ocd-division/country:mx/state:cs/fed:3,Diputación del Distrito Federal 3 de CHIAPAS,MX,CHP,"CHILON, OCOSINGO, SITALA, BENEMERITO DE LAS AMERICAS, MARQUES DE COMILLAS",2,-1,
57,ocd-division/country:mx/state:cs/fed:4,Diputación del Distrito Federal 4 de CHIAPAS,MX,CHP,"BERRIOZABAL, COAPILLA, COPAINALA, CHAPULTENANGO, CHICOASEN, FRANCISCO LEON, IXTACOMITAN, IXTAPANGAJOYA, JUAREZ, OCOTEPEC, OSTUACAN, OSUMACINTA, PANTEPEC, PICHUCALCO, RAYON, REFORMA, SAN FERNANDO, SOLOSUCHIAPA, SUNUAPA, TAPALAPA, TAPILULA, TECPATAN, MEZCALAPA",2,-1,
58,ocd-division/country:mx/state:cs/fed:5,Diputación del Distrito Federal 5 de CHIAPAS,MX,CHP,"CHAMULA, SAN CRISTOBAL DE LAS CASAS, SAN JUAN CANCUC, SAN LUCAS, TENEJAPA, ZINACANTAN",2,-1,
59,ocd-division/country:mx/state:cs/fed:6,Diputación del Distrito Federal 6 de CHIAPAS,MX,CHP,"ACALA, CHIAPA DE CORZO, CHIAPILLA, OCOZOCOAUTLA DE ESPINOSA, SUCHIAPA, TOTOLAPA, TUXTLA GUTIERREZ, EMILIANO ZAPATA",2,-1,
60,ocd-division/country:mx/state:cs/fed:7,Diputación del Distrito Federal 7 de CHIAPAS,MX,CHP,"ACACOYAGUA, ACAPETAHUA, ARRIAGA, ESCUINTLA, HUIXTLA, MAPASTEPEC, PIJIJIAPAN, TONALA, VILLACOMALTITLAN",2,-1,
61,ocd-division/country:mx/state:cs/fed:8,Diputación del Distrito Federal 8 de CHIAPAS,MX,CHP,"COMITAN DE DOMINGUEZ, FRONTERA COMALAPA, NICOLAS RUIZ, LAS ROSAS, SOCOLTENANGO, LA TRINITARIA, TZIMOL, VENUSTIANO CARRANZA",2,-1,
62,ocd-division/country:mx/state:cs/fed:9,Diputación del Distrito Federal 9 de CHIAPAS,MX,CHP,TUXTLA GUTIERREZ,2,-1,
63,ocd-division/country:mx/state:df,Gubernatura de CIUDAD DE MÉXICO,MX,CMX,,1,-1,
64,ocd-division/country:mx/state:df/city:10,Presidencia del municipio de ÁLVARO OBREGÓN,MX,CMX,ÁLVARO OBREGÓN,3,-1,
65,ocd-division/country:mx/state:df/city:11,Presidencia del municipio de TLÁHUAC,MX,CMX,TLÁHUAC,3,-1,
66,ocd-division/country:mx/state:df/city:12,Presidencia del municipio de TLALPAN,MX,CMX,TLALPAN,3,-1,
67,ocd-division/country:mx/state:df/city:13,Presidencia del municipio de XOCHIMILCO,MX,CMX,XOCHIMILCO,3,-1,
68,ocd-division/country:mx/state:df/city:14,Presidencia del municipio de BENITO JUÁREZ,MX,CMX,BENITO JUÁREZ,3,-1,
69,ocd-division/country:mx/state:df/city:15,Presidencia del municipio de CUAUHTÉMOC,MX,CMX,CUAUHTÉMOC,3,-1,
70,ocd-division/country:mx/state:df/city:16,Presidencia del municipio de MIGUEL HIDALGO,MX,CMX,MIGUEL HIDALGO,3,-1,
71,ocd-division/country:mx/state:df/city:9,Presidencia del municipio de MILPA ALTA,MX,CMX,MILPA ALTA,3,-1,
72,ocd-division/country:mx/state:df/city:17,Presidencia del municipio de VENUSTIANO CARRANZA,MX,CMX,VENUSTIANO CARRANZA,3,-1,
73,ocd-division/country:mx/state:df/city:2,Presidencia del municipio de AZCAPOTZALCO,MX,CMX,AZCAPOTZALCO,3,-1,
74,ocd-division/country:mx/state:df/city:3,Presidencia del municipio de COYOACÁN,MX,CMX,COYOACÁN,3,-1,
75,ocd-division/country:mx/state:df/city:4,Presidencia del municipio de CUAJIMALPA DE MORELOS,MX,CMX,CUAJIMALPA DE MORELOS,3,-1,
76,ocd-division/country:mx/state:df/city:5,Presidencia del municipio de GUSTAVO A. MADERO,MX,CMX,GUSTAVO A. MADERO,3,-1,
77,ocd-division/country:mx/state:df/city:6,Presidencia del municipio de IZTACALCO,MX,CMX,IZTACALCO,3,-1,
78,ocd-division/country:mx/state:df/city:7,Presidencia del municipio de IZTAPALAPA,MX,CMX,IZTAPALAPA,3,-1,
79,ocd-division/country:mx/state:df/city:8,Presidencia del municipio de LA MAGDALENA CONTRERAS,MX,CMX,LA MAGDALENA CONTRERAS,3,-1,
80,ocd-division/country:mx/state:df/fed:1,Diputación del Distrito Federal 1 de CIUDAD DE MÉXICO,MX,CMX,GUSTAVO A. MADERO,2,-1,
81,ocd-division/country:mx/state:df/fed:10,Diputación del Distrito Federal 10 de CIUDAD DE MÉXICO,MX,CMX,MIGUEL HIDALGO,2,-1,
82,ocd-division/country:mx/state:df/fed:11,Diputación del Distrito Federal 11 de CIUDAD DE MÉXICO,MX,CMX,VENUSTIANO CARRANZA,2,-1,
83,ocd-division/country:mx/state:df/fed:12,Diputación del Distrito Federal 12 de CIUDAD DE MÉXICO,MX,CMX,CUAUHTEMOC,2,-1,
84,ocd-division/country:mx/state:df/fed:13,Diputación del Distrito Federal 13 de CIUDAD DE MÉXICO,MX,CMX,IZTACALCO,2,-1,
85,ocd-division/country:mx/state:df/fed:14,Diputación del Distrito Federal 14 de CIUDAD DE MÉXICO,MX,CMX,TLALPAN,2,-1,
86,ocd-division/country:mx/state:df/fed:15,Diputación del Distrito Federal 15 de CIUDAD DE MÉXICO,MX,CMX,BENITO JUAREZ,2,-1,
87,ocd-division/country:mx/state:df/fed:16,Diputación del Distrito Federal 16 de CIUDAD DE MÉXICO,MX,CMX,ALVARO OBREGON,2,-1,
88,ocd-division/country:mx/state:df/fed:17,Diputación del Distrito Federal 17 de CIUDAD DE MÉXICO,MX,CMX,"ALVARO OBREGON, CUAJIMALPA DE MORELOS",2,-1,
89,ocd-division/country:mx/state:df/fed:18,Diputación del Distrito Federal 18 de CIUDAD DE MÉXICO,MX,CMX,IZTAPALAPA,2,-1,
90,ocd-division/country:mx/state:df/fed:19,Diputación del Distrito Federal 19 de CIUDAD DE MÉXICO,MX,CMX,IZTAPALAPA,2,-1,
91,ocd-division/country:mx/state:df/fed:2,Diputación del Distrito Federal 2 de CIUDAD DE MÉXICO,MX,CMX,GUSTAVO A. MADERO,2,-1,
92,ocd-division/country:mx/state:df/fed:20,Diputación del Distrito Federal 20 de CIUDAD DE MÉXICO,MX,CMX,IZTAPALAPA,2,-1,
93,ocd-division/country:mx/state:df/fed:21,Diputación del Distrito Federal 21 de CIUDAD DE MÉXICO,MX,CMX,"XOCHIMILCO, MILPA ALTA",2,-1,
94,ocd-division/country:mx/state:df/fed:22,Diputación del Distrito Federal 22 de CIUDAD DE MÉXICO,MX,CMX,IZTAPALAPA,2,-1,
95,ocd-division/country:mx/state:df/fed:23,Diputación del Distrito Federal 23 de CIUDAD DE MÉXICO,MX,CMX,COYOACAN,2,-1,
96,ocd-division/country:mx/state:df/fed:24,Diputación del Distrito Federal 24 de CIUDAD DE MÉXICO,MX,CMX,"COYOACAN, XOCHIMILCO",2,-1,
97,ocd-division/country:mx/state:df/fed:3,Diputación del Distrito Federal 3 de CIUDAD DE MÉXICO,MX,CMX,AZCAPOTZALCO,2,-1,
98,ocd-division/country:mx/state:df/fed:4,Diputación del Distrito Federal 4 de CIUDAD DE MÉXICO,MX,CMX,IZTAPALAPA,2,-1,
99,ocd-division/country:mx/state:df/fed:5,Diputación del Distrito Federal 5 de CIUDAD DE MÉXICO,MX,CMX,TLALPAN,2,-1,
100,ocd-division/country:mx/state:df/fed:6,Diputación del Distrito Federal 6 de CIUDAD DE MÉXICO,MX,CMX,"LA MAGDALENA CONTRERAS, ALVARO OBREGON",2,-1,
101,ocd-division/country:mx/state:df/fed:7,Diputación del Distrito Federal 7 de CIUDAD DE MÉXICO,MX,CMX,GUSTAVO A. MADERO,2,-1,
102,ocd-division/country:mx/state:df/fed:8,Diputación del Distrito Federal 8 de CIUDAD DE MÉXICO,MX,CMX,"CUAUHTEMOC, VENUSTIANO CARRANZA",2,-1,
103,ocd-division/country:mx/state:df/fed:9,Diputación del Distrito Federal 9 de CIUDAD DE MÉXICO,MX,CMX,TLAHUAC,2,-1,
104,ocd-division/country:mx/state:dg,Gubernatura de DURANGO,MX,DUR,,1,-1,
105,ocd-division/country:mx/state:dg/fed:1,Diputación del Distrito Federal 1 de DURANGO,MX,DUR,"CANELAS, DURANGO, MEZQUITAL, OTAEZ, PUEBLO NUEVO, SAN DIMAS, SANTIAGO PAPASQUIARO, SUCHIL, TAMAZULA, TEPEHUANES, TOPIA, VICENTE GUERRERO",2,-1,
106,ocd-division/country:mx/state:dg/fed:2,Diputación del Distrito Federal 2 de DURANGO,MX,DUR,"GOMEZ PALACIO, GUANACEVI, HIDALGO, INDE, MAPIMI, OCAMPO, EL ORO, SAN BERNARDO, SAN PEDRO DEL GALLO, TLAHUALILO",2,-1,
107,ocd-division/country:mx/state:dg/fed:3,Diputación del Distrito Federal 3 de DURANGO,MX,DUR,"CANATLAN, CONETO DE COMONFORT, CUENCAME, SIMON BOLIVAR, GUADALUPE VICTORIA, LERDO, NAZAS, NOMBRE DE DIOS, NUEVO IDEAL, PANUCO DE CORONADO, PE?ON BLANCO, POANAS, RODEO, SAN JUAN DE GUADALUPE, SAN JUAN DEL RIO, SAN LUIS DEL CORDERO, SANTA CLARA",2,-1,
108,ocd-division/country:mx/state:dg/fed:4,Diputación del Distrito Federal 4 de DURANGO,MX,DUR,DURANGO,2,-1,
109,ocd-division/country:mx/state:em,Gubernatura de ESTADO DE MÉXICO,MX,MEX,,1,-1,
110,ocd-division/country:mx/state:em/city:105,Presidencia del municipio de TLALNEPANTLA DE BAZ,MX,MEX,TLALNEPANTLA DE BAZ,3,-1,
111,ocd-division/country:mx/state:em/city:107,Presidencia del municipio de TOLUCA,MX,MEX,TOLUCA,3,-1,
112,ocd-division/country:mx/state:em/city:110,Presidencia del municipio de TULTITLÁN,MX,MEX,TULTITLÁN,3,-1,
113,ocd-division/country:mx/state:em/city:13,Presidencia del municipio de ATIZAPÁN DE ZARAGOZA,MX,MEX,ATIZAPÁN DE ZARAGOZA,3,-1,
114,ocd-division/country:mx/state:em/city:25,Presidencia del municipio de CUAUTITLÁN IZCALLI,MX,MEX,CUAUTITLÁN IZCALLI,3,-1,
115,ocd-division/country:mx/state:em/city:32,Presidencia del municipio de CHIMALHUACÁN,MX,MEX,CHIMALHUACÁN,3,-1,
116,ocd-division/country:mx/state:em/city:34,Presidencia del municipio de ECATEPEC DE MORELOS,MX,MEX,ECATEPEC DE MORELOS,3,-1,
117,ocd-division/country:mx/state:em/city:40,Presidencia del municipio de IXTAPALUCA,MX,MEX,IXTAPALUCA,3,-1,
118,ocd-division/country:mx/state:em/city:58,Presidencia del municipio de NAUCALPAN,MX,MEX,NAUCALPAN,3,-1,
119,ocd-division/country:mx/state:em/city:60,Presidencia del municipio de NEZAHUALCÓYOTL,MX,MEX,NEZAHUALCÓYOTL,3,-1,
120,ocd-division/country:mx/state:em/city:82,Presidencia del municipio de TECÁMAC,MX,MEX,TECÁMAC,3,-1,
121,ocd-division/country:mx/state:em/fed:1,Diputación del Distrito Federal 1 de ESTADO DE MÉXICO,MX,MEX,"ACAMBAY DE RUIZ CASTA?EDA, ACULCO, CHAPA DE MOTA, JILOTEPEC, MORELOS, POLOTITLAN, SOYANIQUILPAN DE JUAREZ, TEMASCALCINGO, TIMILPAN, VILLA DEL CARBON",2,-1,
122,ocd-division/country:mx/state:em/fed:10,Diputación del Distrito Federal 10 de ESTADO DE MÉXICO,MX,MEX,ECATEPEC DE MORELOS,2,-1,
123,ocd-division/country:mx/state:em/fed:11,Diputación del Distrito Federal 11 de ESTADO DE MÉXICO,MX,MEX,ECATEPEC DE MORELOS,2,-1,
124,ocd-division/country:mx/state:em/fed:12,Diputación del Distrito Federal 12 de ESTADO DE MÉXICO,MX,MEX,IXTAPALUCA,2,-1,
125,ocd-division/country:mx/state:em/fed:13,Diputación del Distrito Federal 13 de ESTADO DE MÉXICO,MX,MEX,ECATEPEC DE MORELOS,2,-1,
126,ocd-division/country:mx/state:em/fed:14,Diputación del Distrito Federal 14 de ESTADO DE MÉXICO,MX,MEX,"ATIZAPAN DE ZARAGOZA, CUAUTITLAN IZCALLI, TLALNEPANTLA DE BAZ",2,-1,
127,ocd-division/country:mx/state:em/fed:15,Diputación del Distrito Federal 15 de ESTADO DE MÉXICO,MX,MEX,ATIZAPAN DE ZARAGOZA,2,-1,
128,ocd-division/country:mx/state:em/fed:16,Diputación del Distrito Federal 16 de ESTADO DE MÉXICO,MX,MEX,"ECATEPEC DE MORELOS, TLALNEPANTLA DE BAZ",2,-1,
129,ocd-division/country:mx/state:em/fed:17,Diputación del Distrito Federal 17 de ESTADO DE MÉXICO,MX,MEX,ECATEPEC DE MORELOS,2,-1,
130,ocd-division/country:mx/state:em/fed:18,Diputación del Distrito Federal 18 de ESTADO DE MÉXICO,MX,MEX,"HUIXQUILUCAN, JILOTZINGO, OTZOLOTEPEC, TOLUCA, XONACATLAN",2,-1,
131,ocd-division/country:mx/state:em/fed:19,Diputación del Distrito Federal 19 de ESTADO DE MÉXICO,MX,MEX,TLALNEPANTLA DE BAZ,2,-1,
132,ocd-division/country:mx/state:em/fed:2,Diputación del Distrito Federal 2 de ESTADO DE MÉXICO,MX,MEX,"JALTENCO, NEXTLALPAN, TULTEPEC, TULTITLAN, TONANITLA",2,-1,
133,ocd-division/country:mx/state:em/fed:20,Diputación del Distrito Federal 20 de ESTADO DE MÉXICO,MX,MEX,NEZAHUALCOYOTL,2,-1,
134,ocd-division/country:mx/state:em/fed:21,Diputación del Distrito Federal 21 de ESTADO DE MÉXICO,MX,MEX,"IXTAPALUCA, JUCHITEPEC, OZUMBA, TENANGO DEL AIRE, TEPETLIXPA, TLALMANALCO, AMECAMECA, ATLAUTLA, AYAPANGO, ECATZINGO",2,-1,
135,ocd-division/country:mx/state:em/fed:22,Diputación del Distrito Federal 22 de ESTADO DE MÉXICO,MX,MEX,NAUCALPAN DE JUAREZ,2,-1,
136,ocd-division/country:mx/state:em/fed:23,Diputación del Distrito Federal 23 de ESTADO DE MÉXICO,MX,MEX,"ALMOLOYA DEL RIO, ATIZAPAN, CAPULHUAC, XALATLACO, LERMA, OCOYOACAC, OCUILAN, TEXCALYACAC, TIANGUISTENCO",2,-1,
137,ocd-division/country:mx/state:em/fed:24,Diputación del Distrito Federal 24 de ESTADO DE MÉXICO,MX,MEX,NAUCALPAN DE JUAREZ,2,-1,
138,ocd-division/country:mx/state:em/fed:25,Diputación del Distrito Federal 25 de ESTADO DE MÉXICO,MX,MEX,CHIMALHUACAN,2,-1,
139,ocd-division/country:mx/state:em/fed:26,Diputación del Distrito Federal 26 de ESTADO DE MÉXICO,MX,MEX,"OTZOLOTEPEC, TOLUCA",2,-1,
140,ocd-division/country:mx/state:em/fed:27,Diputación del Distrito Federal 27 de ESTADO DE MÉXICO,MX,MEX,"CALIMAYA, CHAPULTEPEC, METEPEC, MEXICALTZINGO, SAN ANTONIO LA ISLA, SAN MATEO ATENCO",2,-1,
141,ocd-division/country:mx/state:em/fed:28,Diputación del Distrito Federal 28 de ESTADO DE MÉXICO,MX,MEX,"APAXCO, HUEHUETOCA, HUEYPOXTLA, TEQUIXQUIAC, ZUMPANGO",2,-1,
142,ocd-division/country:mx/state:em/fed:29,Diputación del Distrito Federal 29 de ESTADO DE MÉXICO,MX,MEX,NEZAHUALCOYOTL,2,-1,
143,ocd-division/country:mx/state:em/fed:3,Diputación del Distrito Federal 3 de ESTADO DE MÉXICO,MX,MEX,"ATLACOMULCO, IXTLAHUACA, JIQUIPILCO, JOCOTITLAN, EL ORO",2,-1,
144,ocd-division/country:mx/state:em/fed:30,Diputación del Distrito Federal 30 de ESTADO DE MÉXICO,MX,MEX,"CHICOLOAPAN, CHIMALHUACAN",2,-1,
145,ocd-division/country:mx/state:em/fed:31,Diputación del Distrito Federal 31 de ESTADO DE MÉXICO,MX,MEX,NEZAHUALCOYOTL,2,-1,
146,ocd-division/country:mx/state:em/fed:32,Diputación del Distrito Federal 32 de ESTADO DE MÉXICO,MX,MEX,VALLE DE CHALCO SOLIDARIDAD,2,-1,
147,ocd-division/country:mx/state:em/fed:33,Diputación del Distrito Federal 33 de ESTADO DE MÉXICO,MX,MEX,"COCOTITLAN, CHALCO, TEMAMATLA",2,-1,
148,ocd-division/country:mx/state:em/fed:34,Diputación del Distrito Federal 34 de ESTADO DE MÉXICO,MX,MEX,TOLUCA,2,-1,
149,ocd-division/country:mx/state:em/fed:35,Diputación del Distrito Federal 35 de ESTADO DE MÉXICO,MX,MEX,"COATEPEC HARINAS, IXTAPAN DE LA SAL, JOQUICINGO, MALINALCO, RAYON, TENANCINGO, TENANGO DEL VALLE, TONATICO, VILLA GUERRERO, ZUMPAHUACAN",2,-1,
150,ocd-division/country:mx/state:em/fed:36,Diputación del Distrito Federal 36 de ESTADO DE MÉXICO,MX,MEX,"TEJUPILCO, TEMASCALTEPEC, TEXCALTITLAN, TLATLAYA, VALLE DE BRAVO, ZACAZONAPAN, ZACUALPAN, LUVIANOS, ALMOLOYA DE ALQUISIRAS, AMANALCO, AMATEPEC, IXTAPAN DEL ORO, OTZOLOAPAN, SAN SIMON DE GUERRERO, SANTO TOMAS, SULTEPEC",2,-1,
151,ocd-division/country:mx/state:em/fed:37,Diputación del Distrito Federal 37 de ESTADO DE MÉXICO,MX,MEX,"COYOTEPEC, CUAUTITLAN, MELCHOR OCAMPO, TEOLOYUCAN, TEPOTZOTLAN",2,-1,
152,ocd-division/country:mx/state:em/fed:38,Diputación del Distrito Federal 38 de ESTADO DE MÉXICO,MX,MEX,"ATENCO, CHICONCUAC, TEXCOCO, TEZOYUCA",2,-1,
153,ocd-division/country:mx/state:em/fed:39,Diputación del Distrito Federal 39 de ESTADO DE MÉXICO,MX,MEX,"CHIMALHUACAN, LA PAZ",2,-1,
154,ocd-division/country:mx/state:em/fed:4,Diputación del Distrito Federal 4 de ESTADO DE MÉXICO,MX,MEX,"ISIDRO FABELA, NICOLAS ROMERO",2,-1,
155,ocd-division/country:mx/state:em/fed:40,Diputación del Distrito Federal 40 de ESTADO DE MÉXICO,MX,MEX,"ALMOLOYA DE JUAREZ, TEMOAYA, ZINACANTEPEC",2,-1,
156,ocd-division/country:mx/state:em/fed:41,Diputación del Distrito Federal 41 de ESTADO DE MÉXICO,MX,MEX,TECAMAC,2,-1,
157,ocd-division/country:mx/state:em/fed:5,Diputación del Distrito Federal 5 de ESTADO DE MÉXICO,MX,MEX,"ACOLMAN, AXAPUSCO, CHIAUTLA, NOPALTEPEC, OTUMBA, PAPALOTLA, SAN MARTIN DE LAS PIRAMIDES, TEMASCALAPA, TEOTIHUACAN, TEPETLAOXTOC, TEZOYUCA",2,-1,
158,ocd-division/country:mx/state:em/fed:6,Diputación del Distrito Federal 6 de ESTADO DE MÉXICO,MX,MEX,"COACALCO DE BERRIOZABAL, ECATEPEC DE MORELOS, JALTENCO",2,-1,
159,ocd-division/country:mx/state:em/fed:7,Diputación del Distrito Federal 7 de ESTADO DE MÉXICO,MX,MEX,CUAUTITLAN IZCALLI,2,-1,
160,ocd-division/country:mx/state:em/fed:8,Diputación del Distrito Federal 8 de ESTADO DE MÉXICO,MX,MEX,TULTITLAN,2,-1,
161,ocd-division/country:mx/state:em/fed:9,Diputación del Distrito Federal 9 de ESTADO DE MÉXICO,MX,MEX,"SAN FELIPE DEL PROGRESO, VILLA DE ALLENDE, VILLA VICTORIA, SAN JOSE DEL RINCON, DONATO GUERRA",2,-1,
162,ocd-division/country:mx/state:gr,Gubernatura de GUERRERO,MX,GRO,,1,-1,
163,ocd-division/country:mx/state:gr/city:1,Presidencia del municipio de ACAPULCO DE JUÁREZ,MX,GRO,ACAPULCO DE JUÁREZ,3,-1,
164,ocd-division/country:mx/state:gr/fed:1,Diputación del Distrito Federal 1 de GUERRERO,MX,GRO,"GENERAL CANUTO A. NERI, IXCATEOPAN DE CUAUHTEMOC, PEDRO ASCENCIO ALQUISIRAS, PUNGARABATO, SAN MIGUEL TOTOLAPAN, TELOLOAPAN, TLALCHAPA, TLAPEHUALA, ZIRANDARO, AJUCHITLAN DEL PROGRESO, APAXTLA, ARCELIA, COCULA, COYUCA DE CATALAN, CUETZALA DEL PROGRESO, CUTZAMALA DE PINZON",2,-1,
165,ocd-division/country:mx/state:gr/fed:2,Diputación del Distrito Federal 2 de GUERRERO,MX,GRO,"ATENANGO DEL RIO, BUENAVISTA DE CUELLAR, COPALILLO, HUITZUCO DE LOS FIGUEROA, IGUALA DE LA INDEPENDENCIA, PILCAYA, TAXCO DE ALARCON, TEPECOACUILCO DE TRUJANO, TETIPAC",2,-1,
166,ocd-division/country:mx/state:gr/fed:3,Diputación del Distrito Federal 3 de GUERRERO,MX,GRO,"PETATLAN, TECPAN DE GALEANA, LA UNION DE ISIDORO MONTES DE OCA, ATOYAC DE ALVAREZ, BENITO JUAREZ, COAHUAYUTLA DE JOSE MARIA IZAZAGA, COYUCA DE BENITEZ, ZIHUATANEJO DE AZUETA",2,-1,
167,ocd-division/country:mx/state:gr/fed:4,Diputación del Distrito Federal 4 de GUERRERO,MX,GRO,ACAPULCO DE JUAREZ,2,-1,
168,ocd-division/country:mx/state:gr/fed:5,Diputación del Distrito Federal 5 de GUERRERO,MX,GRO,"ALCOZAUCA DE GUERRERO, ALPOYECA, ATLAMAJALCINGO DEL MONTE, CUALAC, HUAMUXTITLAN, IGUALAPA, MALINALTEPEC, METLATONOC, OLINALA, SAN LUIS ACATLAN, TLACOACHISTLAHUACA, TLALIXTAQUILLA DE MALDONADO, TLAPA DE COMONFORT, XALPATLAHUAC, XOCHIHUEHUETLAN, XOCHISTLAHUACA, ILIATENCO, COCHOAPA EL GRANDE",2,-1,
169,ocd-division/country:mx/state:gr/fed:6,Diputación del Distrito Federal 6 de GUERRERO,MX,GRO,"AHUACUOTZINGO, ATLIXTAC, COPANATOYAC, CHILAPA DE ALVAREZ, MARTIR DE CUILAPAN, MOCHITLAN, QUECHULTENANGO, TIXTLA DE GUERRERO, TLACOAPA, ZAPOTITLAN TABLAS, ZITLALA, ACATEPEC, JOSE JOAQUIN DE HERRERA",2,-1,
170,ocd-division/country:mx/state:gr/fed:7,Diputación del Distrito Federal 7 de GUERRERO,MX,GRO,"CHILPANCINGO DE LOS BRAVO, EDUARDO NERI, GENERAL HELIODORO CASTILLO, LEONARDO BRAVO",2,-1,
171,ocd-division/country:mx/state:gr/fed:8,Diputación del Distrito Federal 8 de GUERRERO,MX,GRO,"AYUTLA DE LOS LIBRES, AZOYU, COPALA, CUAJINICUILAPA, CUAUTEPEC, FLORENCIO VILLARREAL, JUAN R. ESCUDERO, OMETEPEC, SAN MARCOS, TECOANAPA, MARQUELIA, JUCHITAN",2,-1,
172,ocd-division/country:mx/state:gr/fed:9,Diputación del Distrito Federal 9 de GUERRERO,MX,GRO,ACAPULCO DE JUAREZ,2,-1,
173,ocd-division/country:mx/state:gt,Gubernatura de GUANAJUATO,MX,GUA,,1,-1,
174,ocd-division/country:mx/state:gt/fed:1,Diputación del Distrito Federal 1 de GUANAJUATO,MX,GUA,"DOLORES HIDALGO CUNA DE LA INDEPENDENCIA NACIONAL, SAN LUIS DE LA PAZ, SANTA CATARINA, TIERRA BLANCA, VICTORIA, XICHU, ATARJEA, DOCTOR MORA",2,-1,
175,ocd-division/country:mx/state:gt/fed:10,Diputación del Distrito Federal 10 de GUANAJUATO,MX,GUA,"CORTAZAR, MOROLEON, SALVATIERRA, SANTIAGO MARAVATIO, URIANGATO, YURIRIA",2,-1,
176,ocd-division/country:mx/state:gt/fed:11,Diputación del Distrito Federal 11 de GUANAJUATO,MX,GUA,LEON,2,-1,
177,ocd-division/country:mx/state:gt/fed:12,Diputación del Distrito Federal 12 de GUANAJUATO,MX,GUA,CELAYA,2,-1,
178,ocd-division/country:mx/state:gt/fed:13,Diputación del Distrito Federal 13 de GUANAJUATO,MX,GUA,"ABASOLO, CUERAMARO, HUANIMARO, JARAL DEL PROGRESO, PUEBLO NUEVO, ROMITA, VALLE DE SANTIAGO",2,-1,
179,ocd-division/country:mx/state:gt/fed:14,Diputación del Distrito Federal 14 de GUANAJUATO,MX,GUA,"ACAMBARO, APASEO EL ALTO, APASEO EL GRANDE, CORONEO, JERECUARO, TARANDACUAO, TARIMORO",2,-1,
180,ocd-division/country:mx/state:gt/fed:15,Diputación del Distrito Federal 15 de GUANAJUATO,MX,GUA,IRAPUATO,2,-1,
181,ocd-division/country:mx/state:gt/fed:2,Diputación del Distrito Federal 2 de GUANAJUATO,MX,GUA,"SAN MIGUEL DE ALLENDE, CELAYA, COMONFORT, SAN JOSE ITURBIDE",2,-1,
182,ocd-division/country:mx/state:gt/fed:3,Diputación del Distrito Federal 3 de GUANAJUATO,MX,GUA,LEON,2,-1,
183,ocd-division/country:mx/state:gt/fed:4,Diputación del Distrito Federal 4 de GUANAJUATO,MX,GUA,"GUANAJUATO, OCAMPO, SAN DIEGO DE LA UNION, SAN FELIPE",2,-1,
184,ocd-division/country:mx/state:gt/fed:5,Diputación del Distrito Federal 5 de GUANAJUATO,MX,GUA,LEON,2,-1,
185,ocd-division/country:mx/state:gt/fed:6,Diputación del Distrito Federal 6 de GUANAJUATO,MX,GUA,LEON,2,-1,
186,ocd-division/country:mx/state:gt/fed:7,Diputación del Distrito Federal 7 de GUANAJUATO,MX,GUA,"MANUEL DOBLADO, PENJAMO, PURISIMA DEL RINCON, SAN FRANCISCO DEL RINCON",2,-1,
187,ocd-division/country:mx/state:gt/fed:8,Diputación del Distrito Federal 8 de GUANAJUATO,MX,GUA,"SALAMANCA, SANTA CRUZ DE JUVENTINO ROSAS, VILLAGRAN",2,-1,
188,ocd-division/country:mx/state:gt/fed:9,Diputación del Distrito Federal 9 de GUANAJUATO,MX,GUA,"IRAPUATO, SILAO DE LA VICTORIA",2,-1,
189,ocd-division/country:mx/state:hg,Gubernatura de HIDALGO,MX,HID,,1,-1,
190,ocd-division/country:mx/state:hg/fed:1,Diputación del Distrito Federal 1 de HIDALGO,MX,HID,"CALNALI, HUAUTLA, HUAZALINGO, HUEJUTLA DE REYES, JALTOCAN, LOLOTLA, MOLANGO DE ESCAMILLA, SAN FELIPE ORIZATLAN, TEPEHUACAN DE GUERRERO, TIANGUISTENGO, TLANCHINOL, XOCHIATIPAN, XOCHICOATLAN, YAHUALICA, ATLAPEXCO",2,-1,
191,ocd-division/country:mx/state:hg/fed:2,Diputación del Distrito Federal 2 de HIDALGO,MX,HID,"ALFAJAYUCAN, CARDONAL, CHAPULHUACAN, CHILCUAUTLA, IXMIQUILPAN, JACALA DE LEDEZMA, LA MISION, NICOLAS FLORES, PACULA, PISAFLORES, PROGRESO DE OBREGON, SAN SALVADOR, SANTIAGO DE ANAYA, TASQUILLO, TECOZAUTLA, ZIMAPAN",2,-1,
192,ocd-division/country:mx/state:hg/fed:3,Diputación del Distrito Federal 3 de HIDALGO,MX,HID,"ACTOPAN, AJACUBA, ATOTONILCO EL GRANDE, EL ARENAL, ELOXOCHITLAN, FRANCISCO I. MADERO, HUASCA DE OCAMPO, JUAREZ HIDALGO, METZTITLAN, MINERAL DEL CHICO, MINERAL DEL MONTE, MIXQUIAHUALA DE JUAREZ, OMITLAN DE JUAREZ, SAN AGUSTIN METZQUITITLAN, SAN AGUSTIN TLAXIACA, TETEPANGO, TLAHUELILPAN, TLAHUILTEPA, ZACUALTIPAN DE ANGELES",2,-1,
193,ocd-division/country:mx/state:hg/fed:4,Diputación del Distrito Federal 4 de HIDALGO,MX,HID,"ACATLAN, ACAXOCHITLAN, AGUA BLANCA DE ITURBIDE, CUAUTEPEC DE HINOJOSA, HUEHUETLA, METEPEC, SAN BARTOLO TUTOTEPEC, SANTIAGO TULANTEPEC DE LUGO GUERRERO, TENANGO DE DORIA, TULANCINGO DE BRAVO",2,-1,
194,ocd-division/country:mx/state:hg/fed:5,Diputación del Distrito Federal 5 de HIDALGO,MX,HID,"NOPALA DE VILLAGRAN, TEPEJI DEL RIO DE OCAMPO, TEPETITLAN, TEZONTEPEC DE ALDAMA, TLAXCOAPAN, TULA DE ALLENDE, ATITALAQUIA, ATOTONILCO DE TULA, CHAPANTONGO, HUICHAPAN",2,-1,
195,ocd-division/country:mx/state:hg/fed:6,Diputación del Distrito Federal 6 de HIDALGO,MX,HID,"PACHUCA DE SOTO, TIZAYUCA, TOLCAYUCA, ZAPOTLAN DE JUAREZ",2,-1,
196,ocd-division/country:mx/state:hg/fed:7,Diputación del Distrito Federal 7 de HIDALGO,MX,HID,"ALMOLOYA, APAN, EMILIANO ZAPATA, EPAZOYUCAN, MINERAL DE LA REFORMA, SINGUILUCAN, TEPEAPULCO, TLANALAPA, VILLA DE TEZONTEPEC, ZEMPOALA",2,-1,
197,ocd-division/country:mx/state:ja,Gubernatura de JALISCO,MX,JAL,,1,-1,
198,ocd-division/country:mx/state:ja/fed:1,Diputación del Distrito Federal 1 de JALISCO,MX,JAL,"AHUALULCO DE MERCADO, AMATITAN, SAN JUANITO DE ESCOBEDO, EL ARENAL, BOLA?OS, COLOTLAN, CUQUIO, CHIMALTITAN, ETZATLAN, HOSTOTIPAQUILLO, HUEJUCAR, HUEJUQUILLA EL ALTO, IXTLAHUACAN DEL RIO, MAGDALENA, MEZQUITIC, SAN CRISTOBAL DE LA BARRANCA, SAN MARCOS, SAN MARTIN DE BOLA?OS, SANTA MARIA DE LOS ANGELES, TALA, TEQUILA, TEUCHITLAN, TOTATICHE, VILLA GUERRERO",2,-1,
199,ocd-division/country:mx/state:ja/fed:10,Diputación del Distrito Federal 10 de JALISCO,MX,JAL,ZAPOPAN,2,-1,
200,ocd-division/country:mx/state:ja/fed:11,Diputación del Distrito Federal 11 de JALISCO,MX,JAL,GUADALAJARA,2,-1,
201,ocd-division/country:mx/state:ja/fed:12,Diputación del Distrito Federal 12 de JALISCO,MX,JAL,TLAJOMULCO DE ZU?IGA,2,-1,
202,ocd-division/country:mx/state:ja/fed:13,Diputación del Distrito Federal 13 de JALISCO,MX,JAL,"SAN PEDRO TLAQUEPAQUE, ZAPOPAN",2,-1,
203,ocd-division/country:mx/state:ja/fed:14,Diputación del Distrito Federal 14 de JALISCO,MX,JAL,GUADALAJARA,2,-1,
204,ocd-division/country:mx/state:ja/fed:15,Diputación del Distrito Federal 15 de JALISCO,MX,JAL,"DEGOLLADO, JAMAY, OCOTLAN, PONCITLAN, TOTOTLAN, ZAPOTLAN DEL REY, ATOTONILCO EL ALTO, AYOTLAN, LA BARCA",2,-1,
205,ocd-division/country:mx/state:ja/fed:16,Diputación del Distrito Federal 16 de JALISCO,MX,JAL,SAN PEDRO TLAQUEPAQUE,2,-1,
206,ocd-division/country:mx/state:ja/fed:17,Diputación del Distrito Federal 17 de JALISCO,MX,JAL,"ACATLAN DE JUAREZ, ATEMAJAC DE BRIZUELA, COCULA, CONCEPCION DE BUENOS AIRES, CHAPALA, IXTLAHUACAN DE LOS MEMBRILLOS, JOCOTEPEC, LA MANZANILLA DE LA PAZ, MAZAMITLA, SAN MARTIN HIDALGO, TEOCUITATLAN DE CORONA, TIZAPAN EL ALTO, TUXCUECA, VILLA CORONA, ZACOALCO DE TORRES",2,-1,
207,ocd-division/country:mx/state:ja/fed:18,Diputación del Distrito Federal 18 de JALISCO,MX,JAL,"AMECA, ATENGO, AUTLAN DE NAVARRO, AYUTLA, CASIMIRO CASTILLO, CIHUATLAN, CUAUTITLAN DE GARCIA BARRAGAN, CUAUTLA, CHIQUILISTLAN, EJUTLA, EL GRULLO, LA HUERTA, JUCHITLAN, EL LIMON, VILLA PURIFICACION, TECOLOTLAN, TENAMAXTLAN, TOLIMAN, TONAYA, TUXCACUESCO, UNION DE TULA, ZAPOTITLAN DE VADILLO",2,-1,
208,ocd-division/country:mx/state:ja/fed:19,Diputación del Distrito Federal 19 de JALISCO,MX,JAL,"AMACUECA, ATOYAC, ZAPOTLAN EL GRANDE, SAN GABRIEL, GOMEZ FARIAS, JILOTLAN DE LOS DOLORES, SANTA MARIA DEL ORO, PIHUAMO, QUITUPAN, SAYULA, TAMAZULA DE GORDIANO, TAPALPA, TECALITLAN, TECHALUTA DE MONTENEGRO, TONILA, TUXPAN, VALLE DE JUAREZ, ZAPOTILTIC",2,-1,
209,ocd-division/country:mx/state:ja/fed:2,Diputación del Distrito Federal 2 de JALISCO,MX,JAL,"ENCARNACION DE DIAZ, LAGOS DE MORENO, OJUELOS DE JALISCO, SAN DIEGO DE ALEJANDRIA, SAN JUAN DE LOS LAGOS, SAN JULIAN, UNION DE SAN ANTONIO",2,-1,
210,ocd-division/country:mx/state:ja/fed:20,Diputación del Distrito Federal 20 de JALISCO,MX,JAL,"TONALA, ZAPOTLANEJO, ACATIC, JUANACATLAN, EL SALTO",2,-1,
211,ocd-division/country:mx/state:ja/fed:3,Diputación del Distrito Federal 3 de JALISCO,MX,JAL,"MEXTICACAN, SAN MIGUEL EL ALTO, TEOCALTICHE, TEPATITLAN DE MORELOS, VALLE DE GUADALUPE, VILLA HIDALGO, CA?ADAS DE OBREGON, YAHUALICA DE GONZALEZ GALLO, SAN IGNACIO CERRO GORDO, ARANDAS, JALOSTOTITLAN, JESUS MARIA",2,-1,
212,ocd-division/country:mx/state:ja/fed:4,Diputación del Distrito Federal 4 de JALISCO,MX,JAL,ZAPOPAN,2,-1,
213,ocd-division/country:mx/state:ja/fed:5,Diputación del Distrito Federal 5 de JALISCO,MX,JAL,"ATENGUILLO, CABO CORRIENTES, GUACHINANGO, MASCOTA, MIXTLAN, PUERTO VALLARTA, SAN SEBASTIAN DEL OESTE, TALPA DE ALLENDE, TOMATLAN",2,-1,
214,ocd-division/country:mx/state:ja/fed:6,Diputación del Distrito Federal 6 de JALISCO,MX,JAL,ZAPOPAN,2,-1,
215,ocd-division/country:mx/state:ja/fed:7,Diputación del Distrito Federal 7 de JALISCO,MX,JAL,TONALA,2,-1,
216,ocd-division/country:mx/state:ja/fed:8,Diputación del Distrito Federal 8 de JALISCO,MX,JAL,GUADALAJARA,2,-1,
217,ocd-division/country:mx/state:ja/fed:9,Diputación del Distrito Federal 9 de JALISCO,MX,JAL,GUADALAJARA,2,-1,
218,ocd-division/country:mx/state:mi,Gubernatura de MICHOACÁN DE OCAMPO,MX,MIC,,1,-1,
219,ocd-division/country:mx/state:mi/city:54,Presidencia del municipio de MORELIA,MX,MIC,MORELIA,3,-1,
220,ocd-division/country:mx/state:mi/fed:1,Diputación del Distrito Federal 1 de MICHOACÁN DE OCAMPO,MX,MIC,"ARTEAGA, CHURUMUCO, GABRIEL ZAMORA, LA HUACANA, LAZARO CARDENAS, MUGICA, NUEVO URECHO, PARACUARO, TUMBISCATIO",2,-1,
221,ocd-division/country:mx/state:mi/fed:10,Diputación del Distrito Federal 10 de MICHOACÁN DE OCAMPO,MX,MIC,MORELIA,2,-1,
222,ocd-division/country:mx/state:mi/fed:11,Diputación del Distrito Federal 11 de MICHOACÁN DE OCAMPO,MX,MIC,"ACUITZIO, ARIO, HUIRAMBA, LAGUNILLAS, MADERO, NOCUPETARO, PATZCUARO, SALVADOR ESCALANTE, TACAMBARO, TARETAN, TINGAMBATO, TURICATO, TZINTZUNTZAN, ZIRACUARETIRO",2,-1,
223,ocd-division/country:mx/state:mi/fed:12,Diputación del Distrito Federal 12 de MICHOACÁN DE OCAMPO,MX,MIC,"AGUILILLA, APATZINGAN, AQUILA, BUENAVISTA, COAHUAYANA, COALCOMAN DE VAZQUEZ PALLARES, CHINICUILA, NUEVO PARANGARICUTIRO, PERIBAN, TANCITARO, TEPALCATEPEC",2,-1,
224,ocd-division/country:mx/state:mi/fed:2,Diputación del Distrito Federal 2 de MICHOACÁN DE OCAMPO,MX,MIC,"HUANDACAREO, HUANIQUEO, INDAPARAPEO, JIMENEZ, JOSE SIXTO VERDUZCO, MORELOS, PANINDICUARO, PENJAMILLO, PURUANDIRO, SANTA ANA MAYA, TARIMBARO, ALVARO OBREGON, ANGAMACUTIRO, COPANDARO, CUITZEO, CHARO, CHUCANDIRO",2,-1,
225,ocd-division/country:mx/state:mi/fed:3,Diputación del Distrito Federal 3 de MICHOACÁN DE OCAMPO,MX,MIC,"ANGANGUEO, CARACUARO, HUETAMO, JUAREZ, JUNGAPEO, OCAMPO, SAN LUCAS, SUSUPUATO, TIQUICHEO DE NICOLAS ROMERO, TUXPAN, TUZANTLA, TZITZIO, ZITACUARO",2,-1,
226,ocd-division/country:mx/state:mi/fed:4,Diputación del Distrito Federal 4 de MICHOACÁN DE OCAMPO,MX,MIC,"BRISE?AS, COTIJA, CHAVINDA, JIQUILPAN, MARCOS CASTELLANOS, PAJACUARAN, COJUMATLAN DE REGULES, LOS REYES, SAHUAYO, TANGAMANDAPIO, TING?INDIN, TOCUMBO, VENUSTIANO CARRANZA, VILLAMAR, VISTA HERMOSA",2,-1,
227,ocd-division/country:mx/state:mi/fed:5,Diputación del Distrito Federal 5 de MICHOACÁN DE OCAMPO,MX,MIC,"CHURINTZIO, ECUANDUREO, IXTLAN, NUMARAN, LA PIEDAD, TANHUATO, YURECUARO, ZAMORA, ZINAPARO",2,-1,
228,ocd-division/country:mx/state:mi/fed:6,Diputación del Distrito Federal 6 de MICHOACÁN DE OCAMPO,MX,MIC,"APORO, CONTEPEC, EPITACIO HUERTA, HIDALGO, IRIMBO, MARAVATIO, QUERENDARO, SENGUIO, TLALPUJAHUA, ZINAPECUARO",2,-1,
229,ocd-division/country:mx/state:mi/fed:7,Diputación del Distrito Federal 7 de MICHOACÁN DE OCAMPO,MX,MIC,"TANGANCICUARO, TLAZAZALCA, ZACAPU, COENEO, CHARAPAN, CHERAN, CHILCHOTA, ERONGARICUARO, JACONA, NAHUATZEN, PARACHO, PUREPERO, QUIROGA",2,-1,
230,ocd-division/country:mx/state:mi/fed:8,Diputación del Distrito Federal 8 de MICHOACÁN DE OCAMPO,MX,MIC,MORELIA,2,-1,
231,ocd-division/country:mx/state:mi/fed:9,Diputación del Distrito Federal 9 de MICHOACÁN DE OCAMPO,MX,MIC,URUAPAN,2,-1,
232,ocd-division/country:mx/state:mo,Gubernatura de MORELOS,MX,MOR,,1,-1,
233,ocd-division/country:mx/state:mo/fed:1,Diputación del Distrito Federal 1 de MORELOS,MX,MOR,CUERNAVACA,2,-1,
234,ocd-division/country:mx/state:mo/fed:2,Diputación del Distrito Federal 2 de MORELOS,MX,MOR,"CUERNAVACA, EMILIANO ZAPATA, JIUTEPEC, XOCHITEPEC",2,-1,
235,ocd-division/country:mx/state:mo/fed:3,Diputación del Distrito Federal 3 de MORELOS,MX,MOR,"AXOCHIAPAN, AYALA, CUAUTLA, TEPALCINGO, TLALTIZAPAN DE ZAPATA",2,-1,
236,ocd-division/country:mx/state:mo/fed:4,Diputación del Distrito Federal 4 de MORELOS,MX,MOR,"AMACUZAC, COATLAN DEL RIO, JOJUTLA, MAZATEPEC, MIACATLAN, PUENTE DE IXTLA, TEMIXCO, TETECALA, TLAQUILTENANGO, ZACATEPEC, COATETELCO, XOXOCOTLA",2,-1,
237,ocd-division/country:mx/state:mo/fed:5,Diputación del Distrito Federal 5 de MORELOS,MX,MOR,"ATLATLAHUCAN, HUITZILAC, JANTETELCO, JONACATEPEC, OCUITUCO, TEPOZTLAN, TETELA DEL VOLCAN, TLALNEPANTLA, TLAYACAPAN, TOTOLAPAN, YAUTEPEC, YECAPIXTLA, ZACUALPAN DE AMILPAS, TEMOAC",2,-1,
238,ocd-division/country:mx/state:na,Gubernatura de NAYARIT,MX,NAY,,1,-1,
239,ocd-division/country:mx/state:na/city:17,Presidencia del municipio de TEPIC,MX,NAY,TEPIC,3,-1,
240,ocd-division/country:mx/state:na/fed:1,Diputación del Distrito Federal 1 de NAYARIT,MX,NAY,"ACAPONETA, HUAJICORI, DEL NAYAR, ROSAMORADA, RUIZ, SAN BLAS, SANTIAGO IXCUINTLA, TECUALA, TUXPAN",2,-1,
241,ocd-division/country:mx/state:na/fed:2,Diputación del Distrito Federal 2 de NAYARIT,MX,NAY,"TEPIC, XALISCO",2,-1,
242,ocd-division/country:mx/state:na/fed:3,Diputación del Distrito Federal 3 de NAYARIT,MX,NAY,"SAN PEDRO LAGUNILLAS, SANTA MARIA DEL ORO, XALISCO, LA YESCA, AHUACATLAN, AMATLAN DE CA?AS, BAHIA DE BANDERAS, COMPOSTELA, IXTLAN DEL RIO, JALA",2,-1,
243,ocd-division/country:mx/state:nl,Gubernatura de NUEVO LEÓN,MX,NLE,,1,-1,
244,ocd-division/country:mx/state:nl/city:40,Presidencia del municipio de MONTERREY,MX,NLE,MONTERREY,3,-1,
245,ocd-division/country:mx/state:nl/fed:1,Diputación del Distrito Federal 1 de NUEVO LEÓN,MX,NLE,"SAN PEDRO GARZA GARCIA, SANTA CATARINA",2,-1,
246,ocd-division/country:mx/state:nl/fed:10,Diputación del Distrito Federal 10 de NUEVO LEÓN,MX,NLE,MONTERREY,2,-1,
247,ocd-division/country:mx/state:nl/fed:11,Diputación del Distrito Federal 11 de NUEVO LEÓN,MX,NLE,"GUADALUPE, JUAREZ, MONTERREY",2,-1,
248,ocd-division/country:mx/state:nl/fed:12,Diputación del Distrito Federal 12 de NUEVO LEÓN,MX,NLE,"CADEREYTA JIMENEZ, JUAREZ, MARIN, PESQUERIA",2,-1,
249,ocd-division/country:mx/state:nl/fed:2,Diputación del Distrito Federal 2 de NUEVO LEÓN,MX,NLE,"APODACA, GRAL. ESCOBEDO, GRAL. ZUAZUA, PESQUERIA, SAN NICOLAS DE LOS GARZA",2,-1,
250,ocd-division/country:mx/state:nl/fed:3,Diputación del Distrito Federal 3 de NUEVO LEÓN,MX,NLE,GRAL. ESCOBEDO,2,-1,
251,ocd-division/country:mx/state:nl/fed:4,Diputación del Distrito Federal 4 de NUEVO LEÓN,MX,NLE,"APODACA, SAN NICOLAS DE LOS GARZA",2,-1,
252,ocd-division/country:mx/state:nl/fed:5,Diputación del Distrito Federal 5 de NUEVO LEÓN,MX,NLE,MONTERREY,2,-1,
253,ocd-division/country:mx/state:nl/fed:6,Diputación del Distrito Federal 6 de NUEVO LEÓN,MX,NLE,MONTERREY,2,-1,
254,ocd-division/country:mx/state:nl/fed:7,Diputación del Distrito Federal 7 de NUEVO LEÓN,MX,NLE,"ABASOLO, AGUALEGUAS, ANAHUAC, BUSTAMANTE, CARMEN, CIENEGA DE FLORES, GARCIA, GRAL. ZUAZUA, HIDALGO, HIGUERAS, LAMPAZOS DE NARANJO, MINA, MONTERREY, PARAS, SABINAS HIDALGO, SALINAS VICTORIA, VALLECILLO, VILLALDAMA",2,-1,
255,ocd-division/country:mx/state:nl/fed:8,Diputación del Distrito Federal 8 de NUEVO LEÓN,MX,NLE,"APODACA, GUADALUPE, PESQUERIA",2,-1,
256,ocd-division/country:mx/state:nl/fed:9,Diputación del Distrito Federal 9 de NUEVO LEÓN,MX,NLE,"LOS ALDAMAS, ALLENDE, ARAMBERRI, CERRALVO, CHINA, DR. ARROYO, DR. COSS, DR. GONZALEZ, GALEANA, GRAL. BRAVO, GRAL. TERAN, GRAL. TREVI?O, GRAL. ZARAGOZA, LOS HERRERAS, HUALAHUISES, ITURBIDE, LINARES, MELCHOR OCAMPO, MIER Y NORIEGA, MONTEMORELOS, LOS RAMONES, RAYONES, SANTIAGO",2,-1,
257,ocd-division/country:mx/state:oa,Gubernatura de OAXACA,MX,OAX,,1,-1,
258,ocd-division/country:mx/state:oa/fed:1,Diputación del Distrito Federal 1 de OAXACA,MX,OAX,"ACATLAN DE PEREZ FIGUEROA, AYOTZINTEPEC, COSOLAPA, LOMA BONITA, SAN JOSE CHILTEPEC, SAN JUAN BAUTISTA TUXTEPEC, SAN JUAN BAUTISTA VALLE NACIONAL, SAN LUCAS OJITLAN, SAN MIGUEL SOYALTEPEC, SANTA MARIA JACATEPEC, SANTIAGO JOCOTEPEC",2,-1,
259,ocd-division/country:mx/state:oa/fed:10,Diputación del Distrito Federal 10 de OAXACA,MX,OAX,"HEROICA CIUDAD DE EJUTLA DE CRESPO, MAGDALENA MIXTEPEC, MIAHUATLAN DE PORFIRIO DIAZ, MONJAS, LA PE, PLUMA HIDALGO, SAN AGUSTIN AMATENGO, SAN AGUSTIN LOXICHA, SAN ANDRES PAXTLAN, SAN ANDRES ZABACHE, SAN BALTAZAR LOXICHA, SAN BARTOLOME LOXICHA, SAN BERNARDO MIXTEPEC, SAN CRISTOBAL AMATLAN, SAN FRANCISCO LOGUECHE, SAN FRANCISCO SOLA, SAN ILDEFONSO AMATLAN, SAN ILDEFONSO SOLA, SAN JERONIMO COATLAN, SAN JOSE DEL PE?ASCO, SAN JUAN LACHIGALLA, SAN LUIS AMATLAN, SAN MARCIAL OZOLOTEPEC, SAN MARTIN DE LOS CANSECOS, SAN MARTIN LACHILA, SAN MATEO PI?AS, SAN MATEO RIO HONDO, SAN MIGUEL COATLAN, SAN MIGUEL EJUTLA, SAN MIGUEL MIXTEPEC, SAN MIGUEL SUCHIXTEPEC, SAN NICOLAS, SAN PABLO COATLAN, SAN PEDRO EL ALTO, SAN PEDRO POCHUTLA, AYOQUEZCO DE ALDAMA, CANDELARIA LOXICHA, COATECAS ALTAS, LA COMPA?IA, SAN SEBASTIAN COATLAN, SAN SEBASTIAN RIO HONDO, SAN SIMON ALMOLONGAS, SAN VICENTE COATLAN, SAN VICENTE LACHIXIO, SANTA ANA, SANTA ANA TLAPACOYAN, SANTA CATARINA CUIXTLA, SANTA CATARINA LOXICHA, SANTA CRUZ MIXTEPEC, SANTA CRUZ XITLA, SANTA LUCIA MIAHUATLAN, SANTA MARIA COLOTEPEC, SANTA MARIA HUATULCO, SANTA MARIA LACHIXIO, SANTA MARIA OZOLOTEPEC, SANTA MARIA SOLA, SANTA MARIA TONAMECA, SANTO DOMINGO DE MORELOS, SANTO DOMINGO OZOLOTEPEC, SANTO TOMAS TAMAZULAPAN, SITIO DE XITLAPEHUA, VILLA SOLA DE VEGA, TANICHE, YOGANA, ZIMATLAN DE ALVAREZ",2,-1,
260,ocd-division/country:mx/state:oa/fed:2,Diputación del Distrito Federal 2 de OAXACA,MX,OAX,"SAN JUAN DE LOS CUES, SAN JUAN DEL ESTADO, SAN JUAN QUIOTEPEC, SAN JUAN TEPEUXILA, SAN LORENZO CACAOTEPEC, SAN LORENZO CUAUNECUILTITLA, SAN LUCAS ZOQUIAPAM, SAN MARTIN TOXPALAN, SAN MATEO YOLOXOCHITLAN, SAN MIGUEL ALOAPAM, SAN MIGUEL CHICAHUA, SAN MIGUEL HUAUTLA, SAN MIGUEL SANTA FLOR, SAN PABLO HUITZO, SAN PEDRO COXCALTEPEC CANTAROS, SAN PEDRO IXCATLAN, SAN PEDRO JALTEPETONGO, SAN PEDRO JOCOTIPAC, SAN PEDRO OCOPETATILLO, SAN PEDRO SOCHIAPAM, SAN PEDRO TEUTILA, SANTA ANA ATEIXTLAHUACA, SANTA ANA CUAUHTEMOC, SANTA CRUZ ACATEPEC, SANTA MARIA APAZCO, SANTA MARIA LA ASUNCION, SANTA MARIA CHILCHOTLA, SANTA MARIA IXCATLAN, SANTA MARIA PAPALO, SANTA MARIA TECOMAVACA, SANTA MARIA TEOPOXCO, SANTA MARIA TEXCATITLAN, SANTA MARIA TLALIXTAC, SANTIAGO APOALA, SANTIAGO HUAUCLILLA, SANTIAGO NACALTEPEC, ASUNCION NOCHIXTLAN, CONCEPCION PAPALO, CUYAMECALCO VILLA DE ZARAGOZA, ELOXOCHITLAN DE FLORES MAGON, GUADALUPE ETLA, HUAUTEPEC, HUAUTLA DE JIMENEZ, MAGDALENA APASCO, MAZATLAN VILLA DE FLORES, NAZARENO ETLA, REYES ETLA, SAN AGUSTIN ETLA, SAN ANDRES TEOTILALPAM, SAN ANDRES ZAUTLA, SAN ANTONIO NANAHUATIPAM, SAN BARTOLOME AYAUTLA, SAN FELIPE JALAPA DE DIAZ, SAN FELIPE USILA, SAN FRANCISCO CHAPULAPA, SAN FRANCISCO HUEHUETLAN, SAN FRANCISCO TELIXTLAHUACA, SAN JERONIMO SOSOLA, SAN JERONIMO TECOATL, SAN JOSE INDEPENDENCIA, SAN JOSE TENANGO, SAN JUAN BAUTISTA ATATLAHUCA, SAN JUAN BAUTISTA CUICATLAN, SAN JUAN BAUTISTA GUELACHE, SAN JUAN BAUTISTA JAYACATLAN, SAN JUAN BAUTISTA TLACOATZINTEPEC, CHIQUIHUITLAN DE BENITO JUAREZ, SAN JUAN COATZOSPAM, SANTIAGO SUCHILQUITONGO, SANTIAGO TENANGO, SANTIAGO TEXCALCINGO, SANTOS REYES PAPALO, SOLEDAD ETLA, TEOTITLAN DE FLORES MAGON, VALERIO TRUJANO, VILLA DE ETLA",2,-1,
261,ocd-division/country:mx/state:oa/fed:3,Diputación del Distrito Federal 3 de OAXACA,MX,OAX,"SAN BARTOLOME YUCUA?E, SAN CRISTOBAL SUCHIXTLAHUACA, SAN FELIPE TEJALAPAM, SAN FRANCISCO CHINDUA, SAN FRANCISCO JALTEPETONGO, SAN FRANCISCO NUXA?O, SAN FRANCISCO TEOPAN, SAN JERONIMO SILACAYOAPILLA, SAN JOSE AYUQUILA, SAN JUAN ACHIUTLA, SAN JUAN BAUTISTA COIXTLAHUACA, SAN JUAN BAUTISTA SUCHITEPEC, SAN JUAN DIUXI, SAN JUAN SAYULTEPEC, SAN JUAN TAMAZOLA, SAN JUAN TEPOSCOLULA, SAN JUAN YUCUITA, SAN MATEO ETLATONGO, SAN MATEO SINDIHUI, SAN MATEO TLAPILTEPEC, SAN MIGUEL ACHIUTLA, SAN MIGUEL PERAS, SAN MIGUEL PIEDRAS, SAN MIGUEL TECOMATLAN, SAN MIGUEL TEQUIXTEPEC, SAN MIGUEL TULANCINGO, SAN PABLO CUATRO VENADOS, SAN PEDRO IXTLAHUACA, SAN PEDRO NOPALA, SAN PEDRO TEOZACOALCO, SAN PEDRO TIDAA, SAN PEDRO TOPILTEPEC, SAN PEDRO Y SAN PABLO TEPOSCOLULA, SAN PEDRO Y SAN PABLO TEQUIXTEPEC, SAN PEDRO YUCUNAMA, SANTO DOMINGO YODOHINO, SANTO TOMAS MAZALTEPEC, VILLA DE TAMAZULAPAM DEL PROGRESO, VILLA TEJUPAM DE LA UNION, TEOTONGO, TEPELMEME VILLA DE MORELOS, TLACOTEPEC PLUMAS, TRINIDAD ZAACHILA, LA TRINIDAD VISTA HERMOSA, YUTANDUCHI DE GUERRERO, VILLA DE ZAACHILA, ZAPOTITLAN PALMAS, ASUNCION CUYOTEPEJI, ASUNCION NOCHIXTLAN, CIENEGA DE ZIMATLAN, CONCEPCION BUENAVISTA, COSOLTEPEC, CUILAPAM DE GUERRERO, HEROICA CIUDAD DE HUAJUAPAN DE LEON, MAGDALENA JALTEPEC, MAGDALENA YODOCONO DE PORFIRIO DIAZ, MAGDALENA ZAHUATLAN, SAN ANDRES DINICUITI, SAN ANDRES IXTLAHUACA, SAN ANDRES LAGUNAS, SAN ANDRES NUXI?O, SAN ANDRES SINAXTLA, SAN ANTONINO EL ALTO, SAN ANTONIO ACUTLA, SAN ANTONIO HUITEPEC, SAN BARTOLO COYOTEPEC, SAN BARTOLO SOYALTEPEC, SAN RAYMUNDO JALPAN, SAN VICENTE NU?U, SANTA CATARINA QUIANE, SANTA CATARINA TAYATA, SANTA CATARINA ZAPOQUILA, SANTA CRUZ TAYATA, SANTA CRUZ XOXOCOTLAN, SANTA INES DEL MONTE, SANTA INES DE ZARAGOZA, SANTA MAGDALENA JICOTLAN, SANTA MARIA CAMOTLAN, SANTA MARIA CHACHOAPAM, VILLA DE CHILAPA DE DIAZ, SANTA MARIA NATIVITAS, SANTA MARIA NDUAYACO, SANTA MARIA PE?OLES, SANTA MARIA TATALTEPEC, SANTIAGO AYUQUILILLA, SANTIAGO CACALOXTEPEC, SANTIAGO CHAZUMBA, SANTIAGO HUAJOLOTITLAN, SANTIAGO IHUITLAN PLUMAS, SANTIAGO MILTEPEC, SANTIAGO NEJAPILLA, SANTIAGO TEPETLAPA, SANTIAGO TILANTONGO, SANTIAGO TILLO, SANTIAGO TLAZOYALTEPEC, SANTIAGO YOLOMECATL, SANTO DOMINGO NUXAA, SANTO DOMINGO TLATAYAPAM, SANTO DOMINGO TONALTEPEC, SANTO DOMINGO YANHUITLAN",2,-1,
262,ocd-division/country:mx/state:oa/fed:4,Diputación del Distrito Federal 4 de OAXACA,MX,OAX,"ABEJONES, ANIMAS TRUJANO, ASUNCION CACALOTEPEC, ASUNCION OCOTLAN, GUELATAO DE JUAREZ, IXTLAN DE JUAREZ, MAGDALENA OCOTLAN, MAGDALENA TEITIPAC, MIXISTLAN DE LA REFORMA, NATIVIDAD, NUEVO ZOQUIAPAM, OCOTLAN DE MORELOS, ROJAS DE CUAUHTEMOC, SAN AGUSTIN DE LAS JUNTAS, SAN ANDRES SOLAGA, SAN ANDRES YAA, SAN ANTONINO CASTILLO VELASCO, SAN ANTONIO DE LA CAL, SAN BALTAZAR CHICHICAPAM, SAN BALTAZAR YATZACHI EL BAJO, SAN BARTOLOME QUIALANA, SAN BARTOLOME ZOOGOCHO, SAN CRISTOBAL LACHIRIOAG, SAN DIONISIO OCOTEPEC, SAN PABLO YAGANIZA, SAN PEDRO APOSTOL, SAN PEDRO CAJONOS, SAN PEDRO MARTIR, SAN PEDRO OCOTEPEC, SAN PEDRO TAVICHE, SAN PEDRO Y SAN PABLO AYUTLA, SAN PEDRO YANERI, SAN PEDRO YOLOX, SAN SEBASTIAN ABASOLO, SAN SEBASTIAN TEITIPAC, SAN SEBASTIAN TUTLA, SANTA ANA DEL VALLE, SANTA ANA YARENI, SANTA ANA ZEGACHE, SANTA CATARINA IXTEPEJI, SANTA CATARINA LACHATAO, SANTA CATARINA MINAS, SANTA CRUZ AMILPAS, SANTA CRUZ PAPALUTLA, SANTA GERTRUDIS, SANTA INES YATZECHE, SANTA LUCIA OCOTLAN, SANTA MARIA ALOTEPEC, SANTA MARIA COYOTEPEC, SANTA MARIA DEL TULE, SANTA MARIA GUELACE, SANTA MARIA JALTIANGUIS, SANTA MARIA TEMAXCALAPA, SANTA MARIA TEPANTLALI, SANTA MARIA TLAHUITOLTEPEC, SANTA MARIA YALINA, SANTA MARIA YAVESIA, SANTIAGO APOSTOL, SANTIAGO ATITLAN, SANTIAGO CAMOTLAN, SAN DIONISIO OCOTLAN, SAN FRANCISCO CAJONOS, SAN FRANCISCO LACHIGOLO, SAN ILDEFONSO VILLA ALTA, SAN JERONIMO TAVICHE, SAN JERONIMO TLACOCHAHUAYA, SAN JOSE DEL PROGRESO, SAN JUAN ATEPEC, SAN JUAN CHICOMEZUCHIL, SAN JUAN CHILATECA, SAN JUAN COMALTEPEC, SAN JUAN DEL RIO, SAN JUAN EVANGELISTA ANALCO, SAN JUAN GUELAVIA, SAN JUAN JUQUILA MIXES, SAN JUAN JUQUILA VIJANOS, SAN JUAN PETLAPA, SAN JUAN TABAA, SAN JUAN TEITIPAC, SAN JUAN YAEE, SAN JUAN YATZONA, SAN LORENZO ALBARRADAS, SAN LUCAS CAMOTLAN, SAN LUCAS QUIAVINI, SAN MARTIN TILCAJETE, SAN MATEO CAJONOS, SAN MELCHOR BETAZA, SAN MIGUEL AMATLAN, SAN MIGUEL DEL RIO, SAN MIGUEL QUETZALTEPEC, VILLA TALEA DE CASTRO, SAN MIGUEL TILQUIAPAM, SAN MIGUEL YOTAO, SAN PABLO HUIXTEPEC, SAN PABLO MACUILTIANGUIS, SAN PABLO VILLA DE MITLA, SANTIAGO COMALTEPEC, SANTIAGO LALOPA, SANTIAGO LAXOPA, SANTIAGO MATATLAN, SANTIAGO XIACUI, SANTIAGO ZACATEPEC, SANTIAGO ZOOCHILA, SANTO DOMINGO ALBARRADAS, SANTO DOMINGO ROAYAGA, SANTO DOMINGO TEPUXTEPEC, SANTO DOMINGO TOMALTEPEC, SANTO DOMINGO XAGACIA, SANTO TOMAS JALIEZA, TAMAZULAPAM DEL ESPIRITU SANTO, TANETZE DE ZARAGOZA, TEOCOCUILCO DE MARCOS PEREZ, TEOTITLAN DEL VALLE, TLACOLULA DE MATAMOROS, TLALIXTAC DE CABRERA, TOTONTEPEC VILLA DE MORELOS, CAPULALPAM DE MENDEZ, VILLA DIAZ ORDAZ, VILLA HIDALGO, YAXE, ZIMATLAN DE ALVAREZ",2,-1,
263,ocd-division/country:mx/state:oa/fed:5,Diputación del Distrito Federal 5 de OAXACA,MX,OAX,"SAN CARLOS YAUTEPEC, SAN FRANCISCO OZOLOTEPEC, SAN JOSE LACHIGUIRI, SAN JUAN COTZOCON, SAN JUAN LAJARCIA, SAN JUAN LALANA, SAN JUAN MAZATLAN, SAN JUAN MIXTEPEC, SAN JUAN OZOLOTEPEC, SAN MIGUEL DEL PUERTO, SAN MIGUEL TENANGO, SAN PEDRO COMITANCILLO, SAN PEDRO HUAMELULA, SAN PEDRO HUILOTEPEC, SAN PEDRO MARTIR QUIECHAPA, SAN PEDRO MIXTEPEC, SAN PEDRO QUIATONI, SAN PEDRO TOTOLAPAM, SANTA ANA TAVELA, SANTA CATALINA QUIERI, SANTA CATARINA QUIOQUITANI, SANTA MARIA ECATEPEC, SANTA MARIA GUIENAGATI, SANTA MARIA JALAPA DEL MARQUES, SANTA MARIA MIXTEQUILLA, SANTA MARIA QUIEGOLANI, SANTA MARIA TOTOLAPILLA, SANTA MARIA ZOQUITLAN, SANTIAGO ASTATA, SANTIAGO CHOAPAM, SANTIAGO IXCUINTEPEC, SANTIAGO LACHIGUIRI, SANTIAGO LAOLLAGA, ASUNCION TLACOLULITA, GUEVEA DE HUMBOLDT, MAGDALENA TEQUISISTLAN, MAGDALENA TLACOTEPEC, NEJAPA DE MADERO, SALINA CRUZ, SAN BARTOLO YAUTEPEC, SAN BLAS ATEMPA, SANTIAGO XANICA, SANTIAGO YAVEO, SANTO DOMINGO CHIHUITAN, SANTO DOMINGO TEHUANTEPEC",2,-1,
264,ocd-division/country:mx/state:oa/fed:6,Diputación del Distrito Federal 6 de OAXACA,MX,OAX,"SAN MARCOS ARTEAGA, SAN MARTIN HUAMELULPAM, SAN MARTIN ITUNYOSO, SAN MARTIN PERAS, SAN MARTIN ZACATEPEC, SAN MATEO NEJAPAM, SAN MATEO PE?ASCO, SAN MIGUEL AHUEHUETITLAN, SAN MIGUEL AMATITLAN, SAN MIGUEL EL GRANDE, SAN MIGUEL TLACOTEPEC, SAN NICOLAS HIDALGO, SAN PABLO TIJALTEPEC, SAN PEDRO MARTIR YUCUXACO, SAN PEDRO MOLINOS, SAN SEBASTIAN NICANANDUTA, SAN SEBASTIAN TECOMAXTLAHUACA, SAN SIMON ZAHUATLAN, SANTA CATARINA TICUA, SANTA CATARINA YOSONOTU, SANTA CRUZ DE BRAVO, SANTA CRUZ ITUNDUJIA, SANTA CRUZ NUNDACO, SANTA CRUZ TACACHE DE MINA, SANTA CRUZ TACAHUA, SANTA LUCIA MONTEVERDE, SANTA MARIA DEL ROSARIO, SANTA MARIA YOLOTEPEC, SANTA MARIA YOSOYUA, SANTA MARIA YUCUHITI, SANTA MARIA ZACATEPEC, SANTA MARIA ZANIZA, SANTIAGO AMOLTEPEC, SANTIAGO DEL RIO, SANTIAGO JUXTLAHUACA, CALIHUALA, CHALCATONGO DE HIDALGO, COICOYAN DE LAS FLORES, CONSTANCIA DEL ROSARIO, FRESNILLO DE TRUJANO, GUADALUPE DE RAMIREZ, MESONES HIDALGO, IXPANTEPEC NIEVES, MAGDALENA PE?ASCO, MARISCALA DE JUAREZ, PUTLA VILLA DE GUERRERO, SAN AGUSTIN ATENANGO, SAN AGUSTIN TLACOTEPEC, SAN ANDRES CABECERA NUEVA, SAN ANDRES TEPETLAPA, SAN ANTONINO MONTE VERDE, SAN ANTONIO SINICAHUA, SAN CRISTOBAL AMOLTEPEC, SAN ESTEBAN ATATLAHUCA, SAN FRANCISCO CAHUACUA, SAN FRANCISCO TLAPANCINGO, SAN JORGE NUCHITA, SAN JUAN BAUTISTA TLACHICHILCO, SAN JUAN CIENEGUILLA, SAN JUAN IHUALTEPEC, SAN JUAN MIXTEPEC, SAN JUAN ?UMI, SAN JUAN TEITA, SAN LORENZO TEXMELUCAN, SAN LORENZO VICTORIA, SANTIAGO NUNDICHE, SANTIAGO NUYOO, SANTIAGO TAMAZOLA, SANTIAGO TEXTITLAN, SANTIAGO YOSONDUA, SANTIAGO YUCUYACHI, SANTO DOMINGO IXCATLAN, SANTO DOMINGO TEOJOMULCO, SANTO DOMINGO TONALA, SANTO TOMAS OCOTEPEC, SANTOS REYES TEPEJILLO, SANTOS REYES YUCUNA, SILACAYOAPAM, H VILLA TEZOATLAN SEGURA Y LUNA CUNA IND OAX, HEROICA CIUDAD DE TLAXIACO, SAN MATEO YUCUTINDOO, ZAPOTITLAN LAGUNAS",2,-1,
265,ocd-division/country:mx/state:oa/fed:7,Diputación del Distrito Federal 7 de OAXACA,MX,OAX,"ASUNCION IXTALTEPEC, EL BARRIO DE LA SOLEDAD, CHAHUITES, EL ESPINAL, CIUDAD IXTEPEC, HEROICA CIUDAD DE JUCHITAN DE ZARAGOZA, MATIAS ROMERO AVENDA?O, REFORMA DE PINEDA, SAN DIONISIO DEL MAR, SAN FRANCISCO DEL MAR, SAN FRANCISCO IXHUATAN, SAN JUAN GUICHICOVI, SAN JUAN MAZATLAN, SAN MATEO DEL MAR, SAN MIGUEL CHIMALAPA, SAN PEDRO TAPANATEPEC, SANTA MARIA CHIMALAPA, SANTA MARIA PETAPA, SANTA MARIA XADANI, SANTIAGO NILTEPEC, SANTO DOMINGO INGENIO, SANTO DOMINGO PETAPA, SANTO DOMINGO ZANATEPEC, UNION HIDALGO",2,-1,
266,ocd-division/country:mx/state:oa/fed:8,Diputación del Distrito Federal 8 de OAXACA,MX,OAX,"OAXACA DE JUAREZ, SAN AGUSTIN YATARENI, SAN ANDRES HUAYAPAM, SAN JACINTO AMILPAS, SAN PABLO ETLA, SANTA LUCIA DEL CAMINO, SANTA MARIA ATZOMPA",2,-1,
267,ocd-division/country:mx/state:oa/fed:9,Diputación del Distrito Federal 9 de OAXACA,MX,OAX,"MARTIRES DE TACUBAYA, PINOTEPA DE DON LUIS, LA REFORMA, SAN AGUSTIN CHAYUCO, SAN ANDRES HUAXPALTEPEC, SAN ANTONIO TEPETLAPA, SAN GABRIEL MIXTEPEC, SAN JACINTO TLACOTEPEC, SAN JOSE ESTANCIA GRANDE, SAN JUAN BAUTISTA LO DE SOTO, SAN JUAN CACAHUATEPEC, SAN JUAN COLORADO, SAN JUAN LACHAO, SAN JUAN QUIAHIJE, SAN LORENZO, SAN MIGUEL PANIXTLAHUACA, SAN MIGUEL TLACAMAMA, SAN PEDRO AMUZGOS, SAN PEDRO ATOYAC, SAN PEDRO JICAYAN, SAN PEDRO JUCHATENGO, SAN PEDRO MIXTEPEC, VILLA DE TUTUTEPEC, SAN SEBASTIAN IXCAPA, SANTA CATARINA JUQUILA, SANTA CATARINA MECHOACAN, SANTA CRUZ ZENZONTEPEC, SANTA MARIA CORTIJO, SANTA MARIA HUAZOLOTITLAN, SANTA MARIA IPALAPA, SANTA MARIA TEMAXCALTEPEC, SANTIAGO IXTAYUTLA, SANTIAGO JAMILTEPEC, SANTIAGO LLANO GRANDE, SANTIAGO MINAS, SANTIAGO PINOTEPA NACIONAL, SANTIAGO TAPEXTLA, SANTIAGO TETEPEC, SANTIAGO YAITEPEC, SANTO DOMINGO ARMENTA, SANTOS REYES NOPALA, TATALTEPEC DE VALDES",2,-1,
268,ocd-division/country:mx/state:pu,Gubernatura de PUEBLA,MX,PUE,,1,-1,
269,ocd-division/country:mx/state:pu/fed:1,Diputación del Distrito Federal 1 de PUEBLA,MX,PUE,"JUAN GALINDO, NAUPAN, PAHUATLAN, PANTEPEC, SAN FELIPE TEPATLAN, TLACUILOTEPEC, TLAOLA, TLAPACOYA, TLAXCO, VENUSTIANO CARRANZA, XICOTEPEC, ZIHUATEUTLA, AMIXTLAN, HONEY, FRANCISCO Z. MENA, HERMENEGILDO GALEANA, HUAUCHINANGO, JALPAN, JOPALA",2,-1,
270,ocd-division/country:mx/state:pu/fed:10,Diputación del Distrito Federal 10 de PUEBLA,MX,PUE,"CORONANGO, CUAUTLANCINGO, JUAN C. BONILLA, SAN ANDRES CHOLULA, SAN GREGORIO ATZOMPA, SAN JERONIMO TECUANIPAN, SAN PEDRO CHOLULA",2,-1,
271,ocd-division/country:mx/state:pu/fed:11,Diputación del Distrito Federal 11 de PUEBLA,MX,PUE,PUEBLA,2,-1,
272,ocd-division/country:mx/state:pu/fed:12,Diputación del Distrito Federal 12 de PUEBLA,MX,PUE,PUEBLA,2,-1,
273,ocd-division/country:mx/state:pu/fed:13,Diputación del Distrito Federal 13 de PUEBLA,MX,PUE,"ACTEOPAN, ATLIXCO, ATZALA, ATZITZIHUACAN, COHUECAN, CHIETLA, EPATLAN, HUAQUECHULA, IZUCAR DE MATAMOROS, OCOYUCAN, SAN DIEGO LA MESA TOCHIMILTZINGO, SAN MARTIN TOTOLTEPEC, SANTA ISABEL CHOLULA, TEPEMAXALCO, TEPEOJUMA, TEPEXCO, TIANGUISMANALCO, TILAPA, TLAPANALA, TOCHIMILCO, XOCHILTEPEC",2,-1,
274,ocd-division/country:mx/state:pu/fed:14,Diputación del Distrito Federal 14 de PUEBLA,MX,PUE,"COATZINGO, COHETZALA, CUAYUCA DE ANDRADE, CHIAUTLA, CHIGMECATITLAN, CHILA, CHILA DE LA SAL, CHINANTLA, GUADALUPE, HUATLATLAUCA, HUEHUETLAN EL CHICO, HUEHUETLAN EL GRANDE, HUITZILTEPEC, IXCAMILPA DE GUERRERO, JOLALPAN, LA MAGDALENA TLATLAUQUITEPEC, MOLCAXAC, PETLALCINGO, PIAXTLA, SAN JERONIMO XAYACATLAN, SAN JUAN ATZOMPA, SAN MIGUEL IXITLAN, SAN PABLO ANICANO, SAN PEDRO YELOIXTLAHUACA, SAN SALVADOR HUIXCOLOTLA, SANTA CATARINA TLALTEMPAN, SANTA INES AHUATEMPAN, SANTO TOMAS HUEYOTLIPAN, TECAMACHALCO, TECOMATLAN, TEHUITZINGO, TEOPANTLAN, TEOTLALCO, TEPEXI DE RODRIGUEZ, TEPEYAHUALCO DE CUAUHTEMOC, TLANEPANTLA, TOCHTEPEC, ACATLAN, AHUATLAN, AHUEHUETITLA, ALBINO ZERTUCHE, ATOYATEMPAN, AXUTLA, TOTOLTEPEC DE GUERRERO, TULCINGO, TZICATLACOYAN, XAYACATLAN DE BRAVO, XICOTLAN, XOCHITLAN TODOS SANTOS, YEHUALTEPEC, ZACAPALA",2,-1,
275,ocd-division/country:mx/state:pu/fed:15,Diputación del Distrito Federal 15 de PUEBLA,MX,PUE,"ATEXCAL, COYOTEPEC, IXCAQUIXTLA, JUAN N. MENDEZ, SANTIAGO MIAHUATLAN, TEHUACAN, TEPANCO DE LOPEZ, TLACOTEPEC DE BENITO JUAREZ",2,-1,
276,ocd-division/country:mx/state:pu/fed:2,Diputación del Distrito Federal 2 de PUEBLA,MX,PUE,"AHUACATLAN, AHUAZOTEPEC, AQUIXTLA, CAMOCUAUTLA, CAXHUACAN, COATEPEC, CUAUTEMPAN, CHICONCUAUTLA, CHIGNAHUAPAN, HUEHUETLA, HUEYTLALPAN, HUITZILAN DE SERDAN, ATLEQUIZAYAN, IXTACAMAXTITLAN, IXTEPEC, JONOTLA, NAUZONTLA, OLINTLA, TEPANGO DE RODRIGUEZ, TEPETZINTLA, TETELA DE OCAMPO, TUZAMAPAN DE GALEANA, XOCHIAPULCO, XOCHITLAN DE VICENTE SUAREZ, ZACATLAN, ZAPOTITLAN DE MENDEZ, ZAUTLA, ZONGOZOTLA, ZOQUIAPAN",2,-1,
277,ocd-division/country:mx/state:pu/fed:3,Diputación del Distrito Federal 3 de PUEBLA,MX,PUE,"ACATENO, ATEMPAN, AYOTOXCO DE GUERRERO, CUETZALAN DEL PROGRESO, CHIGNAUTLA, HUEYAPAN, HUEYTAMALCO, TENAMPULCO, TETELES DE AVILA CASTILLO, TEZIUTLAN, TLATLAUQUITEPEC, YAONAHUAC, ZACAPOAXTLA, ZARAGOZA",2,-1,
278,ocd-division/country:mx/state:pu/fed:4,Diputación del Distrito Federal 4 de PUEBLA,MX,PUE,"ZINACATEPEC, ZOQUITLAN, AJALPAN, ALTEPEXI, CALTEPEC, CA?ADA MORELOS, COXCATLAN, COYOMEAPAN, CHAPULCO, ELOXOCHITLAN, GENERAL FELIPE ANGELES, NICOLAS BRAVO, PALMAR DE BRAVO, QUECHOLAC, SAN ANTONIO CA?ADA, SAN GABRIEL CHILAC, SAN JOSE MIAHUATLAN, SAN SEBASTIAN TLACOTEPEC, VICENTE GUERRERO, ZAPOTITLAN",2,-1,
279,ocd-division/country:mx/state:pu/fed:5,Diputación del Distrito Federal 5 de PUEBLA,MX,PUE,"CALPAN, CHIAUTZINGO, DOMINGO ARENAS, HUEJOTZINGO, NEALTICAN, SAN FELIPE TEOTLALCINGO, SAN MARTIN TEXMELUCAN, SAN MATIAS TLALANCALECA, SAN MIGUEL XOXTLA, SAN NICOLAS DE LOS RANCHOS, SAN SALVADOR EL VERDE, TLAHUAPAN, TLALTENANGO",2,-1,
280,ocd-division/country:mx/state:pu/fed:6,Diputación del Distrito Federal 6 de PUEBLA,MX,PUE,PUEBLA,2,-1,
281,ocd-division/country:mx/state:pu/fed:7,Diputación del Distrito Federal 7 de PUEBLA,MX,PUE,"ACAJETE, ACATZINGO, AMOZOC, CUAPIAXTLA DE MADERO, CUAUTINCHAN, MIXTLA, NOPALUCAN, PUEBLA, LOS REYES DE JUAREZ, SOLTEPEC, TECALI DE HERRERA, TEPATLAXCO DE HIDALGO, TEPEACA",2,-1,
282,ocd-division/country:mx/state:pu/fed:8,Diputación del Distrito Federal 8 de PUEBLA,MX,PUE,"ALJOJUCA, ATZITZINTLA, CUYOACO, CHALCHICOMULA DE SESMA, CHICHIQUILA, CHILCHOTLA, ESPERANZA, GUADALUPE VICTORIA, LAFRAGUA, LIBRES, MAZAPILTEPEC DE JUAREZ, OCOTEPEC, ORIENTAL, QUIMIXTLAN, RAFAEL LARA GRAJALES, SAN JOSE CHIAPA, SAN JUAN ATENCO, SAN NICOLAS BUENOS AIRES, SAN SALVADOR EL SECO, TEPEYAHUALCO, TLACHICHUCA, XIUTETELCO",2,-1,
283,ocd-division/country:mx/state:pu/fed:9,Diputación del Distrito Federal 9 de PUEBLA,MX,PUE,"PUEBLA, CUAUTLANCINGO",2,-1,
284,ocd-division/country:mx/state:qr,Gubernatura de QUINTANA ROO,MX,ROO,,1,-1,
285,ocd-division/country:mx/state:qr/fed:1,Diputación del Distrito Federal 1 de QUINTANA ROO,MX,ROO,"BENITO JUAREZ, COZUMEL, ISLA MUJERES, LAZARO CARDENAS, SOLIDARIDAD, TULUM, PUERTO MORELOS",2,-1,
286,ocd-division/country:mx/state:qr/fed:2,Diputación del Distrito Federal 2 de QUINTANA ROO,MX,ROO,"FELIPE CARRILLO PUERTO, JOSE MARIA MORELOS, OTHON P. BLANCO, BACALAR",2,-1,
287,ocd-division/country:mx/state:qr/fed:3,Diputación del Distrito Federal 3 de QUINTANA ROO,MX,ROO,BENITO JUAREZ,2,-1,
288,ocd-division/country:mx/state:qr/fed:4,Diputación del Distrito Federal 4 de QUINTANA ROO,MX,ROO,"BENITO JUAREZ, PUERTO MORELOS",2,-1,
289,ocd-division/country:mx/state:qt,Gubernatura de QUERÉTARO,MX,QUE,,1,-1,
290,ocd-division/country:mx/state:qt/city:14,Presidencia del municipio de QUERÉTARO,MX,QUE,QUERÉTARO,3,-1,
291,ocd-division/country:mx/state:qt/fed:1,Diputación del Distrito Federal 1 de QUERÉTARO,MX,QUE,"ARROYO SECO, CADEREYTA DE MONTES, COLON, JALPAN DE SERRA, LANDA DE MATAMOROS, PEDRO ESCOBEDO, PE?AMILLER, PINAL DE AMOLES, SAN JOAQUIN, TOLIMAN",2,-1,
292,ocd-division/country:mx/state:qt/fed:2,Diputación del Distrito Federal 2 de QUERÉTARO,MX,QUE,"SAN JUAN DEL RIO, TEQUISQUIAPAN, EZEQUIEL MONTES",2,-1,
293,ocd-division/country:mx/state:qt/fed:3,Diputación del Distrito Federal 3 de QUERÉTARO,MX,QUE,QUERÉTARO,2,-1,
294,ocd-division/country:mx/state:qt/fed:4,Diputación del Distrito Federal 4 de QUERÉTARO,MX,QUE,QUERÉTARO,2,-1,
295,ocd-division/country:mx/state:qt/fed:5,Diputación del Distrito Federal 5 de QUERÉTARO,MX,QUE,"AMEALCO DE BONFIL, CORREGIDORA, HUIMILPAN, EL MARQUES",2,-1,
296,ocd-division/country:mx/state:si,Gubernatura de SINALOA,MX,SIN,,1,-1,
297,ocd-division/country:mx/state:si/city:6,Presidencia del municipio de CULIACÁN,MX,SIN,CULIACÁN,3,-1,
298,ocd-division/country:mx/state:si/fed:1,Diputación del Distrito Federal 1 de SINALOA,MX,SIN,"CONCORDIA, ESCUINAPA, MAZATLAN, ROSARIO",2,-1,
299,ocd-division/country:mx/state:si/fed:2,Diputación del Distrito Federal 2 de SINALOA,MX,SIN,AHOME,2,-1,
300,ocd-division/country:mx/state:si/fed:3,Diputación del Distrito Federal 3 de SINALOA,MX,SIN,"BADIRAGUATO, MOCORITO, SALVADOR ALVARADO, SINALOA, ANGOSTURA, NAVOLATO",2,-1,
301,ocd-division/country:mx/state:si/fed:4,Diputación del Distrito Federal 4 de SINALOA,MX,SIN,"CHOIX, EL FUERTE, GUASAVE",2,-1,
302,ocd-division/country:mx/state:si/fed:5,Diputación del Distrito Federal 5 de SINALOA,MX,SIN,CULIACÁN,2,-1,
303,ocd-division/country:mx/state:si/fed:6,Diputación del Distrito Federal 6 de SINALOA,MX,SIN,"CULIACÁN, ELOTA, MAZATLAN, SAN IGNACIO, COSALA",2,-1,
304,ocd-division/country:mx/state:si/fed:7,Diputación del Distrito Federal 7 de SINALOA,MX,SIN,CULIACÁN,2,-1,
305,ocd-division/country:mx/state:sl,Gubernatura de SAN LUIS POTOSÍ,MX,SLP,,1,-1,
306,ocd-division/country:mx/state:sl/city:28,Presidencia del municipio de SAN LUIS POTOSÍ,MX,SLP,SAN LUIS POTOSÍ,3,-1,
307,ocd-division/country:mx/state:sl/fed:1,Diputación del Distrito Federal 1 de SAN LUIS POTOSÍ,MX,SLP,"AHUALULCO, CATORCE, CEDRAL, CHARCAS, MATEHUALA, MEXQUITIC DE CARMONA, MOCTEZUMA, SALINAS, SANTO DOMINGO, VANEGAS, VENADO, VILLA DE GUADALUPE, VILLA DE LA PAZ, VILLA DE RAMOS",2,-1,
308,ocd-division/country:mx/state:sl/fed:2,Diputación del Distrito Federal 2 de SAN LUIS POTOSÍ,MX,SLP,"CERRO DE SAN PEDRO, SANTA MARIA DEL RIO, SOLEDAD DE GRACIANO SANCHEZ, TIERRA NUEVA, VILLA DE ARRIAGA, VILLA DE REYES, ZARAGOZA",2,-1,
309,ocd-division/country:mx/state:sl/fed:3,Diputación del Distrito Federal 3 de SAN LUIS POTOSÍ,MX,SLP,"ALAQUINES, ARMADILLO DE LOS INFANTE, CARDENAS, CERRITOS, CIUDAD DEL MAIZ, CIUDAD FERNANDEZ, GUADALCAZAR, LAGUNILLAS, RAYON, RIOVERDE, SAN CIRO DE ACOSTA, SAN NICOLAS TOLENTINO, SANTA CATARINA, VILLA DE ARISTA, VILLA HIDALGO, VILLA JUAREZ",2,-1,
310,ocd-division/country:mx/state:sl/fed:4,Diputación del Distrito Federal 4 de SAN LUIS POTOSÍ,MX,SLP,"CIUDAD VALLES, EBANO, SAN VICENTE TANCUAYALAB, TAMASOPO, TAMUIN, TANQUIAN DE ESCOBEDO, EL NARANJO",2,-1,
311,ocd-division/country:mx/state:sl/fed:5,Diputación del Distrito Federal 5 de SAN LUIS POTOSÍ,MX,SLP,SAN LUIS POTOSI,2,-1,
312,ocd-division/country:mx/state:sl/fed:6,Diputación del Distrito Federal 6 de SAN LUIS POTOSÍ,MX,SLP,SAN LUIS POTOSI,2,-1,
313,ocd-division/country:mx/state:sl/fed:7,Diputación del Distrito Federal 7 de SAN LUIS POTOSÍ,MX,SLP,"AQUISMON, TANCANHUITZ, COXCATLAN, HUEHUETLAN, SAN ANTONIO, SAN MARTIN CHALCHICUAUTLA, TAMAZUNCHALE, TAMPACAN, TAMPAMOLON CORONA, TANLAJAS, AXTLA DE TERRAZAS, XILITLA, MATLAPA",2,-1,
314,ocd-division/country:mx/state:so,Gubernatura de SONORA,MX,SON,,1,-1,
315,ocd-division/country:mx/state:so/city:49,Presidencia del municipio de HERMOSILLO,MX,SON,HERMOSILLO,3,-1,
316,ocd-division/country:mx/state:so/fed:1,Diputación del Distrito Federal 1 de SONORA,MX,SON,"ALTAR, ATIL, OQUITOA, SARIC, TRINCHERAS, TUBUTAMA, CABORCA, PITIQUITO, PUERTO PE?ASCO, SAN LUIS RIO COLORADO, GENERAL PLUTARCO ELIAS CALLES",2,-1,
317,ocd-division/country:mx/state:so/fed:2,Diputación del Distrito Federal 2 de SONORA,MX,SON,"AGUA PRIETA, ARIZPE, BACOACHI, CANANEA, CUCURPE, FRONTERAS, IMURIS, MAGDALENA, NACO, NOGALES, SANTA CRUZ",2,-1,
318,ocd-division/country:mx/state:so/fed:3,Diputación del Distrito Federal 3 de SONORA,MX,SON,HERMOSILLO,2,-1,
319,ocd-division/country:mx/state:so/fed:4,Diputación del Distrito Federal 4 de SONORA,MX,SON,"ACONCHI, ARIVECHI, BACADEHUACHI, BACANORA, BACERAC, BANAMICHI, BAVIACORA, BAVISPE, BENJAMIN HILL, CUMPAS, DIVISADEROS, GRANADOS, HUACHINERA, HUASABAS, HUEPAC, MOCTEZUMA, NACORI CHICO, NACOZARI DE GARCIA, SAHUARIPA, SAN FELIPE DE JESUS, SAN JAVIER, SAN PEDRO DE LA CUEVA, SANTA ANA, SOYOPA, SUAQUI GRANDE, TEPACHE, VILLA HIDALGO, VILLA PESQUEIRA, CARBO, LA COLORADA, MAZATAN, OPODEPE, RAYON, SAN MIGUEL DE HORCASITAS, URES, BACUM, EMPALME, GUAYMAS, ONAVAS, YECORA, SAN IGNACIO RIO MUERTO",2,-1,
320,ocd-division/country:mx/state:so/fed:5,Diputación del Distrito Federal 5 de SONORA,MX,SON,HERMOSILLO,2,-1,
321,ocd-division/country:mx/state:so/fed:6,Diputación del Distrito Federal 6 de SONORA,MX,SON,CAJEME,2,-1,
322,ocd-division/country:mx/state:so/fed:7,Diputación del Distrito Federal 7 de SONORA,MX,SON,"HUATABAMPO, NAVOJOA, QUIRIEGO, ROSARIO, BENITO JUAREZ, ALAMOS, ETCHOJOA",2,-1,
323,ocd-division/country:mx/state:tb,Gubernatura de TABASCO,MX,TAB,,1,-1,
324,ocd-division/country:mx/state:tb/fed:1,Diputación del Distrito Federal 1 de TABASCO,MX,TAB,"BALANCAN, EMILIANO ZAPATA, JONUTA, MACUSPANA, TENOSIQUE",2,-1,
325,ocd-division/country:mx/state:tb/fed:2,Diputación del Distrito Federal 2 de TABASCO,MX,TAB,"CARDENAS, HUIMANGUILLO",2,-1,
326,ocd-division/country:mx/state:tb/fed:3,Diputación del Distrito Federal 3 de TABASCO,MX,TAB,"COMALCALCO, CUNDUACAN",2,-1,
327,ocd-division/country:mx/state:tb/fed:4,Diputación del Distrito Federal 4 de TABASCO,MX,TAB,CENTRO,2,-1,
328,ocd-division/country:mx/state:tb/fed:5,Diputación del Distrito Federal 5 de TABASCO,MX,TAB,"CENTLA, JALPA DE MENDEZ, NACAJUCA, PARAISO",2,-1,
329,ocd-division/country:mx/state:tb/fed:6,Diputación del Distrito Federal 6 de TABASCO,MX,TAB,"CENTRO, JALAPA, TACOTALPA, TEAPA",2,-1,
330,ocd-division/country:mx/state:tm,Gubernatura de TLAXCALA,MX,TLA,,1,-1,
331,ocd-division/country:mx/state:tl/fed:1,Diputación del Distrito Federal 1 de TLAXCALA,MX,TLA,"ATLANGATEPEC, ATLTZAYANCA, EL CARMEN TEQUEXQUITLA, CUAPIAXTLA, CUAXOMULCO, HUAMANTLA, IXTENCO, SANTA CRUZ TLAXCALA, TERRENATE, TETLA DE LA SOLIDARIDAD, TLAXCO, TOCATLAN, ZITLALTEPEC DE TRINIDAD SANCHEZ SANTOS, TZOMPANTEPEC, XALOZTOC, SAN JOSE TEACALCO, EMILIANO ZAPATA, LAZARO CARDENAS, APIZACO",2,-1,
332,ocd-division/country:mx/state:tl/fed:2,Diputación del Distrito Federal 2 de TLAXCALA,MX,TLA,"APETATITLAN DE ANTONIO CARVAJAL, CHIAUTEMPAN, MAZATECOCHCO DE JOSE MARIA MORELOS, CONTLA DE JUAN CUAMATZI, ACUAMANALA DE MIGUEL HIDALGO, SAN PABLO DEL MONTE, TENANCINGO, TEOLOCHOLCO, TEPEYANCO, TLAXCALA, TOTOLAC, PAPALOTLA DE XICOHTENCATL, SANTA CRUZ QUILEHTLA, SANTA ISABEL XILOXOXTLA, SAN FRANCISCO TETLANOHCAN, LA MAGDALENA TLALTELULCO",2,-1,
333,ocd-division/country:mx/state:tl/fed:3,Diputación del Distrito Federal 3 de TLAXCALA,MX,TLA,"AMAXAC DE GUERRERO, APIZACO, CALPULALPAN, MU?OZ DE DOMINGO ARENAS, ESPA?ITA, HUEYOTLIPAN, IXTACUIXTLA DE MARIANO MATAMOROS, TEPETITLA DE LARDIZABAL, SANCTORUM DE LAZARO CARDENAS, NANACAMILPA DE MARIANO ARISTA, NATIVITAS, PANOTLA, TETLATLAHUCA, TLAXCALA, TOTOLAC, XALTOCAN, XICOHTZINCO, YAUHQUEMEHCAN, ZACATELCO, SANTA APOLONIA TEACALCO, SANTA CRUZ QUILEHTLA, SAN JUAN HUACTZINCO, SANTA CATARINA AYOMETLA, SAN DAMIAN TEXOLOC, SAN JERONIMO ZACUALPAN, SAN LUCAS TECOPILCO, SANTA ANA NOPALUCAN, SAN LORENZO AXOCOMANITLA, BENITO JUAREZ",2,-1,
334,ocd-division/country:mx/state:tl,Gubernatura de TAMAULIPAS,MX,TAM,,1,-1,
335,ocd-division/country:mx/state:tm/fed:1,Diputación del Distrito Federal 1 de TAMAULIPAS,MX,TAM,NUEVO LAREDO,2,-1,
336,ocd-division/country:mx/state:tm/fed:2,Diputación del Distrito Federal 2 de TAMAULIPAS,MX,TAM,"CAMARGO, GUERRERO, GUSTAVO DIAZ ORDAZ, MIER, MIGUEL ALEMAN, REYNOSA",2,-1,
337,ocd-division/country:mx/state:tm/fed:3,Diputación del Distrito Federal 3 de TAMAULIPAS,MX,TAM,"SAN FERNANDO, VALLE HERMOSO, BURGOS, CRUILLAS, MATAMOROS, MENDEZ, RIO BRAVO",2,-1,
338,ocd-division/country:mx/state:tm/fed:4,Diputación del Distrito Federal 4 de TAMAULIPAS,MX,TAM,MATAMOROS,2,-1,
339,ocd-division/country:mx/state:tm/fed:5,Diputación del Distrito Federal 5 de TAMAULIPAS,MX,TAM,"G?EMEZ, HIDALGO, MAINERO, PADILLA, SAN CARLOS, SAN NICOLAS, VICTORIA, VILLAGRAN",2,-1,
340,ocd-division/country:mx/state:tm/fed:6,Diputación del Distrito Federal 6 de TAMAULIPAS,MX,TAM,"ABASOLO, ALDAMA, ANTIGUO MORELOS, BUSTAMANTE, CASAS, GOMEZ FARIAS, GONZALEZ, JAUMAVE, JIMENEZ, LLERA, EL MANTE, MIQUIHUANA, NUEVO MORELOS, OCAMPO, PALMILLAS, SOTO LA MARINA, TULA, XICOTENCATL",2,-1,
341,ocd-division/country:mx/state:tm/fed:7,Diputación del Distrito Federal 7 de TAMAULIPAS,MX,TAM,"ALTAMIRA, CIUDAD MADERO",2,-1,
342,ocd-division/country:mx/state:tm/fed:8,Diputación del Distrito Federal 8 de TAMAULIPAS,MX,TAM,"CIUDAD MADERO, TAMPICO",2,-1,
343,ocd-division/country:mx/state:tm/fed:9,Diputación del Distrito Federal 9 de TAMAULIPAS,MX,TAM,REYNOSA,2,-1,
344,ocd-division/country:mx/state:ve,Gubernatura de VERACRUZ DE IGNACIO DE LA LLAVE,MX,VER,,1,-1,
345,ocd-division/country:mx/state:ve/fed:1,Diputación del Distrito Federal 1 de VERACRUZ DE IGNACIO DE LA LLAVE,MX,VER,"NARANJOS AMATLAN, CITLALTEPETL, CHINAMPA DE GOROSTIZA, OZULUAMA, PANUCO, PUEBLO VIEJO, TAMALIN, TAMIAHUA, TAMPICO ALTO, TANCOCO, TANTIMA, TEMPOAL, EL HIGO",2,-1,
346,ocd-division/country:mx/state:ve/fed:10,Diputación del Distrito Federal 10 de VERACRUZ DE IGNACIO DE LA LLAVE,MX,VER,XALAPA,2,-1,
347,ocd-division/country:mx/state:ve/fed:11,Diputación del Distrito Federal 11 de VERACRUZ DE IGNACIO DE LA LLAVE,MX,VER,"COATZACOALCOS, IXHUATLAN DEL SURESTE, MOLOACAN, AGUA DULCE",2,-1,
348,ocd-division/country:mx/state:ve/fed:12,Diputación del Distrito Federal 12 de VERACRUZ DE IGNACIO DE LA LLAVE,MX,VER,"BOCA DEL RIO, JAMAPA, MANLIO FABIO ALTAMIRANO, MEDELLIN DE BRAVO, VERACRUZ",2,-1,
349,ocd-division/country:mx/state:ve/fed:13,Diputación del Distrito Federal 13 de VERACRUZ DE IGNACIO DE LA LLAVE,MX,VER,"CAMARON DE TEJEDA, CARRILLO PUERTO, COMAPA, COTAXTLA, CUITLAHUAC, HUATUSCO, IGNACIO DE LA LLAVE, PASO DEL MACHO, PASO DE OVEJAS, SOCHIAPA, SOLEDAD DE DOBLADO, TIERRA BLANCA, TLALIXCOYAN, ZENTLA",2,-1,
350,ocd-division/country:mx/state:ve/fed:14,Diputación del Distrito Federal 14 de VERACRUZ DE IGNACIO DE LA LLAVE,MX,VER,"LAS CHOAPAS, HIDALGOTITLAN, JESUS CARRANZA, MINATITLAN, SAN JUAN EVANGELISTA, SAYULA DE ALEMAN, UXPANAPA",2,-1,
351,ocd-division/country:mx/state:ve/fed:15,Diputación del Distrito Federal 15 de VERACRUZ DE IGNACIO DE LA LLAVE,MX,VER,"ALPATLAHUAC, ATZACAN, CALCAHUALCO, COSCOMATEPEC, IXHUATLANCILLO, IXTACZOQUITLAN, MARIANO ESCOBEDO, ORIZABA, LA PERLA, RIO BLANCO",2,-1,
352,ocd-division/country:mx/state:ve/fed:16,Diputación del Distrito Federal 16 de VERACRUZ DE IGNACIO DE LA LLAVE,MX,VER,"IXHUATLAN DEL CAFE, TEPATLAXCO, TOMATLAN, YANGA, AMATLAN DE LOS REYES, ATOYAC, CORDOBA, CHOCAMAN, FORTIN",2,-1,
353,ocd-division/country:mx/state:ve/fed:17,Diputación del Distrito Federal 17 de VERACRUZ DE IGNACIO DE LA LLAVE,MX,VER,"ACAYUCAN, COSAMALOAPAN, CHACALTIANGUIS, ISLA, IXMATLAHUACAN, JUAN RODRIGUEZ CLARA, OTATITLAN, PLAYA VICENTE, JOSE AZUETA, TLACOJALPAN, TUXTILLA, TRES VALLES, CARLOS A. CARRILLO, SANTIAGO SOCHIAPAN",2,-1,
354,ocd-division/country:mx/state:ve/fed:18,Diputación del Distrito Federal 18 de VERACRUZ DE IGNACIO DE LA LLAVE,MX,VER,"ACULTZINGO, AQUILA, ASTACINGA, ATLAHUILCO, CAMERINO Z. MENDOZA, COETZALA, CUICHAPA, HUILOAPAN DE CUAUHTEMOC, MAGDALENA, MALTRATA, MIXTLA DE ALTAMIRANO, NARANJAL, NOGALES, OMEALCA, RAFAEL DELGADO, LOS REYES, SAN ANDRES TENEJAPAN, SOLEDAD ATZOMPA, TEHUIPANGO, TEQUILA, TEXHUACAN, TEZONAPA, TLAQUILPA, TLILAPAN, XOXOCOTLA, ZONGOLICA",2,-1,
355,ocd-division/country:mx/state:ve/fed:19,Diputación del Distrito Federal 19 de VERACRUZ DE IGNACIO DE LA LLAVE,MX,VER,"ACULA, ALVARADO, AMATITLAN, ANGEL R. CABADA, CATEMACO, LERDO DE TEJADA, SALTABARRANCA, SAN ANDRES TUXTLA, SANTIAGO TUXTLA, TLACOTALPAN",2,-1,
356,ocd-division/country:mx/state:ve/fed:2,Diputación del Distrito Federal 2 de VERACRUZ DE IGNACIO DE LA LLAVE,MX,VER,"BENITO JUAREZ, CHALMA, CHICONAMEL, CHICONTEPEC, CHONTLA, HUAYACOCOTLA, ILAMATLAN, IXCATEPEC, IXHUATLAN DE MADERO, PLATON SANCHEZ, TANTOYUCA, TEXCATEPEC, TLACHICHILCO, ZACUALPAN, ZONTECOMATLAN",2,-1,
357,ocd-division/country:mx/state:ve/fed:20,Diputación del Distrito Federal 20 de VERACRUZ DE IGNACIO DE LA LLAVE,MX,VER,"TEXISTEPEC, ZARAGOZA, NANCHITAL DE LAZARO CARDENAS DEL RIO, TATAHUICAPAN DE JUAREZ, COSOLEACAQUE, CHINAMECA, HUEYAPAN DE OCAMPO, JALTIPAN, MECAYAPAN, OLUTA, OTEAPAN, PAJAPAN, SOCONUSCO, SOTEAPAN",2,-1,
358,ocd-division/country:mx/state:ve/fed:3,Diputación del Distrito Federal 3 de VERACRUZ DE IGNACIO DE LA LLAVE,MX,VER,"ALAMO TEMAPACHE, CASTILLO DE TEAYO, CAZONES DE HERRERA, CERRO AZUL, TEPETZINTLA, TUXPAN",2,-1,
359,ocd-division/country:mx/state:ve/fed:4,Diputación del Distrito Federal 4 de VERACRUZ DE IGNACIO DE LA LLAVE,MX,VER,VERACRUZ,2,-1,
360,ocd-division/country:mx/state:ve/fed:5,Diputación del Distrito Federal 5 de VERACRUZ DE IGNACIO DE LA LLAVE,MX,VER,"COATZINTLA, POZA RICA DE HIDALGO, TIHUATLAN",2,-1,
361,ocd-division/country:mx/state:ve/fed:6,Diputación del Distrito Federal 6 de VERACRUZ DE IGNACIO DE LA LLAVE,MX,VER,"VEGA DE ALATORRE, ZOZOCOLCO DE HIDALGO, SAN RAFAEL, COAHUITLAN, COLIPA, COXQUIHUI, COYUTLA, CHUMATLAN, ESPINAL, FILOMENO MATA, GUTIERREZ ZAMORA, MECATLAN, NAUTLA, PAPANTLA, TECOLUTLA",2,-1,
362,ocd-division/country:mx/state:ve/fed:7,Diputación del Distrito Federal 7 de VERACRUZ DE IGNACIO DE LA LLAVE,MX,VER,"ALTOTONGA, ATZALAN, JALACINGO, MARTINEZ DE LA TORRE, LAS MINAS, MISANTLA, TENOCHTITLAN, TLAPACOYAN, VILLA ALDAMA",2,-1,
363,ocd-division/country:mx/state:ve/fed:8,Diputación del Distrito Federal 8 de VERACRUZ DE IGNACIO DE LA LLAVE,MX,VER,"ACATLAN, ACTOPAN, ALTO LUCERO DE GUTIERREZ BARRIOS, LA ANTIGUA, APAZAPAN, TLALTETELA, CHICONQUIACO, EMILIANO ZAPATA, XALAPA, JALCOMULCO, JUCHIQUE DE FERRER, LANDERO Y COSS, MIAHUATLAN, NAOLINCO, PUENTE NACIONAL, TENAMPA, TEPETLAN, TLACOTEPEC DE MEJIA, TONAYAN, TOTUTLA, URSULO GALVAN, YECUATLA",2,-1,
364,ocd-division/country:mx/state:ve/fed:9,Diputación del Distrito Federal 9 de VERACRUZ DE IGNACIO DE LA LLAVE,MX,VER,"ACAJETE, AYAHUALULCO, BANDERILLA, COACOATZINTLA, COATEPEC, COSAUTLAN DE CARVAJAL, IXHUACAN DE LOS REYES, JILOTEPEC, PEROTE, RAFAEL LUCIO, LAS VIGAS DE RAMIREZ, TATATILA, TEOCELO, TLACOLULAN, TLALNELHUAYOCAN, XICO",2,-1,
365,ocd-division/country:mx/state:yu,Gubernatura de YUCATÁN,MX,YUC,,1,-1,
366,ocd-division/country:mx/state:yu/fed:1,Diputación del Distrito Federal 1 de YUCATÁN,MX,YUC,"BUCTZOTZ, CALOTMUL, CENOTILLO, CUNCUNUL, CHANKOM, CHEMAX, CHICHIMILA, CHIKINDZONOT, DZIDZANTUN, DZILAM DE BRAVO, DZILAM GONZALEZ, DZITAS, DZONCAUICH, ESPITA, IZAMAL, KANTUNIL, KAUA, PANABA, QUINTANA ROO, RIO LAGARTOS, SAN FELIPE, SUCILA, SUDZAL, TEKAL DE VENEGAS, TEKOM, TEMAX, TEMOZON, TEPAKAN, TINUM, TIXCACALCUPUL, TIZIMIN, TUNKAS, UAYMA, VALLADOLID, YAXCABA",2,-1,
367,ocd-division/country:mx/state:yu/fed:2,Diputación del Distrito Federal 2 de YUCATÁN,MX,YUC,"ACANCEH, BACA, BOKOBA, CACALCHEN, CANSAHCAB, CELESTUN, CONKAL, CHICXULUB PUEBLO, DZEMUL, HOCABA, HOCTUN, HUNUCMA, IXIL, KANASIN, KINCHIL, MERIDA, MOCOCHA, MOTUL, MUXUPIP, PROGRESO, SAMAHIL, SEYE, SINANCHE, SUMA, TAHMEK, TEKANTO, TELCHAC PUEBLO, TELCHAC PUERTO, TETIZ, TEYA, TIMUCUY, TIXKOKOB, TIXPEHUAL, UCU, XOCCHEL, YAXKUKUL, YOBAIN",2,-1,
368,ocd-division/country:mx/state:yu/fed:3,Diputación del Distrito Federal 3 de YUCATÁN,MX,YUC,"MERIDA, KANASIN",2,-1,
369,ocd-division/country:mx/state:yu/fed:4,Diputación del Distrito Federal 4 de YUCATÁN,MX,YUC,MERIDA,2,-1,
370,ocd-division/country:mx/state:yu/fed:5,Diputación del Distrito Federal 5 de YUCATÁN,MX,YUC,"ABALA, AKIL, CANTAMAYEC, CUZAMA, CHACSINKIN, CHAPAB, CHOCHOLA, CHUMAYEL, DZAN, HALACHO, HOMUN, HUHI, KOPOMA, MAMA, MANI, MAXCANU, MAYAPAN, MERIDA, MUNA, OPICHEN, OXKUTZCAB, PETO, SACALUM, SANAHCAT, SANTA ELENA, SOTUTA, TAHDZIU, TEABO, TECOH, TEKAX, TEKIT, TICUL, TIXMEHUAC, TZUCACAB, UMAN",2,-1,
371,ocd-division/country:mx/state:za,Gubernatura de ZACATECAS,MX,ZAC,,1,-1,
372,ocd-division/country:mx/state:za/fed:1,Diputación del Distrito Federal 1 de ZACATECAS,MX,ZAC,"CALERA, CA?ITAS DE FELIPE PESCADOR, CHALCHIHUITES, FRESNILLO, GENERAL ENRIQUE ESTRADA, JIMENEZ DEL TEUL, SAIN ALTO, SOMBRERETE",2,-1,
373,ocd-division/country:mx/state:za/fed:2,Diputación del Distrito Federal 2 de ZACATECAS,MX,ZAC,"TRINIDAD GARCIA DE LA CADENA, GENARO CODINA, EL PLATEADO DE JOAQUIN AMARO, HUANUSCO, JALPA, JEREZ, JUCHIPILA, LUIS MOYA, MEZQUITAL DEL ORO, MOMAX, MONTE ESCOBEDO, MOYAHUA DE ESTRADA, NOCHISTLAN DE MEJIA, VALPARAISO, VILLANUEVA, SANTA MARIA DE LA PAZ, APOZOL, APULCO, ATOLINGA, BENITO JUAREZ, CUAUHTEMOC, OJOCALIENTE, SUSTICACAN, TABASCO, TEPECHITLAN, TEPETONGO, TEUL DE GONZALEZ ORTEGA, TLALTENANGO DE SANCHEZ ROMAN",2,-1,
374,ocd-division/country:mx/state:za/fed:3,Diputación del Distrito Federal 3 de ZACATECAS,MX,ZAC,"CONCEPCION DEL ORO, GENERAL FRANCISCO R. MURGUIA, JUAN ALDAMA, MAZAPIL, MELCHOR OCAMPO, MIGUEL AUZA, MORELOS, PANUCO, RIO GRANDE, EL SALVADOR, VETAGRANDE, VILLA DE COS, ZACATECAS",2,-1,
375,ocd-division/country:mx/state:za/fed:4,Diputación del Distrito Federal 4 de ZACATECAS,MX,ZAC,"GENERAL PANFILO NATERA, GUADALUPE, LORETO, NORIA DE ANGELES, PINOS, VILLA GARCIA, VILLA GONZALEZ ORTEGA, VILLA HIDALGO",2,-1,
376,ocd-division/country:mx/state:cm/city:1,Presidencia del municipio de CAMPECHE,MX,CAM,PRESIDENCIA DEL MUNICIPIO DE CAMPECHE,3,-1,
377,ocd-division/country:mx/state:qr/city:1,Presidencia del municipio de CHETUMAL,MX,ROO,PRESIDENCIA DEL MUNICIPIO DE CHETUMAL,3,-1,
378,ocd-division/country:mx/state:cl/city:1,Presidencia del municipio de COLIMA,MX,COL,PRESIDENCIA DEL MUNICIPIO DE COLIMA,3,-1,
379,ocd-division/country:mx/state:ja/city:11,Presidencia del municipio de GUADALAJARA,MX,JAL,PRESIDENCIA DEL MUNICIPIO DE GUADALAJARA,3,-1,
380,ocd-division/country:mx/state:gt/city:4,Presidencia del municipio de GUANAJUATO,MX,GUA,PRESIDENCIA DEL MUNICIPIO DE GUANAJUATO,3,-1,
381,ocd-division/country:mx/state:bs/city:1,Presidencia del municipio de LA PAZ,MX,BCS,PRESIDENCIA DEL MUNICIPIO DE LA PAZ,3,-1,
382,ocd-division/country:mx/state:yu/city:2,Presidencia del municipio de MÉRIDA,MX,YUC,PRESIDENCIA DEL MUNICIPIO DE MÉRIDA,3,-1,
383,ocd-division/country:mx/state:bc/city:1,Presidencia del municipio de MEXICALI,MX,BCN,PRESIDENCIA DEL MUNICIPIO DE MEXICALI,3,-1,
384,ocd-division/country:mx/state:oa/city:8,Presidencia del municipio de OAXACA,MX,OAX,PRESIDENCIA DEL MUNICIPIO DE OAXACA,3,-1,
385,ocd-division/country:mx/state:pu/city:11,Presidencia del municipio de PUEBLA,MX,PUE,PRESIDENCIA DEL MUNICIPIO DE PUEBLA,3,-1,
386,ocd-division/country:mx/state:tl/city:1,Presidencia del municipio de TLAXCALA,MX,TLA,PRESIDENCIA DEL MUNICIPIO DE TLAXCALA,3,-1,
387,ocd-division/country:mx/state:ve/city:10,Presidencia del municipio de XALAPA,MX,VER,PRESIDENCIA DEL MUNICIPIO DE XALAPA,3,-1,
388,ocd-division/country:mx/state:za/city:3,Presidencia del municipio de ZACATECAS,MX,ZAC,PRESIDENCIA DEL MUNICIPIO DE ZACATECAS,3,-1,
389,ocd-division/country:mx/state:mo/city:3,Presidencia del municipio de CUAUTLA,MX,MOR,CUAUTLA,3,-1,
390,ocd-division/country:mx/state:mo/city:1,Presidencia del municipio de CUERNAVACA,MX,MOR,CUERNAVACA,3,-1,
391,ocd-division/country:mx/state:mo/city:2,Presidencia del municipio de EMILIANO ZAPATA,MX,MOR,EMILIANO ZAPATA,3,-1,
392,ocd-division/country:mx/state:mo/city:4,Presidencia del municipio de JIUTEPEC,MX,MOR,JIUTEPEC,3,-1,
393,ocd-division/country:mx/state:mo/city:5,Presidencia del municipio de TEMIXCO,MX,MOR,TEMIXCO,3,-1,
394,ocd-division/country:mx/state:ja/city:10,Presidencia del municipio de ZAPOPAN,MX,JAL,ZAPOPAN,3,-1,
395,ocd-division/country:mx/state:ja/city:5,Presidencia del municipio de PUERTO VALLARTA,MX,JAL,PUERTO VALLARTA,3,-1,
396,ocd-division/country:mx/state:ja/city:12,Presidencia del municipio de TLAJOMULCO DE ZÚÑIGA,MX,JAL,TLAJOMULCO DE ZÚÑIGA,3,-1,
397,ocd-division/country:mx/state:ja/city:13,Presidencia del municipio de SAN PEDRO TLAQUEPAQUE,MX,JAL,SAN PEDRO TLAQUEPAQUE,3,-1,
398,ocd-division/country:mx/state:ja/city:7,Presidencia del municipio de TONALÁ,MX,JAL,TONALÁ,3,-1,
399,ocd-division/country:mx/state:so/city:5,Presidencia del municipio de CAJEME,MX,SON,CAJEME,3,-1,
400,ocd-division/country:mx/state:so/city:2,Presidencia del municipio de NOGALES,MX,SON,NOGALES,3,-1,
401,ocd-division/country:mx/state:so/city:1,Presidencia del municipio de SAN LUIS RÍO COLORADO,MX,SON,SAN LUIS RÍO COLORADO,3,-1,
402,ocd-division/country:mx/state:so/city:3,Presidencia del municipio de NAVOJOA,MX,SON,NAVOJOA,3,-1,
403,ocd-division/country:mx/state:so/city:4,Presidencia del municipio de GUAYMAS,MX,SON,GUAYMAS,3,-1,
404,ocd-division/country:mx/state:tl/city:2,Presidencia del municipio de CALPULALPAN,MX,TLA,CALPULALPAN,3,-1,
405,ocd-division/country:mx/state:tl/city:3,Presidencia del municipio de HUAMANTLA,MX,TLA,HUAMANTLA,3,-1,
406,ocd-division/country:mx/state:tl/city:4,Presidencia del municipio de SAN PABLO DEL MONTE,MX,TLA,SAN PABLO DEL MONTE,3,-1,
407,ocd-division/country:mx/state:tl/city:5,Presidencia del municipio de APIZACO,MX,TLA,APIZACO,3,-1,
408,ocd-division/country:mx/state:tl/city:6,Presidencia del municipio de CHIAUTEMPAN,MX,TLA,CHIAUTEMPAN,3,-1,
409,ocd-division/country:mx/state:za/city:2,Presidencia del municipio de FRESNILLO,MX,ZAC,FRESNILLO,3,-1,
410,ocd-division/country:mx/state:za/city:4,Presidencia del municipio de RÍO GRANDE,MX,ZAC,RÍO GRANDE,3,-1,
411,ocd-division/country:mx/state:bc/city:3,Presidencia del municipio de ENSENADA,MX,BCN,ENSENADA,3,-1,
412,ocd-division/country:mx/state:ch/city:7,Presidencia del municipio de BOCOYNA,MX,CHH,BOCOYNA,3,-1,
413,ocd-division/country:mx/state:gr/city:3,Presidencia del municipio de GUERRERO,MX,COA,GUERRERO,3,-1,
414,ocd-division/country:mx/state:cl/city:2,Presidencia del municipio de MANZANILLO,MX,COL,MANZANILLO,3,-1,
415,ocd-division/country:mx/state:gt/city:2,Presidencia del municipio de CELAYA,MX,GUA,CELAYA,3,-1,
416,ocd-division/country:mx/state:gt/city:5,Presidencia del municipio de IRAPUATO,MX,GUA,IRAPUATO,3,-1,
417,ocd-division/country:mx/state:gt/city:3,Presidencia del municipio de LEÓN,MX,GUA,LEÓN,3,-1,
418,ocd-division/country:mx/state:gt/city:1,Presidencia del municipio de SALAMANCA,MX,GUA,SALAMANCA,3,-1,
419,ocd-division/country:mx/state:gt/city:6,Presidencia del municipio de SANTIAGO MARAVATÍO,MX,GUA,SANTIAGO MARAVATÍO,3,-1,
420,ocd-division/country:mx/state:ja/city:8,Presidencia del municipio de TLAQUEPAQUE,MX,JAL,TLAQUEPAQUE,3,-1,
421,ocd-division/country:mx/state:mi/city:3,Presidencia del municipio de URUAPAN,MX,MIC,URUAPAN,3,-1,
422,ocd-division/country:mx/state:mi/city:1,Presidencia del municipio de ZAMORA,MX,MIC,ZAMORA,3,-1,
423,ocd-division/country:mx/state:oa/city:1,Presidencia del municipio de SAN JUAN IHUALTEPEC,MX,OAX,SAN JUAN IHUALTEPEC,3,-1,
424,ocd-division/country:mx/state:qr/city:2,Presidencia del municipio de BENITO JUÁREZ,MX,ROO,BENITO JUÁREZ,3,-1,
425,ocd-division/country:mx/state:so/city:6,Presidencia del municipio de YÉCORA,MX,SON,YÉCORA,3,-1,
426,ocd-division/country:mx/state:za/city:1,Presidencia del municipio de GENERAL ENRIQUE ESTRADA,MX,ZAC,GENERAL ENRIQUE ESTRADA,3,-1,
427,ocd-division/country:mx/state:ag,Senaduría de AGUASCALIENTES,MX,AGU,,4,-1,
428,ocd-division/country:mx/state:bc,Senaduría de BAJA CALIFORNIA,MX,BCN,,4,-1,
429,ocd-division/country:mx/state:bs,Senaduría de BAJA CALIFORNIA SUR,MX,BCS,,4,-1,
430,ocd-division/country:mx/state:cm,Senaduría de CAMPECHE,MX,CAM,,4,-1,
431,ocd-division/country:mx/state:cs,Senaduría de CHIAPAS,MX,CHP,,4,-1,
432,ocd-division/country:mx/state:ch,Senaduría de CHIHUAHUA,MX,CHH,,4,-1,
433,ocd-division/country:mx/state:cl,Senaduría de COLIMA,MX,COL,,4,-1,
434,ocd-division/country:mx/state:co,Senaduría de COAHUILA DE ZARAGOZA,MX,COA,,4,-1,
435,ocd-division/country:mx/state:df,Senaduría de CIUDAD DE MÉXICO,MX,CMX,,4,-1,
436,ocd-division/country:mx/state:dg,Senaduría de DURANGO,MX,DUR,,4,-1,
437,ocd-division/country:mx/state:em,Senaduría de ESTADO DE MÉXICO,MX,MEX,,4,-1,
438,ocd-division/country:mx/state:gt,Senaduría de GUANAJUATO,MX,GUA,,4,-1,
439,ocd-division/country:mx/state:gr,Senaduría de GUERRERO,MX,GRO,,4,-1,
440,ocd-division/country:mx/state:hg,Senaduría de HIDALGO,MX,HID,,4,-1,
441,ocd-division/country:mx/state:ja,Senaduría de JALISCO,MX,JAL,,4,-1,
442,ocd-division/country:mx/state:mi,Senaduría de MICHOACÁN DE OCAMPO,MX,MIC,,4,-1,
443,ocd-division/country:mx/state:mo,Senaduría de MORELOS,MX,MOR,,4,-1,
444,ocd-division/country:mx/state:na,Senaduría de NAYARIT,MX,NAY,,4,-1,
445,ocd-division/country:mx/state:nl,Senaduría de NUEVO LEÓN,MX,NLE,,4,-1,
446,ocd-division/country:mx/state:oa,Senaduría de OAXACA,MX,OAX,,4,-1,
447,ocd-division/country:mx/state:pu,Senaduría de PUEBLA,MX,PUE,,4,-1,
448,ocd-division/country:mx/state:qt,Senaduría de QUERÉTARO,MX,QUE,,4,-1,
449,ocd-division/country:mx/state:qr,Senaduría de QUINTANA ROO,MX,ROO,,4,-1,
450,ocd-division/country:mx/state:sl,Senaduría de SAN LUIS POTOSÍ,MX,SLP,,4,-1,
451,ocd-division/country:mx/state:si,Senaduría de SINALOA,MX,SIN,,4,-1,
452,ocd-division/country:mx/state:so,Senaduría de SONORA,MX,SON,,4,-1,
453,ocd-division/country:mx/state:tb,Senaduría de TABASCO,MX,TAB,,4,-1,
454,ocd-division/country:mx/state:tm,Senaduría de TLAXCALA,MX,TLA,,4,-1,
455,ocd-division/country:mx/state:tl,Senaduría de TAMAULIPAS,MX,TAM,,4,-1,
456,ocd-division/country:mx/state:ve,Senaduría de VERACRUZ DE IGNACIO DE LA LLAVE,MX,VER,,4,-1,
457,ocd-division/country:mx/state:yu,Senaduría de YUCATÁN,MX,YUC,,4,-1,
458,ocd-division/country:mx/state:za,Senaduría de ZACATECAS,MX,ZAC,,4,-1,
459,ocd-division/country:mx/state:ag/loc:1,Diputación del Distrito Local 1 AGUASCALIENTES,MX,AGU,"COSIO, RINCON DE ROMOS",5,-1,
460,ocd-division/country:mx/state:ag/loc:2,Diputación del Distrito Local 2 AGUASCALIENTES,MX,AGU,"ASIENTOS, EL LLANO",5,-1,
461,ocd-division/country:mx/state:ag/loc:3,Diputación del Distrito Local 3 AGUASCALIENTES,MX,AGU,"PABELLON DE ARTEAGA, TEPEZALA",5,-1,
462,ocd-division/country:mx/state:ag/loc:4,Diputación del Distrito Local 4 AGUASCALIENTES,MX,AGU,"JESUS MARIA, SAN FRANCISCO DE LOS ROMO",5,-1,
463,ocd-division/country:mx/state:ag/loc:5,Diputación del Distrito Local 5 AGUASCALIENTES,MX,AGU,AGUASCALIENTES,5,-1,
464,ocd-division/country:mx/state:ag/loc:6,Diputación del Distrito Local 6 AGUASCALIENTES,MX,AGU,AGUASCALIENTES,5,-1,
465,ocd-division/country:mx/state:ag/loc:7,Diputación del Distrito Local 7 AGUASCALIENTES,MX,AGU,JESUS MARIA,5,-1,
466,ocd-division/country:mx/state:ag/loc:8,Diputación del Distrito Local 8 AGUASCALIENTES,MX,AGU,"CALVILLO, SAN JOSE DE GRACIA",5,-1,
467,ocd-division/country:mx/state:ag/loc:9,Diputación del Distrito Local 9 AGUASCALIENTES,MX,AGU,AGUASCALIENTES,5,-1,
468,ocd-division/country:mx/state:ag/loc:10,Diputación del Distrito Local 10 AGUASCALIENTES,MX,AGU,AGUASCALIENTES,5,-1,
469,ocd-division/country:mx/state:ag/loc:11,Diputación del Distrito Local 11 AGUASCALIENTES,MX,AGU,AGUASCALIENTES,5,-1,
470,ocd-division/country:mx/state:ag/loc:12,Diputación del Distrito Local 12 AGUASCALIENTES,MX,AGU,AGUASCALIENTES,5,-1,
471,ocd-division/country:mx/state:ag/loc:13,Diputación del Distrito Local 13 AGUASCALIENTES,MX,AGU,AGUASCALIENTES,5,-1,
472,ocd-division/country:mx/state:ag/loc:14,Diputación del Distrito Local 14 AGUASCALIENTES,MX,AGU,AGUASCALIENTES,5,-1,
473,ocd-division/country:mx/state:ag/loc:15,Diputación del Distrito Local 15 AGUASCALIENTES,MX,AGU,AGUASCALIENTES,5,-1,
474,ocd-division/country:mx/state:ag/loc:16,Diputación del Distrito Local 16 AGUASCALIENTES,MX,AGU,AGUASCALIENTES,5,-1,
475,ocd-division/country:mx/state:ag/loc:17,Diputación del Distrito Local 17 AGUASCALIENTES,MX,AGU,AGUASCALIENTES,5,-1,
476,ocd-division/country:mx/state:ag/loc:18,Diputación del Distrito Local 18 AGUASCALIENTES,MX,AGU,AGUASCALIENTES,5,-1,
477,ocd-division/country:mx/state:bc/loc:1,Diputación del Distrito Local 1 BAJA CALIFORNIA,MX,BCN,MEXICALI,5,-1,
478,ocd-division/country:mx/state:bc/loc:2,Diputación del Distrito Local 2 BAJA CALIFORNIA,MX,BCN,MEXICALI,5,-1,
479,ocd-division/country:mx/state:bc/loc:3,Diputación del Distrito Local 3 BAJA CALIFORNIA,MX,BCN,MEXICALI,5,-1,
480,ocd-division/country:mx/state:bc/loc:4,Diputación del Distrito Local 4 BAJA CALIFORNIA,MX,BCN,MEXICALI,5,-1,
481,ocd-division/country:mx/state:bc/loc:5,Diputación del Distrito Local 5 BAJA CALIFORNIA,MX,BCN,MEXICALI,5,-1,
482,ocd-division/country:mx/state:bc/loc:6,Diputación del Distrito Local 6 BAJA CALIFORNIA,MX,BCN,"TECATE, TIJUANA",5,-1,
483,ocd-division/country:mx/state:bc/loc:7,Diputación del Distrito Local 7 BAJA CALIFORNIA,MX,BCN,TIJUANA,5,-1,
484,ocd-division/country:mx/state:bc/loc:8,Diputación del Distrito Local 8 BAJA CALIFORNIA,MX,BCN,TIJUANA,5,-1,
485,ocd-division/country:mx/state:bc/loc:9,Diputación del Distrito Local 9 BAJA CALIFORNIA,MX,BCN,TIJUANA,5,-1,
486,ocd-division/country:mx/state:bc/loc:10,Diputación del Distrito Local 10 BAJA CALIFORNIA,MX,BCN,TIJUANA,5,-1,
487,ocd-division/country:mx/state:bc/loc:11,Diputación del Distrito Local 11 BAJA CALIFORNIA,MX,BCN,TIJUANA,5,-1,
488,ocd-division/country:mx/state:bc/loc:12,Diputación del Distrito Local 12 BAJA CALIFORNIA,MX,BCN,TIJUANA,5,-1,
489,ocd-division/country:mx/state:bc/loc:13,Diputación del Distrito Local 13 BAJA CALIFORNIA,MX,BCN,TIJUANA,5,-1,
490,ocd-division/country:mx/state:bc/loc:14,Diputación del Distrito Local 14 BAJA CALIFORNIA,MX,BCN,TIJUANA,5,-1,
491,ocd-division/country:mx/state:bc/loc:15,Diputación del Distrito Local 15 BAJA CALIFORNIA,MX,BCN,"ENSENADA, PLAYAS DE ROSARITO",5,-1,
492,ocd-division/country:mx/state:bc/loc:16,Diputación del Distrito Local 16 BAJA CALIFORNIA,MX,BCN,ENSENADA,5,-1,
493,ocd-division/country:mx/state:bc/loc:17,Diputación del Distrito Local 17 BAJA CALIFORNIA,MX,BCN,ENSENADA,5,-1,
494,ocd-division/country:mx/state:bs/loc:1,Diputación del Distrito Local 1 BAJA CALIFORNIA SUR,MX,BCS,LOS CABOS,5,-1,
495,ocd-division/country:mx/state:bs/loc:2,Diputación del Distrito Local 2 BAJA CALIFORNIA SUR,MX,BCS,LA PAZ,5,-1,
496,ocd-division/country:mx/state:bs/loc:3,Diputación del Distrito Local 3 BAJA CALIFORNIA SUR,MX,BCS,LA PAZ,5,-1,
497,ocd-division/country:mx/state:bs/loc:4,Diputación del Distrito Local 4 BAJA CALIFORNIA SUR,MX,BCS,LA PAZ,5,-1,
498,ocd-division/country:mx/state:bs/loc:5,Diputación del Distrito Local 5 BAJA CALIFORNIA SUR,MX,BCS,LA PAZ,5,-1,
499,ocd-division/country:mx/state:bs/loc:6,Diputación del Distrito Local 6 BAJA CALIFORNIA SUR,MX,BCS,LA PAZ,5,-1,
500,ocd-division/country:mx/state:bs/loc:7,Diputación del Distrito Local 7 BAJA CALIFORNIA SUR,MX,BCS,LOS CABOS,5,-1,
501,ocd-division/country:mx/state:bs/loc:8,Diputación del Distrito Local 8 BAJA CALIFORNIA SUR,MX,BCS,LOS CABOS,5,-1,
502,ocd-division/country:mx/state:bs/loc:9,Diputación del Distrito Local 9 BAJA CALIFORNIA SUR,MX,BCS,LOS CABOS,5,-1,
503,ocd-division/country:mx/state:bs/loc:10,Diputación del Distrito Local 10 BAJA CALIFORNIA SUR,MX,BCS,COMONDU,5,-1,
504,ocd-division/country:mx/state:bs/loc:11,Diputación del Distrito Local 11 BAJA CALIFORNIA SUR,MX,BCS,COMONDU,5,-1,
505,ocd-division/country:mx/state:bs/loc:12,Diputación del Distrito Local 12 BAJA CALIFORNIA SUR,MX,BCS,LOS CABOS,5,-1,
506,ocd-division/country:mx/state:bs/loc:13,Diputación del Distrito Local 13 BAJA CALIFORNIA SUR,MX,BCS,"MULEGE, LORETO",5,-1,
507,ocd-division/country:mx/state:bs/loc:14,Diputación del Distrito Local 14 BAJA CALIFORNIA SUR,MX,BCS,MULEGE,5,-1,
508,ocd-division/country:mx/state:bs/loc:15,Diputación del Distrito Local 15 BAJA CALIFORNIA SUR,MX,BCS,LA PAZ,5,-1,
509,ocd-division/country:mx/state:bs/loc:16,Diputación del Distrito Local 16 BAJA CALIFORNIA SUR,MX,BCS,LOS CABOS,5,-1,
510,ocd-division/country:mx/state:cm/loc:1,Diputación del Distrito Local 1 CAMPECHE,MX,CAM,CAMPECHE,5,-1,
511,ocd-division/country:mx/state:cm/loc:2,Diputación del Distrito Local 2 CAMPECHE,MX,CAM,CAMPECHE,5,-1,
512,ocd-division/country:mx/state:cm/loc:3,Diputación del Distrito Local 3 CAMPECHE,MX,CAM,CAMPECHE,5,-1,
513,ocd-division/country:mx/state:cm/loc:4,Diputación del Distrito Local 4 CAMPECHE,MX,CAM,CAMPECHE,5,-1,
514,ocd-division/country:mx/state:cm/loc:5,Diputación del Distrito Local 5 CAMPECHE,MX,CAM,CAMPECHE,5,-1,
515,ocd-division/country:mx/state:cm/loc:6,Diputación del Distrito Local 6 CAMPECHE,MX,CAM,CAMPECHE,5,-1,
516,ocd-division/country:mx/state:cm/loc:7,Diputación del Distrito Local 7 CAMPECHE,MX,CAM,"CAMPECHE, TENABO",5,-1,
517,ocd-division/country:mx/state:cm/loc:8,Diputación del Distrito Local 8 CAMPECHE,MX,CAM,CARMEN,5,-1,
518,ocd-division/country:mx/state:cm/loc:9,Diputación del Distrito Local 9 CAMPECHE,MX,CAM,CARMEN,5,-1,
519,ocd-division/country:mx/state:cm/loc:10,Diputación del Distrito Local 10 CAMPECHE,MX,CAM,CARMEN,5,-1,
520,ocd-division/country:mx/state:cm/loc:11,Diputación del Distrito Local 11 CAMPECHE,MX,CAM,CARMEN,5,-1,
521,ocd-division/country:mx/state:cm/loc:12,Diputación del Distrito Local 12 CAMPECHE,MX,CAM,CARMEN,5,-1,
522,ocd-division/country:mx/state:cm/loc:13,Diputación del Distrito Local 13 CAMPECHE,MX,CAM,ESCARCEGA,5,-1,
523,ocd-division/country:mx/state:cm/loc:14,Diputación del Distrito Local 14 CAMPECHE,MX,CAM,CANDELARIA,5,-1,
524,ocd-division/country:mx/state:cm/loc:15,Diputación del Distrito Local 15 CAMPECHE,MX,CAM,CHAMPOTON,5,-1,
525,ocd-division/country:mx/state:cm/loc:16,Diputación del Distrito Local 16 CAMPECHE,MX,CAM,CHAMPOTON,5,-1,
526,ocd-division/country:mx/state:cm/loc:17,Diputación del Distrito Local 17 CAMPECHE,MX,CAM,CALKINI,5,-1,
527,ocd-division/country:mx/state:cm/loc:18,Diputación del Distrito Local 18 CAMPECHE,MX,CAM,HOPELCHEN,5,-1,
528,ocd-division/country:mx/state:cm/loc:19,Diputación del Distrito Local 19 CAMPECHE,MX,CAM,"CALKINI, HECELCHAKAN",5,-1,
529,ocd-division/country:mx/state:cm/loc:20,Diputación del Distrito Local 20 CAMPECHE,MX,CAM,"CARMEN, PALIZADA",5,-1,
530,ocd-division/country:mx/state:cm/loc:21,Diputación del Distrito Local 21 CAMPECHE,MX,CAM,"ESCARCEGA, CALAKMUL",5,-1,
531,ocd-division/country:mx/state:co/loc:1,Diputación del Distrito Local 1 COAHUILA DE ZARAGOZA,MX,COA,"ACUÑA, ALLENDE, JIMENEZ, MORELOS, ZARAGOZA",5,-1,
532,ocd-division/country:mx/state:co/loc:2,Diputación del Distrito Local 2 COAHUILA DE ZARAGOZA,MX,COA,"GUERRERO, HIDALGO, NAVA, PIEDRAS NEGRAS",5,-1,
533,ocd-division/country:mx/state:co/loc:3,Diputación del Distrito Local 3 COAHUILA DE ZARAGOZA,MX,COA,"MUZQUIZ, SABINAS, SAN JUAN DE SABINAS",5,-1,
534,ocd-division/country:mx/state:co/loc:4,Diputación del Distrito Local 4 COAHUILA DE ZARAGOZA,MX,COA,"CUATROCIENEGAS, LAMADRID, NADADORES, OCAMPO, SACRAMENTO, SAN BUENAVENTURA, SAN PEDRO, SIERRA MOJADA",5,-1,
535,ocd-division/country:mx/state:co/loc:5,Diputación del Distrito Local 5 COAHUILA DE ZARAGOZA,MX,COA,"ABASOLO, ALLENDE, CANDELA, ESCOBEDO, JUAREZ, MONCLOVA, PROGRESO, VILLA UNION",5,-1,
536,ocd-division/country:mx/state:co/loc:6,Diputación del Distrito Local 6 COAHUILA DE ZARAGOZA,MX,COA,"CASTAÑOS, FRONTERA, MONCLOVA",5,-1,
537,ocd-division/country:mx/state:co/loc:7,Diputación del Distrito Local 7 COAHUILA DE ZARAGOZA,MX,COA,"FRANCISCO I. MADERO, MATAMOROS, TORREON, VIESCA",5,-1,
538,ocd-division/country:mx/state:co/loc:8,Diputación del Distrito Local 8 COAHUILA DE ZARAGOZA,MX,COA,TORREON,5,-1,
539,ocd-division/country:mx/state:co/loc:9,Diputación del Distrito Local 9 COAHUILA DE ZARAGOZA,MX,COA,TORREON,5,-1,
540,ocd-division/country:mx/state:co/loc:10,Diputación del Distrito Local 10 COAHUILA DE ZARAGOZA,MX,COA,TORREON,5,-1,
541,ocd-division/country:mx/state:co/loc:11,Diputación del Distrito Local 11 COAHUILA DE ZARAGOZA,MX,COA,TORREON,5,-1,
542,ocd-division/country:mx/state:co/loc:12,Diputación del Distrito Local 12 COAHUILA DE ZARAGOZA,MX,COA,"ARTEAGA, GENERAL CEPEDA, PARRAS, RAMOS ARIZPE",5,-1,
543,ocd-division/country:mx/state:co/loc:13,Diputación del Distrito Local 13 COAHUILA DE ZARAGOZA,MX,COA,SALTILLO,5,-1,
544,ocd-division/country:mx/state:co/loc:14,Diputación del Distrito Local 14 COAHUILA DE ZARAGOZA,MX,COA,SALTILLO,5,-1,
545,ocd-division/country:mx/state:co/loc:15,Diputación del Distrito Local 15 COAHUILA DE ZARAGOZA,MX,COA,SALTILLO,5,-1,
546,ocd-division/country:mx/state:co/loc:16,Diputación del Distrito Local 16 COAHUILA DE ZARAGOZA,MX,COA,SALTILLO,5,-1,
547,ocd-division/country:mx/state:cl/loc:1,Diputación del Distrito Local 1 COLIMA,MX,COL,COLIMA,5,-1,
548,ocd-division/country:mx/state:cl/loc:2,Diputación del Distrito Local 2 COLIMA,MX,COL,COLIMA,5,-1,
549,ocd-division/country:mx/state:cl/loc:3,Diputación del Distrito Local 3 COLIMA,MX,COL,COLIMA,5,-1,
550,ocd-division/country:mx/state:cl/loc:4,Diputación del Distrito Local 4 COLIMA,MX,COL,"COMALA, VILLA DE ALVAREZ",5,-1,
551,ocd-division/country:mx/state:cl/loc:5,Diputación del Distrito Local 5 COLIMA,MX,COL,"COQUIMATLAN, VILLA DE ALVAREZ",5,-1,
552,ocd-division/country:mx/state:cl/loc:6,Diputación del Distrito Local 6 COLIMA,MX,COL,"COLIMA, CUAUHTEMOC",5,-1,
553,ocd-division/country:mx/state:cl/loc:7,Diputación del Distrito Local 7 COLIMA,MX,COL,VILLA DE ALVAREZ,5,-1,
554,ocd-division/country:mx/state:cl/loc:8,Diputación del Distrito Local 8 COLIMA,MX,COL,VILLA DE ALVAREZ,5,-1,
555,ocd-division/country:mx/state:cl/loc:9,Diputación del Distrito Local 9 COLIMA,MX,COL,"ARMERIA, MANZANILLO",5,-1,
556,ocd-division/country:mx/state:cl/loc:10,Diputación del Distrito Local 10 COLIMA,MX,COL,TECOMAN,5,-1,
557,ocd-division/country:mx/state:cl/loc:11,Diputación del Distrito Local 11 COLIMA,MX,COL,MANZANILLO,5,-1,
558,ocd-division/country:mx/state:cl/loc:12,Diputación del Distrito Local 12 COLIMA,MX,COL,MANZANILLO,5,-1,
559,ocd-division/country:mx/state:cl/loc:13,Diputación del Distrito Local 13 COLIMA,MX,COL,MANZANILLO,5,-1,
560,ocd-division/country:mx/state:cl/loc:14,Diputación del Distrito Local 14 COLIMA,MX,COL,"MANZANILLO, MINATITLAN",5,-1,
561,ocd-division/country:mx/state:cl/loc:15,Diputación del Distrito Local 15 COLIMA,MX,COL,TECOMAN,5,-1,
562,ocd-division/country:mx/state:cl/loc:16,Diputación del Distrito Local 16 COLIMA,MX,COL,"IXTLAHUACAN, TECOMAN",5,-1,
563,ocd-division/country:mx/state:cs/loc:1,Diputación del Distrito Local 1 CHIAPAS,MX,CHP,TUXTLA GUTIERREZ,5,-1,
564,ocd-division/country:mx/state:cs/loc:2,Diputación del Distrito Local 2 CHIAPAS,MX,CHP,"BERRIOZABAL, CHICOASEN, OSUMACINTA, SAN FERNANDO, TUXTLA GUTIERREZ",5,-1,
565,ocd-division/country:mx/state:cs/loc:3,Diputación del Distrito Local 3 CHIAPAS,MX,CHP,"ACALA, CHIAPA DE CORZO, CHIAPILLA, NICOLAS RUIZ, SAN LUCAS, TOTOLAPA, VENUSTIANO CARRANZA",5,-1,
566,ocd-division/country:mx/state:cs/loc:4,Diputación del Distrito Local 4 CHIAPAS,MX,CHP,"CHILON, SAN JUAN CANCUC, SITALA, YAJALON",5,-1,
567,ocd-division/country:mx/state:cs/loc:5,Diputación del Distrito Local 5 CHIAPAS,MX,CHP,SAN CRISTOBAL DE LAS CASAS,5,-1,
568,ocd-division/country:mx/state:cs/loc:6,Diputación del Distrito Local 6 CHIAPAS,MX,CHP,"COMITAN DE DOMINGUEZ, LAS ROSAS, SOCOLTENANGO, TZIMOL",5,-1,
569,ocd-division/country:mx/state:cs/loc:7,Diputación del Distrito Local 7 CHIAPAS,MX,CHP,OCOSINGO,5,-1,
570,ocd-division/country:mx/state:cs/loc:8,Diputación del Distrito Local 8 CHIAPAS,MX,CHP,"HUITIUPAN, SABANILLA, SIMOJOVEL, TILA, TUMBALA, SAN ANDRES DURAZNAL",5,-1,
571,ocd-division/country:mx/state:cs/loc:9,Diputación del Distrito Local 9 CHIAPAS,MX,CHP,"CATAZAJA, LA LIBERTAD, PALENQUE, SALTO DE AGUA",5,-1,
572,ocd-division/country:mx/state:cs/loc:10,Diputación del Distrito Local 10 CHIAPAS,MX,CHP,"FRONTERA COMALAPA, LA INDEPENDENCIA, LA TRINITARIA",5,-1,
573,ocd-division/country:mx/state:cs/loc:11,Diputación del Distrito Local 11 CHIAPAS,MX,CHP,"AMATAN, BOCHIL, EL BOSQUE, CHAPULTENANGO, FRANCISCO LEON, IXHUATAN, JITOTOL, OCOTEPEC, PANTEPEC, PUEBLO NUEVO SOLISTAHUACAN, RAYON, SOYALO, TAPALAPA, TAPILULA",5,-1,
574,ocd-division/country:mx/state:cs/loc:12,Diputación del Distrito Local 12 CHIAPAS,MX,CHP,"COAPILLA, COPAINALA, IXTACOMITAN, IXTAPANGAJOYA, JUAREZ, OSTUACAN, PICHUCALCO, REFORMA, SOLOSUCHIAPA, SUNUAPA, TECPATAN",5,-1,
575,ocd-division/country:mx/state:cs/loc:13,Diputación del Distrito Local 13 CHIAPAS,MX,CHP,TUXTLA GUTIERREZ,5,-1,
576,ocd-division/country:mx/state:cs/loc:14,Diputación del Distrito Local 14 CHIAPAS,MX,CHP,"CINTALAPA, JIQUIPILAS, OCOZOCOAUTLA DE ESPINOSA, SUCHIAPA",5,-1,
577,ocd-division/country:mx/state:cs/loc:15,Diputación del Distrito Local 15 CHIAPAS,MX,CHP,"ARRIAGA, TONALA, VILLAFLORES",5,-1,
578,ocd-division/country:mx/state:cs/loc:16,Diputación del Distrito Local 16 CHIAPAS,MX,CHP,"HUEHUETAN, HUIXTLA, MAZATAN, TAPACHULA, TUZANTAN",5,-1,
579,ocd-division/country:mx/state:cs/loc:17,Diputación del Distrito Local 17 CHIAPAS,MX,CHP,"AMATENANGO DE LA FRONTERA, BEJUCAL DE OCAMPO, BELLA VISTA, CHICOMUSELO, LA GRANDEZA, MAZAPA DE MADERO, MOTOZINTLA, EL PORVENIR",5,-1,
580,ocd-division/country:mx/state:cs/loc:18,Diputación del Distrito Local 18 CHIAPAS,MX,CHP,"ACACOYAGUA, ACAPETAHUA, ESCUINTLA, MAPASTEPEC, PIJIJIAPAN, VILLACOMALTITLAN",5,-1,
581,ocd-division/country:mx/state:cs/loc:19,Diputación del Distrito Local 19 CHIAPAS,MX,CHP,TAPACHULA,5,-1,
582,ocd-division/country:mx/state:cs/loc:20,Diputación del Distrito Local 20 CHIAPAS,MX,CHP,"ALTAMIRANO, AMATENANGO DEL VALLE, CHANAL, LAS MARGARITAS, OCOSINGO, BENEMERITO DE LAS AMERICAS, MARAVILLA TENEJAPA, MARQUES DE COMILLAS",5,-1,
583,ocd-division/country:mx/state:cs/loc:21,Diputación del Distrito Local 21 CHIAPAS,MX,CHP,"CHALCHIHUITAN, CHENALHO, LARRAINZAR, MITONTIC, OXCHUC, PANTELHO, TENEJAPA, ALDAMA, SANTIAGO EL PINAR",5,-1,
584,ocd-division/country:mx/state:cs/loc:22,Diputación del Distrito Local 22 CHIAPAS,MX,CHP,"CHAMULA, HUIXTAN, IXTAPA, SAN CRISTOBAL DE LAS CASAS, TEOPISCA, ZINACANTAN",5,-1,
585,ocd-division/country:mx/state:cs/loc:23,Diputación del Distrito Local 23 CHIAPAS,MX,CHP,"ANGEL ALBINO CORZO, LA CONCORDIA, SILTEPEC, VILLA CORZO, MONTECRISTO DE GUERRERO",5,-1,
586,ocd-division/country:mx/state:cs/loc:24,Diputación del Distrito Local 24 CHIAPAS,MX,CHP,"CACAHOATAN, FRONTERA HIDALGO, METAPA, SUCHIATE, TAPACHULA, TUXTLA CHICO, UNION JUAREZ",5,-1,
587,ocd-division/country:mx/state:ch/loc:1,Diputación del Distrito Local 1 CHIHUAHUA,MX,CHH,"ASCENSION, CASAS GRANDES, GALEANA, GOMEZ FARIAS, IGNACIO ZARAGOZA, JANOS, MADERA, NUEVO CASAS GRANDES",5,-1,
588,ocd-division/country:mx/state:ch/loc:2,Diputación del Distrito Local 2 CHIHUAHUA,MX,CHH,JUAREZ,5,-1,
589,ocd-division/country:mx/state:ch/loc:3,Diputación del Distrito Local 3 CHIHUAHUA,MX,CHH,JUAREZ,5,-1,
590,ocd-division/country:mx/state:ch/loc:4,Diputación del Distrito Local 4 CHIHUAHUA,MX,CHH,JUAREZ,5,-1,
591,ocd-division/country:mx/state:ch/loc:5,Diputación del Distrito Local 5 CHIHUAHUA,MX,CHH,JUAREZ,5,-1,
592,ocd-division/country:mx/state:ch/loc:6,Diputación del Distrito Local 6 CHIHUAHUA,MX,CHH,JUAREZ,5,-1,
593,ocd-division/country:mx/state:ch/loc:7,Diputación del Distrito Local 7 CHIHUAHUA,MX,CHH,JUAREZ,5,-1,
594,ocd-division/country:mx/state:ch/loc:8,Diputación del Distrito Local 8 CHIHUAHUA,MX,CHH,JUAREZ,5,-1,
595,ocd-division/country:mx/state:ch/loc:9,Diputación del Distrito Local 9 CHIHUAHUA,MX,CHH,JUAREZ,5,-1,
596,ocd-division/country:mx/state:ch/loc:10,Diputación del Distrito Local 10 CHIHUAHUA,MX,CHH,JUAREZ,5,-1,
597,ocd-division/country:mx/state:ch/loc:11,Diputación del Distrito Local 11 CHIHUAHUA,MX,CHH,"AHUMADA, ALDAMA, AQUILES SERDAN, BUENAVENTURA, COYAME DEL SOTOL, GUADALUPE, JULIMES, MANUEL BENAVIDES, MEOQUI, OJINAGA, PRAXEDIS G. GUERRERO",5,-1,
598,ocd-division/country:mx/state:ch/loc:12,Diputación del Distrito Local 12 CHIHUAHUA,MX,CHH,CHIHUAHUA,5,-1,
599,ocd-division/country:mx/state:ch/loc:13,Diputación del Distrito Local 13 CHIHUAHUA,MX,CHH,"BACHINIVA, BOCOYNA, CUSIHUIRIACHI, CHINIPAS, GUAZAPARES, GUERRERO, MAGUARICHI, MATACHI, MORIS, NAMIQUIPA, OCAMPO, TEMOSACHIC, URUACHI",5,-1,
600,ocd-division/country:mx/state:ch/loc:14,Diputación del Distrito Local 14 CHIHUAHUA,MX,CHH,"CUAUHTEMOC, RIVA PALACIO",5,-1,
601,ocd-division/country:mx/state:ch/loc:15,Diputación del Distrito Local 15 CHIHUAHUA,MX,CHH,CHIHUAHUA,5,-1,
602,ocd-division/country:mx/state:ch/loc:16,Diputación del Distrito Local 16 CHIHUAHUA,MX,CHH,CHIHUAHUA,5,-1,
603,ocd-division/country:mx/state:ch/loc:17,Diputación del Distrito Local 17 CHIHUAHUA,MX,CHH,CHIHUAHUA,5,-1,
604,ocd-division/country:mx/state:ch/loc:18,Diputación del Distrito Local 18 CHIHUAHUA,MX,CHH,CHIHUAHUA,5,-1,
605,ocd-division/country:mx/state:ch/loc:19,Diputación del Distrito Local 19 CHIHUAHUA,MX,CHH,"DELICIAS, ROSALES",5,-1,
606,ocd-division/country:mx/state:ch/loc:20,Diputación del Distrito Local 20 CHIHUAHUA,MX,CHH,"ALLENDE, CAMARGO, CORONADO, LA CRUZ, JIMENEZ, LOPEZ, SAN FRANCISCO DE CONCHOS, SAUCILLO",5,-1,
607,ocd-division/country:mx/state:ch/loc:21,Diputación del Distrito Local 21 CHIHUAHUA,MX,CHH,"DR. BELISARIO DOMINGUEZ, SANTA ISABEL, GRAN MORELOS, HIDALGO DEL PARRAL, HUEJOTITAN, MATAMOROS, NONOAVA, ROSARIO, SAN FRANCISCO DE BORJA, SAN FRANCISCO DEL ORO, SANTA BARBARA, SATEVO, EL TULE, VALLE DE ZARAGOZA",5,-1,
608,ocd-division/country:mx/state:ch/loc:22,Diputación del Distrito Local 22 CHIHUAHUA,MX,CHH,"BALLEZA, BATOPILAS DE MANUEL GOMEZ MORIN, CARICHI, GUACHOCHI, GUADALUPE Y CALVO, MORELOS, URIQUE",5,-1,
609,ocd-division/country:mx/state:df/loc:1,Diputación del Distrito Local 1 CIUDAD DE MÉXICO,MX,CMX,GUSTAVO A. MADERO,5,-1,
610,ocd-division/country:mx/state:df/loc:2,Diputación del Distrito Local 2 CIUDAD DE MÉXICO,MX,CMX,GUSTAVO A. MADERO,5,-1,
611,ocd-division/country:mx/state:df/loc:3,Diputación del Distrito Local 3 CIUDAD DE MÉXICO,MX,CMX,AZCAPOTZALCO,5,-1,
612,ocd-division/country:mx/state:df/loc:4,Diputación del Distrito Local 4 CIUDAD DE MÉXICO,MX,CMX,GUSTAVO A. MADERO,5,-1,
613,ocd-division/country:mx/state:df/loc:5,Diputación del Distrito Local 5 CIUDAD DE MÉXICO,MX,CMX,"AZCAPOTZALCO, MIGUEL HIDALGO",5,-1,
614,ocd-division/country:mx/state:df/loc:6,Diputación del Distrito Local 6 CIUDAD DE MÉXICO,MX,CMX,GUSTAVO A. MADERO,5,-1,
615,ocd-division/country:mx/state:df/loc:7,Diputación del Distrito Local 7 CIUDAD DE MÉXICO,MX,CMX,"MILPA ALTA, TLAHUAC",5,-1,
616,ocd-division/country:mx/state:df/loc:8,Diputación del Distrito Local 8 CIUDAD DE MÉXICO,MX,CMX,TLAHUAC,5,-1,
617,ocd-division/country:mx/state:df/loc:9,Diputación del Distrito Local 9 CIUDAD DE MÉXICO,MX,CMX,CUAUHTEMOC,5,-1,
618,ocd-division/country:mx/state:df/loc:10,Diputación del Distrito Local 10 CIUDAD DE MÉXICO,MX,CMX,VENUSTIANO CARRANZA,5,-1,
619,ocd-division/country:mx/state:df/loc:11,Diputación del Distrito Local 11 CIUDAD DE MÉXICO,MX,CMX,"IZTACALCO, VENUSTIANO CARRANZA",5,-1,
620,ocd-division/country:mx/state:df/loc:12,Diputación del Distrito Local 12 CIUDAD DE MÉXICO,MX,CMX,CUAUHTEMOC,5,-1,
621,ocd-division/country:mx/state:df/loc:13,Diputación del Distrito Local 13 CIUDAD DE MÉXICO,MX,CMX,MIGUEL HIDALGO,5,-1,
622,ocd-division/country:mx/state:df/loc:14,Diputación del Distrito Local 14 CIUDAD DE MÉXICO,MX,CMX,TLALPAN,5,-1,
623,ocd-division/country:mx/state:df/loc:15,Diputación del Distrito Local 15 CIUDAD DE MÉXICO,MX,CMX,IZTACALCO,5,-1,
624,ocd-division/country:mx/state:df/loc:16,Diputación del Distrito Local 16 CIUDAD DE MÉXICO,MX,CMX,TLALPAN,5,-1,
625,ocd-division/country:mx/state:df/loc:17,Diputación del Distrito Local 17 CIUDAD DE MÉXICO,MX,CMX,BENITO JUAREZ,5,-1,
626,ocd-division/country:mx/state:df/loc:18,Diputación del Distrito Local 18 CIUDAD DE MÉXICO,MX,CMX,ALVARO OBREGON,5,-1,
627,ocd-division/country:mx/state:df/loc:19,Diputación del Distrito Local 19 CIUDAD DE MÉXICO,MX,CMX,"TLALPAN, XOCHIMILCO",5,-1,
628,ocd-division/country:mx/state:df/loc:20,Diputación del Distrito Local 20 CIUDAD DE MÉXICO,MX,CMX,"CUAJIMALPA DE MORELOS, ALVARO OBREGON",5,-1,
629,ocd-division/country:mx/state:df/loc:21,Diputación del Distrito Local 21 CIUDAD DE MÉXICO,MX,CMX,IZTAPALAPA,5,-1,
630,ocd-division/country:mx/state:df/loc:22,Diputación del Distrito Local 22 CIUDAD DE MÉXICO,MX,CMX,IZTAPALAPA,5,-1,
631,ocd-division/country:mx/state:df/loc:23,Diputación del Distrito Local 23 CIUDAD DE MÉXICO,MX,CMX,ALVARO OBREGON,5,-1,
632,ocd-division/country:mx/state:df/loc:24,Diputación del Distrito Local 24 CIUDAD DE MÉXICO,MX,CMX,IZTAPALAPA,5,-1,
633,ocd-division/country:mx/state:df/loc:25,Diputación del Distrito Local 25 CIUDAD DE MÉXICO,MX,CMX,XOCHIMILCO,5,-1,
634,ocd-division/country:mx/state:df/loc:26,Diputación del Distrito Local 26 CIUDAD DE MÉXICO,MX,CMX,"COYOACAN, BENITO JUAREZ",5,-1,
635,ocd-division/country:mx/state:df/loc:27,Diputación del Distrito Local 27 CIUDAD DE MÉXICO,MX,CMX,IZTAPALAPA,5,-1,
636,ocd-division/country:mx/state:df/loc:28,Diputación del Distrito Local 28 CIUDAD DE MÉXICO,MX,CMX,IZTAPALAPA,5,-1,
637,ocd-division/country:mx/state:df/loc:29,Diputación del Distrito Local 29 CIUDAD DE MÉXICO,MX,CMX,IZTAPALAPA,5,-1,
638,ocd-division/country:mx/state:df/loc:30,Diputación del Distrito Local 30 CIUDAD DE MÉXICO,MX,CMX,COYOACAN,5,-1,
639,ocd-division/country:mx/state:df/loc:31,Diputación del Distrito Local 31 CIUDAD DE MÉXICO,MX,CMX,IZTAPALAPA,5,-1,
640,ocd-division/country:mx/state:df/loc:32,Diputación del Distrito Local 32 CIUDAD DE MÉXICO,MX,CMX,COYOACAN,5,-1,
641,ocd-division/country:mx/state:df/loc:33,Diputación del Distrito Local 33 CIUDAD DE MÉXICO,MX,CMX,LA MAGDALENA CONTRERAS,5,-1,
642,ocd-division/country:mx/state:dg/loc:1,Diputación del Distrito Local 1 DURANGO,MX,DUR,DURANGO,5,-1,
643,ocd-division/country:mx/state:dg/loc:2,Diputación del Distrito Local 2 DURANGO,MX,DUR,DURANGO,5,-1,
644,ocd-division/country:mx/state:dg/loc:3,Diputación del Distrito Local 3 DURANGO,MX,DUR,DURANGO,5,-1,
645,ocd-division/country:mx/state:dg/loc:4,Diputación del Distrito Local 4 DURANGO,MX,DUR,DURANGO,5,-1,
646,ocd-division/country:mx/state:dg/loc:5,Diputación del Distrito Local 5 DURANGO,MX,DUR,DURANGO,5,-1,
647,ocd-division/country:mx/state:dg/loc:6,Diputación del Distrito Local 6 DURANGO,MX,DUR,"CANATLAN, PUEBLO NUEVO, SAN DIMAS",5,-1,
648,ocd-division/country:mx/state:dg/loc:7,Diputación del Distrito Local 7 DURANGO,MX,DUR,"CANELAS, OTAEZ, SANTIAGO PAPASQUIARO, TAMAZULA, TEPEHUANES, TOPIA",5,-1,
649,ocd-division/country:mx/state:dg/loc:8,Diputación del Distrito Local 8 DURANGO,MX,DUR,"CONETO DE COMONFORT, GUANACEVI, INDE, NUEVO IDEAL, OCAMPO, EL ORO, PANUCO DE CORONADO, RODEO, SAN BERNARDO, SAN JUAN DEL RIO",5,-1,
650,ocd-division/country:mx/state:dg/loc:9,Diputación del Distrito Local 9 DURANGO,MX,DUR,"HIDALGO, LERDO, MAPIMI, NAZAS, SAN LUIS DEL CORDERO, SAN PEDRO DEL GALLO, TLAHUALILO",5,-1,
651,ocd-division/country:mx/state:dg/loc:10,Diputación del Distrito Local 10 DURANGO,MX,DUR,GOMEZ PALACIO,5,-1,
652,ocd-division/country:mx/state:dg/loc:11,Diputación del Distrito Local 11 DURANGO,MX,DUR,GOMEZ PALACIO,5,-1,
653,ocd-division/country:mx/state:dg/loc:12,Diputación del Distrito Local 12 DURANGO,MX,DUR,GOMEZ PALACIO,5,-1,
654,ocd-division/country:mx/state:dg/loc:13,Diputación del Distrito Local 13 DURANGO,MX,DUR,LERDO,5,-1,
655,ocd-division/country:mx/state:dg/loc:14,Diputación del Distrito Local 14 DURANGO,MX,DUR,"CUENCAME, SIMON BOLIVAR, GUADALUPE VICTORIA, PEÑON BLANCO, SAN JUAN DE GUADALUPE, SANTA CLARA",5,-1,
656,ocd-division/country:mx/state:dg/loc:15,Diputación del Distrito Local 15 DURANGO,MX,DUR,"MEZQUITAL, NOMBRE DE DIOS, POANAS, SUCHIL, VICENTE GUERRERO",5,-1,
657,ocd-division/country:mx/state:gt/loc:1,Diputación del Distrito Local 1 GUANAJUATO,MX,GUA,"DOLORES HIDALGO CUNA DE LA INDEPENDENCIA NACIONAL, OCAMPO, SAN DIEGO DE LA UNION, SAN FELIPE",5,-1,
658,ocd-division/country:mx/state:gt/loc:2,Diputación del Distrito Local 2 GUANAJUATO,MX,GUA,"ATARJEA, DOCTOR MORA, SAN JOSE ITURBIDE, SAN LUIS DE LA PAZ, SANTA CATARINA, TIERRA BLANCA, VICTORIA, XICHU",5,-1,
659,ocd-division/country:mx/state:gt/loc:3,Diputación del Distrito Local 3 GUANAJUATO,MX,GUA,LEON,5,-1,
660,ocd-division/country:mx/state:gt/loc:4,Diputación del Distrito Local 4 GUANAJUATO,MX,GUA,LEON,5,-1,
661,ocd-division/country:mx/state:gt/loc:5,Diputación del Distrito Local 5 GUANAJUATO,MX,GUA,LEON,5,-1,
662,ocd-division/country:mx/state:gt/loc:6,Diputación del Distrito Local 6 GUANAJUATO,MX,GUA,LEON,5,-1,
663,ocd-division/country:mx/state:gt/loc:7,Diputación del Distrito Local 7 GUANAJUATO,MX,GUA,LEON,5,-1,
664,ocd-division/country:mx/state:gt/loc:8,Diputación del Distrito Local 8 GUANAJUATO,MX,GUA,"DOLORES HIDALGO CUNA DE LA INDEPENDENCIA NACIONAL, GUANAJUATO",5,-1,
665,ocd-division/country:mx/state:gt/loc:9,Diputación del Distrito Local 9 GUANAJUATO,MX,GUA,"SAN MIGUEL DE ALLENDE, APASEO EL GRANDE",5,-1,
666,ocd-division/country:mx/state:gt/loc:10,Diputación del Distrito Local 10 GUANAJUATO,MX,GUA,"MANUEL DOBLADO, CUERAMARO, PURISIMA DEL RINCON, SAN FRANCISCO DEL RINCON",5,-1,
667,ocd-division/country:mx/state:gt/loc:11,Diputación del Distrito Local 11 GUANAJUATO,MX,GUA,IRAPUATO,5,-1,
668,ocd-division/country:mx/state:gt/loc:12,Diputación del Distrito Local 12 GUANAJUATO,MX,GUA,IRAPUATO,5,-1,
669,ocd-division/country:mx/state:gt/loc:13,Diputación del Distrito Local 13 GUANAJUATO,MX,GUA,"ROMITA, SILAO DE LA VICTORIA",5,-1,
670,ocd-division/country:mx/state:gt/loc:14,Diputación del Distrito Local 14 GUANAJUATO,MX,GUA,SALAMANCA,5,-1,
671,ocd-division/country:mx/state:gt/loc:15,Diputación del Distrito Local 15 GUANAJUATO,MX,GUA,"CELAYA, TARIMORO",5,-1,
672,ocd-division/country:mx/state:gt/loc:16,Diputación del Distrito Local 16 GUANAJUATO,MX,GUA,CELAYA,5,-1,
673,ocd-division/country:mx/state:gt/loc:17,Diputación del Distrito Local 17 GUANAJUATO,MX,GUA,"COMONFORT, SANTA CRUZ DE JUVENTINO ROSAS, VILLAGRAN",5,-1,
674,ocd-division/country:mx/state:gt/loc:18,Diputación del Distrito Local 18 GUANAJUATO,MX,GUA,"ABASOLO, HUANIMARO, PENJAMO, PUEBLO NUEVO",5,-1,
675,ocd-division/country:mx/state:gt/loc:19,Diputación del Distrito Local 19 GUANAJUATO,MX,GUA,"CORTAZAR, JARAL DEL PROGRESO, VALLE DE SANTIAGO",5,-1,
676,ocd-division/country:mx/state:gt/loc:20,Diputación del Distrito Local 20 GUANAJUATO,MX,GUA,"MOROLEON, SALVATIERRA, SANTIAGO MARAVATIO, URIANGATO, YURIRIA",5,-1,
677,ocd-division/country:mx/state:gt/loc:21,Diputación del Distrito Local 21 GUANAJUATO,MX,GUA,LEON,5,-1,
678,ocd-division/country:mx/state:gt/loc:22,Diputación del Distrito Local 22 GUANAJUATO,MX,GUA,"ACAMBARO, APASEO EL ALTO, CORONEO, JERECUARO, TARANDACUAO",5,-1,
679,ocd-division/country:mx/state:gr/loc:1,Diputación del Distrito Local 1 GUERRERO,MX,GRO,CHILPANCINGO DE LOS BRAVO,5,-1,
680,ocd-division/country:mx/state:gr/loc:2,Diputación del Distrito Local 2 GUERRERO,MX,GRO,CHILPANCINGO DE LOS BRAVO,5,-1,
681,ocd-division/country:mx/state:gr/loc:3,Diputación del Distrito Local 3 GUERRERO,MX,GRO,ACAPULCO DE JUAREZ,5,-1,
682,ocd-division/country:mx/state:gr/loc:4,Diputación del Distrito Local 4 GUERRERO,MX,GRO,ACAPULCO DE JUAREZ,5,-1,
683,ocd-division/country:mx/state:gr/loc:5,Diputación del Distrito Local 5 GUERRERO,MX,GRO,ACAPULCO DE JUAREZ,5,-1,
684,ocd-division/country:mx/state:gr/loc:6,Diputación del Distrito Local 6 GUERRERO,MX,GRO,ACAPULCO DE JUAREZ,5,-1,
685,ocd-division/country:mx/state:gr/loc:7,Diputación del Distrito Local 7 GUERRERO,MX,GRO,ACAPULCO DE JUAREZ,5,-1,
686,ocd-division/country:mx/state:gr/loc:8,Diputación del Distrito Local 8 GUERRERO,MX,GRO,"ACAPULCO DE JUAREZ, COYUCA DE BENITEZ",5,-1,
687,ocd-division/country:mx/state:gr/loc:9,Diputación del Distrito Local 9 GUERRERO,MX,GRO,ACAPULCO DE JUAREZ,5,-1,
688,ocd-division/country:mx/state:gr/loc:10,Diputación del Distrito Local 10 GUERRERO,MX,GRO,"ATOYAC DE ALVAREZ, BENITO JUAREZ, TECPAN DE GALEANA",5,-1,
689,ocd-division/country:mx/state:gr/loc:11,Diputación del Distrito Local 11 GUERRERO,MX,GRO,"ZIHUATANEJO DE AZUETA, PETATLAN, TECPAN DE GALEANA",5,-1,
690,ocd-division/country:mx/state:gr/loc:12,Diputación del Distrito Local 12 GUERRERO,MX,GRO,"COAHUAYUTLA DE JOSE MARIA IZAZAGA, ZIHUATANEJO DE AZUETA, LA UNION DE ISIDORO MONTES DE OCA",5,-1,
691,ocd-division/country:mx/state:gr/loc:13,Diputación del Distrito Local 13 GUERRERO,MX,GRO,"JUAN R. ESCUDERO, SAN MARCOS, TECOANAPA",5,-1,
692,ocd-division/country:mx/state:gr/loc:14,Diputación del Distrito Local 14 GUERRERO,MX,GRO,"AYUTLA DE LOS LIBRES, COPALA, CUAUTEPEC, FLORENCIO VILLARREAL",5,-1,
693,ocd-division/country:mx/state:gr/loc:15,Diputación del Distrito Local 15 GUERRERO,MX,GRO,"AZOYU, CUAJINICUILAPA, IGUALAPA, METLATONOC, SAN LUIS ACATLAN, MARQUELIA, JUCHITAN",5,-1,
694,ocd-division/country:mx/state:gr/loc:16,Diputación del Distrito Local 16 GUERRERO,MX,GRO,"OMETEPEC, TLACOACHISTLAHUACA, XOCHISTLAHUACA",5,-1,
695,ocd-division/country:mx/state:gr/loc:17,Diputación del Distrito Local 17 GUERRERO,MX,GRO,"AJUCHITLAN DEL PROGRESO, COYUCA DE CATALAN, SAN MIGUEL TOTOLAPAN, ZIRANDARO",5,-1,
696,ocd-division/country:mx/state:gr/loc:18,Diputación del Distrito Local 18 GUERRERO,MX,GRO,"ARCELIA, CUTZAMALA DE PINZON, PUNGARABATO, TLALCHAPA, TLAPEHUALA",5,-1,
697,ocd-division/country:mx/state:gr/loc:19,Diputación del Distrito Local 19 GUERRERO,MX,GRO,"EDUARDO NERI, GENERAL HELIODORO CASTILLO, LEONARDO BRAVO",5,-1,
698,ocd-division/country:mx/state:gr/loc:20,Diputación del Distrito Local 20 GUERRERO,MX,GRO,"APAXTLA, COCULA, CUETZALA DEL PROGRESO, GENERAL CANUTO A. NERI, IXCATEOPAN DE CUAUHTEMOC, PEDRO ASCENCIO ALQUISIRAS, TELOLOAPAN",5,-1,
699,ocd-division/country:mx/state:gr/loc:21,Diputación del Distrito Local 21 GUERRERO,MX,GRO,"PILCAYA, TAXCO DE ALARCON, TETIPAC",5,-1,
700,ocd-division/country:mx/state:gr/loc:22,Diputación del Distrito Local 22 GUERRERO,MX,GRO,IGUALA DE LA INDEPENDENCIA,5,-1,
701,ocd-division/country:mx/state:gr/loc:23,Diputación del Distrito Local 23 GUERRERO,MX,GRO,"ATENANGO DEL RIO, BUENAVISTA DE CUELLAR, COPALILLO, HUITZUCO DE LOS FIGUEROA, IGUALA DE LA INDEPENDENCIA, TEPECOACUILCO DE TRUJANO",5,-1,
702,ocd-division/country:mx/state:gr/loc:24,Diputación del Distrito Local 24 GUERRERO,MX,GRO,"MARTIR DE CUILAPAN, MOCHITLAN, QUECHULTENANGO, TIXTLA DE GUERRERO, ZITLALA",5,-1,
703,ocd-division/country:mx/state:gr/loc:25,Diputación del Distrito Local 25 GUERRERO,MX,GRO,"CHILAPA DE ALVAREZ, JOSE JOAQUIN DE HERRERA",5,-1,
704,ocd-division/country:mx/state:gr/loc:26,Diputación del Distrito Local 26 GUERRERO,MX,GRO,"AHUACUOTZINGO, ATLIXTAC, COPANATOYAC, TLACOAPA, ZAPOTITLAN TABLAS, ACATEPEC",5,-1,
705,ocd-division/country:mx/state:gr/loc:27,Diputación del Distrito Local 27 GUERRERO,MX,GRO,"ALPOYECA, CUALAC, HUAMUXTITLAN, OLINALA, TLALIXTAQUILLA DE MALDONADO, TLAPA DE COMONFORT, XOCHIHUEHUETLAN",5,-1,
706,ocd-division/country:mx/state:gr/loc:28,Diputación del Distrito Local 28 GUERRERO,MX,GRO,"ALCOZAUCA DE GUERRERO, ATLAMAJALCINGO DEL MONTE, MALINALTEPEC, METLATONOC, SAN LUIS ACATLAN, TLAPA DE COMONFORT, XALPATLAHUAC, ILIATENCO, COCHOAPA EL GRANDE",5,-1,
707,ocd-division/country:mx/state:hg/loc:1,Diputación del Distrito Local 1 HIDALGO,MX,HID,"ALFAJAYUCAN, CHAPULHUACAN, JACALA DE LEDEZMA, LA MISION, PACULA, PISAFLORES, TASQUILLO, ZIMAPAN",5,-1,
708,ocd-division/country:mx/state:hg/loc:2,Diputación del Distrito Local 2 HIDALGO,MX,HID,"CALNALI, ELOXOCHITLAN, JUAREZ HIDALGO, LOLOTLA, METZTITLAN, MOLANGO DE ESCAMILLA, TEPEHUACAN DE GUERRERO, TIANGUISTENGO, TLAHUILTEPA, XOCHICOATLAN, ZACUALTIPAN DE ANGELES",5,-1,
709,ocd-division/country:mx/state:hg/loc:3,Diputación del Distrito Local 3 HIDALGO,MX,HID,"ATLAPEXCO, HUAZALINGO, SAN FELIPE ORIZATLAN, TLANCHINOL, XOCHIATIPAN, YAHUALICA",5,-1,
710,ocd-division/country:mx/state:hg/loc:4,Diputación del Distrito Local 4 HIDALGO,MX,HID,"HUAUTLA, HUEJUTLA DE REYES, JALTOCAN",5,-1,
711,ocd-division/country:mx/state:hg/loc:5,Diputación del Distrito Local 5 HIDALGO,MX,HID,"CARDONAL, CHILCUAUTLA, IXMIQUILPAN, NICOLAS FLORES, SANTIAGO DE ANAYA",5,-1,
712,ocd-division/country:mx/state:hg/loc:6,Diputación del Distrito Local 6 HIDALGO,MX,HID,"CHAPANTONGO, HUICHAPAN, NOPALA DE VILLAGRAN, TECOZAUTLA, TEPETITLAN, TEZONTEPEC DE ALDAMA",5,-1,
713,ocd-division/country:mx/state:hg/loc:7,Diputación del Distrito Local 7 HIDALGO,MX,HID,"AJACUBA, FRANCISCO I. MADERO, MIXQUIAHUALA DE JUAREZ, PROGRESO DE OBREGON, SAN SALVADOR",5,-1,
714,ocd-division/country:mx/state:hg/loc:8,Diputación del Distrito Local 8 HIDALGO,MX,HID,"ACTOPAN, ATOTONILCO EL GRANDE, EL ARENAL, MINERAL DEL CHICO, SAN AGUSTIN METZQUITITLAN, SAN AGUSTIN TLAXIACA",5,-1,
715,ocd-division/country:mx/state:hg/loc:9,Diputación del Distrito Local 9 HIDALGO,MX,HID,"ACATLAN, AGUA BLANCA DE ITURBIDE, HUASCA DE OCAMPO, HUEHUETLA, METEPEC, MINERAL DEL MONTE, OMITLAN DE JUAREZ, SAN BARTOLO TUTOTEPEC, TENANGO DE DORIA",5,-1,
716,ocd-division/country:mx/state:hg/loc:10,Diputación del Distrito Local 10 HIDALGO,MX,HID,"ACAXOCHITLAN, ALMOLOYA, APAN, CUAUTEPEC DE HINOJOSA, EMILIANO ZAPATA",5,-1,
717,ocd-division/country:mx/state:hg/loc:11,Diputación del Distrito Local 11 HIDALGO,MX,HID,TULANCINGO DE BRAVO,5,-1,
718,ocd-division/country:mx/state:hg/loc:12,Diputación del Distrito Local 12 HIDALGO,MX,HID,PACHUCA DE SOTO,5,-1,
719,ocd-division/country:mx/state:hg/loc:13,Diputación del Distrito Local 13 HIDALGO,MX,HID,PACHUCA DE SOTO,5,-1,
720,ocd-division/country:mx/state:hg/loc:14,Diputación del Distrito Local 14 HIDALGO,MX,HID,"TLAHUELILPAN, TLAXCOAPAN, TULA DE ALLENDE",5,-1,
721,ocd-division/country:mx/state:hg/loc:15,Diputación del Distrito Local 15 HIDALGO,MX,HID,"ATITALAQUIA, ATOTONILCO DE TULA, TEPEJI DEL RIO DE OCAMPO, TETEPANGO",5,-1,
722,ocd-division/country:mx/state:hg/loc:16,Diputación del Distrito Local 16 HIDALGO,MX,HID,"TIZAYUCA, TOLCAYUCA, VILLA DE TEZONTEPEC, ZAPOTLAN DE JUAREZ",5,-1,
723,ocd-division/country:mx/state:hg/loc:17,Diputación del Distrito Local 17 HIDALGO,MX,HID,"EPAZOYUCAN, MINERAL DE LA REFORMA",5,-1,
724,ocd-division/country:mx/state:hg/loc:18,Diputación del Distrito Local 18 HIDALGO,MX,HID,"SANTIAGO TULANTEPEC DE LUGO GUERRERO, SINGUILUCAN, TEPEAPULCO, TLANALAPA, ZEMPOALA",5,-1,
725,ocd-division/country:mx/state:ja/loc:1,Diputación del Distrito Local 1 JALISCO,MX,JAL,"AHUALULCO DE MERCADO, AMATITAN, SAN JUANITO DE ESCOBEDO, EL ARENAL, BOLAÑOS, COLOTLAN, CUQUIO, CHIMALTITAN, ETZATLAN, HOSTOTIPAQUILLO, HUEJUCAR, HUEJUQUILLA EL ALTO, IXTLAHUACAN DEL RIO, MAGDALENA, MEZQUITIC, SAN CRISTOBAL DE LA BARRANCA, SAN MARCOS, SAN MARTIN DE BOLAÑOS, SANTA MARIA DE LOS ANGELES, TALA, TEQUILA, TEUCHITLAN, TOTATICHE, VILLA GUERRERO",5,-1,
726,ocd-division/country:mx/state:ja/loc:2,Diputación del Distrito Local 2 JALISCO,MX,JAL,"ENCARNACION DE DIAZ, LAGOS DE MORENO, OJUELOS DE JALISCO, SAN DIEGO DE ALEJANDRIA, SAN JUAN DE LOS LAGOS, SAN JULIAN, UNION DE SAN ANTONIO",5,-1,
727,ocd-division/country:mx/state:ja/loc:3,Diputación del Distrito Local 3 JALISCO,MX,JAL,"ARANDAS, JALOSTOTITLAN, JESUS MARIA, MEXTICACAN, SAN MIGUEL EL ALTO, TEOCALTICHE, TEPATITLAN DE MORELOS, VALLE DE GUADALUPE, VILLA HIDALGO, CAÑADAS DE OBREGON, YAHUALICA DE GONZALEZ GALLO, SAN IGNACIO CERRO GORDO",5,-1,
728,ocd-division/country:mx/state:ja/loc:4,Diputación del Distrito Local 4 JALISCO,MX,JAL,ZAPOPAN,5,-1,
729,ocd-division/country:mx/state:ja/loc:5,Diputación del Distrito Local 5 JALISCO,MX,JAL,"ATENGUILLO, CABO CORRIENTES, GUACHINANGO, MASCOTA, MIXTLAN, PUERTO VALLARTA, SAN SEBASTIAN DEL OESTE, TALPA DE ALLENDE, TOMATLAN",5,-1,
730,ocd-division/country:mx/state:ja/loc:6,Diputación del Distrito Local 6 JALISCO,MX,JAL,ZAPOPAN,5,-1,
731,ocd-division/country:mx/state:ja/loc:7,Diputación del Distrito Local 7 JALISCO,MX,JAL,TONALA,5,-1,
732,ocd-division/country:mx/state:ja/loc:8,Diputación del Distrito Local 8 JALISCO,MX,JAL,GUADALAJARA,5,-1,
733,ocd-division/country:mx/state:ja/loc:9,Diputación del Distrito Local 9 JALISCO,MX,JAL,GUADALAJARA,5,-1,
734,ocd-division/country:mx/state:ja/loc:10,Diputación del Distrito Local 10 JALISCO,MX,JAL,ZAPOPAN,5,-1,
735,ocd-division/country:mx/state:ja/loc:11,Diputación del Distrito Local 11 JALISCO,MX,JAL,GUADALAJARA,5,-1,
736,ocd-division/country:mx/state:ja/loc:12,Diputación del Distrito Local 12 JALISCO,MX,JAL,TLAJOMULCO DE ZUÑIGA,5,-1,
737,ocd-division/country:mx/state:ja/loc:13,Diputación del Distrito Local 13 JALISCO,MX,JAL,"SAN PEDRO TLAQUEPAQUE, ZAPOPAN",5,-1,
738,ocd-division/country:mx/state:ja/loc:14,Diputación del Distrito Local 14 JALISCO,MX,JAL,GUADALAJARA,5,-1,
739,ocd-division/country:mx/state:ja/loc:15,Diputación del Distrito Local 15 JALISCO,MX,JAL,"ATOTONILCO EL ALTO, AYOTLAN, LA BARCA, DEGOLLADO, JAMAY, OCOTLAN, PONCITLAN, TOTOTLAN, ZAPOTLAN DEL REY",5,-1,
740,ocd-division/country:mx/state:ja/loc:16,Diputación del Distrito Local 16 JALISCO,MX,JAL,SAN PEDRO TLAQUEPAQUE,5,-1,
741,ocd-division/country:mx/state:ja/loc:17,Diputación del Distrito Local 17 JALISCO,MX,JAL,"ACATLAN DE JUAREZ, ATEMAJAC DE BRIZUELA, COCULA, CONCEPCION DE BUENOS AIRES, CHAPALA, IXTLAHUACAN DE LOS MEMBRILLOS, JOCOTEPEC, LA MANZANILLA DE LA PAZ, MAZAMITLA, SAN MARTIN HIDALGO, TEOCUITATLAN DE CORONA, TIZAPAN EL ALTO, TUXCUECA, VILLA CORONA, ZACOALCO DE TORRES",5,-1,
742,ocd-division/country:mx/state:ja/loc:18,Diputación del Distrito Local 18 JALISCO,MX,JAL,"AMECA, ATENGO, AUTLAN DE NAVARRO, AYUTLA, CASIMIRO CASTILLO, CIHUATLAN, CUAUTITLAN DE GARCIA BARRAGAN, CUAUTLA, CHIQUILISTLAN, EJUTLA, EL GRULLO, LA HUERTA, JUCHITLAN, EL LIMON, VILLA PURIFICACION, TECOLOTLAN, TENAMAXTLAN, TOLIMAN, TONAYA, TUXCACUESCO, UNION DE TULA, ZAPOTITLAN DE VADILLO",5,-1,
743,ocd-division/country:mx/state:ja/loc:19,Diputación del Distrito Local 19 JALISCO,MX,JAL,"AMACUECA, ATOYAC, ZAPOTLAN EL GRANDE, SAN GABRIEL, GOMEZ FARIAS, JILOTLAN DE LOS DOLORES, SANTA MARIA DEL ORO, PIHUAMO, QUITUPAN, SAYULA, TAMAZULA DE GORDIANO, TAPALPA, TECALITLAN, TECHALUTA DE MONTENEGRO, TONILA, TUXPAN, VALLE DE JUAREZ, ZAPOTILTIC",5,-1,
744,ocd-division/country:mx/state:ja/loc:20,Diputación del Distrito Local 20 JALISCO,MX,JAL,"ACATIC, JUANACATLAN, EL SALTO, TONALA, ZAPOTLANEJO",5,-1,
745,ocd-division/country:mx/state:em/loc:1,Diputación del Distrito Local 1 ESTADO DE MÉXICO,MX,MEX,"COCOTITLAN, CHALCO, TEMAMATLA",5,-1,
746,ocd-division/country:mx/state:em/loc:2,Diputación del Distrito Local 2 ESTADO DE MÉXICO,MX,MEX,TOLUCA,5,-1,
747,ocd-division/country:mx/state:em/loc:3,Diputación del Distrito Local 3 ESTADO DE MÉXICO,MX,MEX,CHIMALHUACAN,5,-1,
748,ocd-division/country:mx/state:em/loc:4,Diputación del Distrito Local 4 ESTADO DE MÉXICO,MX,MEX,"ATIZAPAN, CAPULHUAC, XALATLACO, LERMA, OCOYOACAC, TEXCALYACAC, TIANGUISTENCO",5,-1,
749,ocd-division/country:mx/state:em/loc:5,Diputación del Distrito Local 5 ESTADO DE MÉXICO,MX,MEX,"CHICOLOAPAN, CHIMALHUACAN",5,-1,
750,ocd-division/country:mx/state:em/loc:6,Diputación del Distrito Local 6 ESTADO DE MÉXICO,MX,MEX,ECATEPEC DE MORELOS,5,-1,
751,ocd-division/country:mx/state:em/loc:7,Diputación del Distrito Local 7 ESTADO DE MÉXICO,MX,MEX,"ALMOLOYA DEL RIO, CALIMAYA, JOQUICINGO, MALINALCO, OCUILAN, RAYON, SAN ANTONIO LA ISLA, TENANCINGO, TENANGO DEL VALLE, ZUMPAHUACAN",5,-1,
752,ocd-division/country:mx/state:em/loc:8,Diputación del Distrito Local 8 ESTADO DE MÉXICO,MX,MEX,ECATEPEC DE MORELOS,5,-1,
753,ocd-division/country:mx/state:em/loc:9,Diputación del Distrito Local 9 ESTADO DE MÉXICO,MX,MEX,"ALMOLOYA DE ALQUISIRAS, AMATEPEC, COATEPEC HARINAS, IXTAPAN DE LA SAL, SULTEPEC, TEJUPILCO, TEMASCALTEPEC, TEXCALTITLAN, TLATLAYA, TONATICO, VILLA GUERRERO, ZACUALPAN, LUVIANOS",5,-1,
754,ocd-division/country:mx/state:em/loc:10,Diputación del Distrito Local 10 ESTADO DE MÉXICO,MX,MEX,"AMANALCO, COATEPEC HARINAS, DONATO GUERRA, IXTAPAN DEL ORO, OTZOLOAPAN, SAN SIMON DE GUERRERO, SANTO TOMAS, TEMASCALTEPEC, TEXCALTITLAN, VALLE DE BRAVO, VILLA DE ALLENDE, VILLA VICTORIA, ZACAZONAPAN",5,-1,
755,ocd-division/country:mx/state:em/loc:11,Diputación del Distrito Local 11 ESTADO DE MÉXICO,MX,MEX,TULTITLAN,5,-1,
756,ocd-division/country:mx/state:em/loc:12,Diputación del Distrito Local 12 ESTADO DE MÉXICO,MX,MEX,"COYOTEPEC, JALTENCO, MELCHOR OCAMPO, NEXTLALPAN, TEOLOYUCAN, TEPOTZOTLAN, TONANITLA",5,-1,
757,ocd-division/country:mx/state:em/loc:13,Diputación del Distrito Local 13 ESTADO DE MÉXICO,MX,MEX,"ATLACOMULCO, JOCOTITLAN, EL ORO, TEMASCALCINGO, SAN JOSE DEL RINCON",5,-1,
758,ocd-division/country:mx/state:em/loc:14,Diputación del Distrito Local 14 ESTADO DE MÉXICO,MX,MEX,"ACAMBAY DE RUIZ CASTAÑEDA, ACULCO, CHAPA DE MOTA, JILOTEPEC, MORELOS, POLOTITLAN, SOYANIQUILPAN DE JUAREZ, TIMILPAN, VILLA DEL CARBON",5,-1,
759,ocd-division/country:mx/state:em/loc:15,Diputación del Distrito Local 15 ESTADO DE MÉXICO,MX,MEX,"IXTLAHUACA, JIQUIPILCO, SAN FELIPE DEL PROGRESO",5,-1,
760,ocd-division/country:mx/state:em/loc:16,Diputación del Distrito Local 16 ESTADO DE MÉXICO,MX,MEX,ATIZAPAN DE ZARAGOZA,5,-1,
761,ocd-division/country:mx/state:em/loc:17,Diputación del Distrito Local 17 ESTADO DE MÉXICO,MX,MEX,"HUIXQUILUCAN, ISIDRO FABELA, JILOTZINGO, XONACATLAN",5,-1,
762,ocd-division/country:mx/state:em/loc:18,Diputación del Distrito Local 18 ESTADO DE MÉXICO,MX,MEX,TLALNEPANTLA DE BAZ,5,-1,
763,ocd-division/country:mx/state:em/loc:19,Diputación del Distrito Local 19 ESTADO DE MÉXICO,MX,MEX,"CUAUTITLAN, TULTEPEC, TULTITLAN",5,-1,
764,ocd-division/country:mx/state:em/loc:20,Diputación del Distrito Local 20 ESTADO DE MÉXICO,MX,MEX,"APAXCO, HUEHUETOCA, HUEYPOXTLA, TEQUIXQUIAC, ZUMPANGO",5,-1,
765,ocd-division/country:mx/state:em/loc:21,Diputación del Distrito Local 21 ESTADO DE MÉXICO,MX,MEX,ECATEPEC DE MORELOS,5,-1,
766,ocd-division/country:mx/state:em/loc:22,Diputación del Distrito Local 22 ESTADO DE MÉXICO,MX,MEX,ECATEPEC DE MORELOS,5,-1,
767,ocd-division/country:mx/state:em/loc:23,Diputación del Distrito Local 23 ESTADO DE MÉXICO,MX,MEX,"ATENCO, CHICONCUAC, TEXCOCO, TEZOYUCA",5,-1,
768,ocd-division/country:mx/state:em/loc:24,Diputación del Distrito Local 24 ESTADO DE MÉXICO,MX,MEX,NEZAHUALCOYOTL,5,-1,
769,ocd-division/country:mx/state:em/loc:25,Diputación del Distrito Local 25 ESTADO DE MÉXICO,MX,MEX,NEZAHUALCOYOTL,5,-1,
770,ocd-division/country:mx/state:em/loc:26,Diputación del Distrito Local 26 ESTADO DE MÉXICO,MX,MEX,"CUAUTITLAN IZCALLI, TLALNEPANTLA DE BAZ",5,-1,
771,ocd-division/country:mx/state:em/loc:27,Diputación del Distrito Local 27 ESTADO DE MÉXICO,MX,MEX,VALLE DE CHALCO SOLIDARIDAD,5,-1,
772,ocd-division/country:mx/state:em/loc:28,Diputación del Distrito Local 28 ESTADO DE MÉXICO,MX,MEX,"AMECAMECA, ATLAUTLA, AYAPANGO, ECATZINGO, IXTAPALUCA, JUCHITEPEC, OZUMBA, TENANGO DEL AIRE, TEPETLIXPA, TLALMANALCO",5,-1,
773,ocd-division/country:mx/state:em/loc:29,Diputación del Distrito Local 29 ESTADO DE MÉXICO,MX,MEX,"ATIZAPAN DE ZARAGOZA, NAUCALPAN DE JUAREZ",5,-1,
774,ocd-division/country:mx/state:em/loc:30,Diputación del Distrito Local 30 ESTADO DE MÉXICO,MX,MEX,NAUCALPAN DE JUAREZ,5,-1,
775,ocd-division/country:mx/state:em/loc:31,Diputación del Distrito Local 31 ESTADO DE MÉXICO,MX,MEX,"CHIMALHUACAN, LA PAZ",5,-1,
776,ocd-division/country:mx/state:em/loc:32,Diputación del Distrito Local 32 ESTADO DE MÉXICO,MX,MEX,NAUCALPAN DE JUAREZ,5,-1,
777,ocd-division/country:mx/state:em/loc:33,Diputación del Distrito Local 33 ESTADO DE MÉXICO,MX,MEX,"TECAMAC, TEMASCALAPA",5,-1,
778,ocd-division/country:mx/state:em/loc:34,Diputación del Distrito Local 34 ESTADO DE MÉXICO,MX,MEX,"OTZOLOTEPEC, TOLUCA",5,-1,
779,ocd-division/country:mx/state:em/loc:35,Diputación del Distrito Local 35 ESTADO DE MÉXICO,MX,MEX,"CHAPULTEPEC, METEPEC, MEXICALTZINGO, SAN MATEO ATENCO",5,-1,
780,ocd-division/country:mx/state:em/loc:36,Diputación del Distrito Local 36 ESTADO DE MÉXICO,MX,MEX,"COATEPEC HARINAS, TOLUCA, ZINACANTEPEC",5,-1,
781,ocd-division/country:mx/state:em/loc:37,Diputación del Distrito Local 37 ESTADO DE MÉXICO,MX,MEX,"ECATEPEC DE MORELOS, TLALNEPANTLA DE BAZ",5,-1,
782,ocd-division/country:mx/state:em/loc:38,Diputación del Distrito Local 38 ESTADO DE MÉXICO,MX,MEX,"COACALCO DE BERRIOZABAL, TULTITLAN",5,-1,
783,ocd-division/country:mx/state:em/loc:39,Diputación del Distrito Local 39 ESTADO DE MÉXICO,MX,MEX,"ACOLMAN, AXAPUSCO, CHIAUTLA, NOPALTEPEC, OTUMBA, PAPALOTLA, SAN MARTIN DE LAS PIRAMIDES, TECAMAC, TEMASCALAPA, TEOTIHUACAN, TEPETLAOXTOC, TEZOYUCA",5,-1,
784,ocd-division/country:mx/state:em/loc:40,Diputación del Distrito Local 40 ESTADO DE MÉXICO,MX,MEX,IXTAPALUCA,5,-1,
785,ocd-division/country:mx/state:em/loc:41,Diputación del Distrito Local 41 ESTADO DE MÉXICO,MX,MEX,NEZAHUALCOYOTL,5,-1,
786,ocd-division/country:mx/state:em/loc:42,Diputación del Distrito Local 42 ESTADO DE MÉXICO,MX,MEX,ECATEPEC DE MORELOS,5,-1,
787,ocd-division/country:mx/state:em/loc:43,Diputación del Distrito Local 43 ESTADO DE MÉXICO,MX,MEX,CUAUTITLAN IZCALLI,5,-1,
788,ocd-division/country:mx/state:em/loc:44,Diputación del Distrito Local 44 ESTADO DE MÉXICO,MX,MEX,NICOLAS ROMERO,5,-1,
789,ocd-division/country:mx/state:em/loc:45,Diputación del Distrito Local 45 ESTADO DE MÉXICO,MX,MEX,"ALMOLOYA DE JUAREZ, OTZOLOTEPEC, TEMOAYA, TOLUCA",5,-1,
790,ocd-division/country:mx/state:mi/loc:1,Diputación del Distrito Local 1 MICHOACÁN DE OCAMPO,MX,MIC,"CHURINTZIO, ECUANDUREO, IXTLAN, NUMARAN, LA PIEDAD, TANHUATO, YURECUARO, ZINAPARO",5,-1,
791,ocd-division/country:mx/state:mi/loc:2,Diputación del Distrito Local 2 MICHOACÁN DE OCAMPO,MX,MIC,"ANGAMACUTIRO, CHUCANDIRO, HUANDACAREO, HUANIQUEO, JIMENEZ, JOSE SIXTO VERDUZCO, MORELOS, PANINDICUARO, PENJAMILLO, PURUANDIRO",5,-1,
792,ocd-division/country:mx/state:mi/loc:3,Diputación del Distrito Local 3 MICHOACÁN DE OCAMPO,MX,MIC,"APORO, CONTEPEC, EPITACIO HUERTA, MARAVATIO, SENGUIO, TLALPUJAHUA",5,-1,
793,ocd-division/country:mx/state:mi/loc:4,Diputación del Distrito Local 4 MICHOACÁN DE OCAMPO,MX,MIC,"BRISEÑAS, JIQUILPAN, MARCOS CASTELLANOS, COJUMATLAN DE REGULES, SAHUAYO, VENUSTIANO CARRANZA, VISTA HERMOSA",5,-1,
794,ocd-division/country:mx/state:mi/loc:5,Diputación del Distrito Local 5 MICHOACÁN DE OCAMPO,MX,MIC,"COENEO, CHARAPAN, CHERAN, CHILCHOTA, ERONGARICUARO, NAHUATZEN, PARACHO, QUIROGA",5,-1,
795,ocd-division/country:mx/state:mi/loc:6,Diputación del Distrito Local 6 MICHOACÁN DE OCAMPO,MX,MIC,ZAMORA,5,-1,
796,ocd-division/country:mx/state:mi/loc:7,Diputación del Distrito Local 7 MICHOACÁN DE OCAMPO,MX,MIC,"JACONA, PUREPERO, TANGANCICUARO, TLAZAZALCA, ZACAPU",5,-1,
797,ocd-division/country:mx/state:mi/loc:8,Diputación del Distrito Local 8 MICHOACÁN DE OCAMPO,MX,MIC,"ALVARO OBREGON, COPANDARO, CUITZEO, CHARO, INDAPARAPEO, SANTA ANA MAYA, TARIMBARO",5,-1,
798,ocd-division/country:mx/state:mi/loc:9,Diputación del Distrito Local 9 MICHOACÁN DE OCAMPO,MX,MIC,"COTIJA, CHAVINDA, PAJACUARAN, LOS REYES, TANGAMANDAPIO, TINGÜINDIN, TOCUMBO, VILLAMAR",5,-1,
799,ocd-division/country:mx/state:mi/loc:10,Diputación del Distrito Local 10 MICHOACÁN DE OCAMPO,MX,MIC,MORELIA,5,-1,
800,ocd-division/country:mx/state:mi/loc:11,Diputación del Distrito Local 11 MICHOACÁN DE OCAMPO,MX,MIC,MORELIA,5,-1,
801,ocd-division/country:mx/state:mi/loc:12,Diputación del Distrito Local 12 MICHOACÁN DE OCAMPO,MX,MIC,"HIDALGO, IRIMBO, QUERENDARO, ZINAPECUARO",5,-1,
802,ocd-division/country:mx/state:mi/loc:13,Diputación del Distrito Local 13 MICHOACÁN DE OCAMPO,MX,MIC,"ANGANGUEO, OCAMPO, ZITACUARO",5,-1,
803,ocd-division/country:mx/state:mi/loc:14,Diputación del Distrito Local 14 MICHOACÁN DE OCAMPO,MX,MIC,URUAPAN,5,-1,
804,ocd-division/country:mx/state:mi/loc:15,Diputación del Distrito Local 15 MICHOACÁN DE OCAMPO,MX,MIC,"HUIRAMBA, LAGUNILLAS, PATZCUARO, SALVADOR ESCALANTE, TINGAMBATO, TZINTZUNTZAN, ZIRACUARETIRO",5,-1,
805,ocd-division/country:mx/state:mi/loc:16,Diputación del Distrito Local 16 MICHOACÁN DE OCAMPO,MX,MIC,MORELIA,5,-1,
806,ocd-division/country:mx/state:mi/loc:17,Diputación del Distrito Local 17 MICHOACÁN DE OCAMPO,MX,MIC,MORELIA,5,-1,
807,ocd-division/country:mx/state:mi/loc:18,Diputación del Distrito Local 18 MICHOACÁN DE OCAMPO,MX,MIC,"CARACUARO, HUETAMO, JUAREZ, JUNGAPEO, SAN LUCAS, SUSUPUATO, TIQUICHEO DE NICOLAS ROMERO, TUXPAN, TUZANTLA, TZITZIO",5,-1,
808,ocd-division/country:mx/state:mi/loc:19,Diputación del Distrito Local 19 MICHOACÁN DE OCAMPO,MX,MIC,"ACUITZIO, ARIO, MADERO, NOCUPETARO, TACAMBARO, TARETAN, TURICATO",5,-1,
809,ocd-division/country:mx/state:mi/loc:20,Diputación del Distrito Local 20 MICHOACÁN DE OCAMPO,MX,MIC,URUAPAN,5,-1,
810,ocd-division/country:mx/state:mi/loc:21,Diputación del Distrito Local 21 MICHOACÁN DE OCAMPO,MX,MIC,"AGUILILLA, AQUILA, BUENAVISTA, COAHUAYANA, COALCOMAN DE VAZQUEZ PALLARES, CHINICUILA, PERIBAN, TEPALCATEPEC",5,-1,
811,ocd-division/country:mx/state:mi/loc:22,Diputación del Distrito Local 22 MICHOACÁN DE OCAMPO,MX,MIC,"ARTEAGA, CHURUMUCO, GABRIEL ZAMORA, LA HUACANA, MUGICA, NUEVO URECHO, PARACUARO, TUMBISCATIO",5,-1,
812,ocd-division/country:mx/state:mi/loc:23,Diputación del Distrito Local 23 MICHOACÁN DE OCAMPO,MX,MIC,"APATZINGAN, NUEVO PARANGARICUTIRO, TANCITARO",5,-1,
813,ocd-division/country:mx/state:mi/loc:24,Diputación del Distrito Local 24 MICHOACÁN DE OCAMPO,MX,MIC,LAZARO CARDENAS,5,-1,
814,ocd-division/country:mx/state:mo/loc:1,Diputación del Distrito Local 1 MORELOS,MX,MOR,CUERNAVACA,5,-1,
815,ocd-division/country:mx/state:mo/loc:2,Diputación del Distrito Local 2 MORELOS,MX,MOR,CUERNAVACA,5,-1,
816,ocd-division/country:mx/state:mo/loc:3,Diputación del Distrito Local 3 MORELOS,MX,MOR,"CUERNAVACA, HUITZILAC, TEPOZTLAN, TLALNEPANTLA, TLAYACAPAN, TOTOLAPAN",5,-1,
817,ocd-division/country:mx/state:mo/loc:4,Diputación del Distrito Local 4 MORELOS,MX,MOR,"ATLATLAHUCAN, CUAUTLA, OCUITUCO, TETELA DEL VOLCAN, YECAPIXTLA, ZACUALPAN DE AMILPAS, TEMOAC",5,-1,
818,ocd-division/country:mx/state:mo/loc:5,Diputación del Distrito Local 5 MORELOS,MX,MOR,"CUERNAVACA, MIACATLAN, TEMIXCO",5,-1,
819,ocd-division/country:mx/state:mo/loc:6,Diputación del Distrito Local 6 MORELOS,MX,MOR,JIUTEPEC,5,-1,
820,ocd-division/country:mx/state:mo/loc:7,Diputación del Distrito Local 7 MORELOS,MX,MOR,CUAUTLA,5,-1,
821,ocd-division/country:mx/state:mo/loc:8,Diputación del Distrito Local 8 MORELOS,MX,MOR,"EMILIANO ZAPATA, XOCHITEPEC",5,-1,
822,ocd-division/country:mx/state:mo/loc:9,Diputación del Distrito Local 9 MORELOS,MX,MOR,"AMACUZAC, COATLAN DEL RIO, MAZATEPEC, PUENTE DE IXTLA, TETECALA, ZACATEPEC",5,-1,
823,ocd-division/country:mx/state:mo/loc:10,Diputación del Distrito Local 10 MORELOS,MX,MOR,"AYALA, JANTETELCO, JONACATEPEC, TLALTIZAPAN DE ZAPATA",5,-1,
824,ocd-division/country:mx/state:mo/loc:11,Diputación del Distrito Local 11 MORELOS,MX,MOR,"AXOCHIAPAN, JOJUTLA, TEPALCINGO, TLAQUILTENANGO",5,-1,
825,ocd-division/country:mx/state:mo/loc:12,Diputación del Distrito Local 12 MORELOS,MX,MOR,"JIUTEPEC, YAUTEPEC",5,-1,
826,ocd-division/country:mx/state:na/loc:1,Diputación del Distrito Local 1 NAYARIT,MX,NAY,"ACAPONETA, HUAJICORI, ROSAMORADA",5,-1,
827,ocd-division/country:mx/state:na/loc:2,Diputación del Distrito Local 2 NAYARIT,MX,NAY,"ROSAMORADA, TECUALA",5,-1,
828,ocd-division/country:mx/state:na/loc:3,Diputación del Distrito Local 3 NAYARIT,MX,NAY,"DEL NAYAR, RUIZ",5,-1,
829,ocd-division/country:mx/state:na/loc:4,Diputación del Distrito Local 4 NAYARIT,MX,NAY,"SANTIAGO IXCUINTLA, TUXPAN",5,-1,
830,ocd-division/country:mx/state:na/loc:5,Diputación del Distrito Local 5 NAYARIT,MX,NAY,SANTIAGO IXCUINTLA,5,-1,
831,ocd-division/country:mx/state:na/loc:6,Diputación del Distrito Local 6 NAYARIT,MX,NAY,TEPIC,5,-1,
832,ocd-division/country:mx/state:na/loc:7,Diputación del Distrito Local 7 NAYARIT,MX,NAY,TEPIC,5,-1,
833,ocd-division/country:mx/state:na/loc:8,Diputación del Distrito Local 8 NAYARIT,MX,NAY,TEPIC,5,-1,
834,ocd-division/country:mx/state:na/loc:9,Diputación del Distrito Local 9 NAYARIT,MX,NAY,TEPIC,5,-1,
835,ocd-division/country:mx/state:na/loc:10,Diputación del Distrito Local 10 NAYARIT,MX,NAY,"COMPOSTELA, SAN BLAS",5,-1,
836,ocd-division/country:mx/state:na/loc:11,Diputación del Distrito Local 11 NAYARIT,MX,NAY,TEPIC,5,-1,
837,ocd-division/country:mx/state:na/loc:12,Diputación del Distrito Local 12 NAYARIT,MX,NAY,TEPIC,5,-1,
838,ocd-division/country:mx/state:na/loc:13,Diputación del Distrito Local 13 NAYARIT,MX,NAY,"JALA, SAN PEDRO LAGUNILLAS, SANTA MARIA DEL ORO, LA YESCA",5,-1,
839,ocd-division/country:mx/state:na/loc:14,Diputación del Distrito Local 14 NAYARIT,MX,NAY,"TEPIC, XALISCO",5,-1,
840,ocd-division/country:mx/state:na/loc:15,Diputación del Distrito Local 15 NAYARIT,MX,NAY,COMPOSTELA,5,-1,
841,ocd-division/country:mx/state:na/loc:16,Diputación del Distrito Local 16 NAYARIT,MX,NAY,"AHUACATLAN, AMATLAN DE CAÑAS, IXTLAN DEL RIO",5,-1,
842,ocd-division/country:mx/state:na/loc:17,Diputación del Distrito Local 17 NAYARIT,MX,NAY,BAHIA DE BANDERAS,5,-1,
843,ocd-division/country:mx/state:na/loc:18,Diputación del Distrito Local 18 NAYARIT,MX,NAY,BAHIA DE BANDERAS,5,-1,
844,ocd-division/country:mx/state:nl/loc:1,Diputación del Distrito Local 1 NUEVO LEÓN,MX,NLE,MONTERREY,5,-1,
845,ocd-division/country:mx/state:nl/loc:2,Diputación del Distrito Local 2 NUEVO LEÓN,MX,NLE,MONTERREY,5,-1,
846,ocd-division/country:mx/state:nl/loc:3,Diputación del Distrito Local 3 NUEVO LEÓN,MX,NLE,"GARCIA, MONTERREY",5,-1,
847,ocd-division/country:mx/state:nl/loc:4,Diputación del Distrito Local 4 NUEVO LEÓN,MX,NLE,MONTERREY,5,-1,
848,ocd-division/country:mx/state:nl/loc:5,Diputación del Distrito Local 5 NUEVO LEÓN,MX,NLE,"APODACA, GRAL. ESCOBEDO, GRAL. ZUAZUA, PESQUERIA, SAN NICOLAS DE LOS GARZA",5,-1,
849,ocd-division/country:mx/state:nl/loc:6,Diputación del Distrito Local 6 NUEVO LEÓN,MX,NLE,MONTERREY,5,-1,
850,ocd-division/country:mx/state:nl/loc:7,Diputación del Distrito Local 7 NUEVO LEÓN,MX,NLE,"APODACA, GUADALUPE, PESQUERIA",5,-1,
851,ocd-division/country:mx/state:nl/loc:8,Diputación del Distrito Local 8 NUEVO LEÓN,MX,NLE,MONTERREY,5,-1,
852,ocd-division/country:mx/state:nl/loc:9,Diputación del Distrito Local 9 NUEVO LEÓN,MX,NLE,SAN NICOLAS DE LOS GARZA,5,-1,
853,ocd-division/country:mx/state:nl/loc:10,Diputación del Distrito Local 10 NUEVO LEÓN,MX,NLE,"APODACA, SAN NICOLAS DE LOS GARZA",5,-1,
854,ocd-division/country:mx/state:nl/loc:11,Diputación del Distrito Local 11 NUEVO LEÓN,MX,NLE,"MONTERREY, SAN NICOLAS DE LOS GARZA",5,-1,
855,ocd-division/country:mx/state:nl/loc:12,Diputación del Distrito Local 12 NUEVO LEÓN,MX,NLE,"GUADALUPE, MONTERREY",5,-1,
856,ocd-division/country:mx/state:nl/loc:13,Diputación del Distrito Local 13 NUEVO LEÓN,MX,NLE,"GUADALUPE, JUAREZ",5,-1,
857,ocd-division/country:mx/state:nl/loc:14,Diputación del Distrito Local 14 NUEVO LEÓN,MX,NLE,"APODACA, GUADALUPE",5,-1,
858,ocd-division/country:mx/state:nl/loc:15,Diputación del Distrito Local 15 NUEVO LEÓN,MX,NLE,GUADALUPE,5,-1,
859,ocd-division/country:mx/state:nl/loc:16,Diputación del Distrito Local 16 NUEVO LEÓN,MX,NLE,APODACA,5,-1,
860,ocd-division/country:mx/state:nl/loc:17,Diputación del Distrito Local 17 NUEVO LEÓN,MX,NLE,GRAL. ESCOBEDO,5,-1,
861,ocd-division/country:mx/state:nl/loc:18,Diputación del Distrito Local 18 NUEVO LEÓN,MX,NLE,"SAN PEDRO GARZA GARCIA, SANTA CATARINA",5,-1,
862,ocd-division/country:mx/state:nl/loc:19,Diputación del Distrito Local 19 NUEVO LEÓN,MX,NLE,SANTA CATARINA,5,-1,
863,ocd-division/country:mx/state:nl/loc:20,Diputación del Distrito Local 20 NUEVO LEÓN,MX,NLE,"ABASOLO, CARMEN, GARCIA, HIDALGO, MINA, MONTERREY",5,-1,
864,ocd-division/country:mx/state:nl/loc:21,Diputación del Distrito Local 21 NUEVO LEÓN,MX,NLE,"AGUALEGUAS, ANAHUAC, BUSTAMANTE, CIENEGA DE FLORES, GRAL. ZUAZUA, LAMPAZOS DE NARANJO, PARAS, SABINAS HIDALGO, SALINAS VICTORIA, VALLECILLO, VILLALDAMA",5,-1,
865,ocd-division/country:mx/state:nl/loc:22,Diputación del Distrito Local 22 NUEVO LEÓN,MX,NLE,JUAREZ,5,-1,
866,ocd-division/country:mx/state:nl/loc:23,Diputación del Distrito Local 23 NUEVO LEÓN,MX,NLE,"APODACA, CADEREYTA JIMENEZ, DR. GONZALEZ, JUAREZ, MARIN, PESQUERIA, LOS RAMONES",5,-1,
867,ocd-division/country:mx/state:nl/loc:24,Diputación del Distrito Local 24 NUEVO LEÓN,MX,NLE,"LOS ALDAMAS, CERRALVO, CHINA, DR. COSS, GRAL. BRAVO, GRAL. TERAN, GRAL. TREVIÑO, LOS HERRERAS, HIGUERAS, HUALAHUISES, LINARES, MELCHOR OCAMPO, MONTEMORELOS",5,-1,
868,ocd-division/country:mx/state:nl/loc:25,Diputación del Distrito Local 25 NUEVO LEÓN,MX,NLE,GRAL. ESCOBEDO,5,-1,
869,ocd-division/country:mx/state:nl/loc:26,Diputación del Distrito Local 26 NUEVO LEÓN,MX,NLE,"ALLENDE, ARAMBERRI, DR. ARROYO, GALEANA, GRAL. ZARAGOZA, ITURBIDE, MIER Y NORIEGA, RAYONES, SANTIAGO",5,-1,
870,ocd-division/country:mx/state:oa/loc:1,Diputación del Distrito Local 1 OAXACA,MX,OAX,"ACATLAN DE PEREZ FIGUEROA, COSOLAPA, SAN JOSE INDEPENDENCIA, SAN JOSE TENANGO, SAN JUAN BAUTISTA TUXTEPEC, SAN MIGUEL SOYALTEPEC, SAN PEDRO IXCATLAN, SANTA MARIA CHILCHOTLA",5,-1,
871,ocd-division/country:mx/state:oa/loc:2,Diputación del Distrito Local 2 OAXACA,MX,OAX,"SAN JUAN BAUTISTA TUXTEPEC, SAN LUCAS OJITLAN",5,-1,
872,ocd-division/country:mx/state:oa/loc:3,Diputación del Distrito Local 3 OAXACA,MX,OAX,"AYOTZINTEPEC, LOMA BONITA, SAN FELIPE JALAPA DE DIAZ, SAN FELIPE USILA, SAN JOSE CHILTEPEC, SAN JUAN BAUTISTA TLACOATZINTEPEC, SAN JUAN BAUTISTA TUXTEPEC, SAN LUCAS OJITLAN, SANTA MARIA JACATEPEC, SANTIAGO JOCOTEPEC",5,-1,
873,ocd-division/country:mx/state:oa/loc:4,Diputación del Distrito Local 4 OAXACA,MX,OAX,"CONCEPCION PAPALO, CUYAMECALCO VILLA DE ZARAGOZA, ELOXOCHITLAN DE FLORES MAGON, HUAUTEPEC, HUAUTLA DE JIMENEZ, MAZATLAN VILLA DE FLORES, SAN ANDRES TEOTILALPAM, SAN ANTONIO NANAHUATIPAM, SAN BARTOLOME AYAUTLA, SAN FRANCISCO CHAPULAPA, SAN FRANCISCO HUEHUETLAN, SAN JERONIMO TECOATL, SAN JUAN BAUTISTA CUICATLAN, CHIQUIHUITLAN DE BENITO JUAREZ, SAN JUAN COATZOSPAM, SAN JUAN DE LOS CUES, SAN JUAN TEPEUXILA, SAN LORENZO CUAUNECUILTITLA, SAN LUCAS ZOQUIAPAM, SAN MARTIN TOXPALAN, SAN MATEO YOLOXOCHITLAN, SAN MIGUEL SANTA FLOR, SAN PEDRO JALTEPETONGO, SAN PEDRO JOCOTIPAC, SAN PEDRO OCOPETATILLO, SAN PEDRO SOCHIAPAM, SAN PEDRO TEUTILA, SANTA ANA ATEIXTLAHUACA, SANTA ANA CUAUHTEMOC, SANTA CRUZ ACATEPEC, SANTA MARIA LA ASUNCION, SANTA MARIA IXCATLAN, SANTA MARIA PAPALO, SANTA MARIA TECOMAVACA, SANTA MARIA TEOPOXCO, SANTA MARIA TEXCATITLAN, SANTA MARIA TLALIXTAC, SANTIAGO TEXCALCINGO, SANTOS REYES PAPALO, TEOTITLAN DE FLORES MAGON, VALERIO TRUJANO",5,-1,
874,ocd-division/country:mx/state:oa/loc:5,Diputación del Distrito Local 5 OAXACA,MX,OAX,"ASUNCION NOCHIXTLAN, CONCEPCION BUENAVISTA, MAGDALENA JALTEPEC, MAGDALENA YODOCONO DE PORFIRIO DIAZ, MAGDALENA ZAHUATLAN, SAN ANDRES DINICUITI, SAN ANDRES LAGUNAS, SAN ANDRES NUXIÑO, SAN ANDRES SINAXTLA, SAN ANDRES ZAUTLA, SAN ANTONIO ACUTLA, SAN BARTOLO SOYALTEPEC, SAN CRISTOBAL SUCHIXTLAHUACA, SAN FRANCISCO CHINDUA, SAN FRANCISCO JALTEPETONGO, SAN FRANCISCO NUXAÑO, SAN FRANCISCO TELIXTLAHUACA, SAN FRANCISCO TEOPAN, SAN JERONIMO SOSOLA, SAN JUAN BAUTISTA COIXTLAHUACA, SAN JUAN BAUTISTA JAYACATLAN, SAN JUAN DIUXI, SAN JUAN SAYULTEPEC, SAN JUAN TAMAZOLA, SAN JUAN TEPOSCOLULA, SAN JUAN YUCUITA, SAN MATEO ETLATONGO, SAN MATEO TLAPILTEPEC, SAN MIGUEL CHICAHUA, SAN MIGUEL HUAUTLA, SAN MIGUEL PERAS, SAN MIGUEL PIEDRAS, SAN MIGUEL TECOMATLAN, SAN MIGUEL TEQUIXTEPEC, SAN MIGUEL TULANCINGO, SAN PABLO HUITZO, SAN PEDRO COXCALTEPEC CANTAROS, SAN PEDRO NOPALA, SAN PEDRO TEOZACOALCO, SAN PEDRO TIDAA, SAN PEDRO TOPILTEPEC, SAN PEDRO Y SAN PABLO TEPOSCOLULA, SAN PEDRO YUCUNAMA, SAN VICENTE NUÑU, SANTA INES DE ZARAGOZA, SANTA MAGDALENA JICOTLAN, SANTA MARIA APAZCO, SANTA MARIA CHACHOAPAM, VILLA DE CHILAPA DE DIAZ, SANTA MARIA NATIVITAS, SANTA MARIA PEÑOLES, SANTIAGO APOALA, SANTIAGO CACALOXTEPEC, SANTIAGO HUAUCLILLA, SANTIAGO IHUITLAN PLUMAS, SANTIAGO NACALTEPEC, SANTIAGO NEJAPILLA, SANTIAGO SUCHILQUITONGO, SANTIAGO TENANGO, SANTIAGO TEPETLAPA, SANTIAGO TILANTONGO, SANTIAGO TILLO, SANTIAGO TLAZOYALTEPEC, SANTO DOMINGO NUXAA, SANTO DOMINGO TLATAYAPAM, SANTO DOMINGO TONALTEPEC, SANTO DOMINGO YANHUITLAN, SANTO DOMINGO YODOHINO, SANTO TOMAS MAZALTEPEC, VILLA DE TAMAZULAPAM DEL PROGRESO, VILLA TEJUPAM DE LA UNION, TEOTONGO, TEPELMEME VILLA DE MORELOS, TLACOTEPEC PLUMAS, LA TRINIDAD VISTA HERMOSA, YUTANDUCHI DE GUERRERO",5,-1,
875,ocd-division/country:mx/state:oa/loc:6,Diputación del Distrito Local 6 OAXACA,MX,OAX,"ASUNCION CUYOTEPEJI, CALIHUALA, COSOLTEPEC, FRESNILLO DE TRUJANO, GUADALUPE DE RAMIREZ, HEROICA CIUDAD DE HUAJUAPAN DE LEON, MARISCALA DE JUAREZ, SAN ANDRES TEPETLAPA, SAN FRANCISCO TLAPANCINGO, SAN JERONIMO SILACAYOAPILLA, SAN JORGE NUCHITA, SAN JOSE AYUQUILA, SAN JUAN BAUTISTA SUCHITEPEC, SAN JUAN BAUTISTA TLACHICHILCO, SAN JUAN CIENEGUILLA, SAN JUAN IHUALTEPEC, SAN LORENZO VICTORIA, SAN MARCOS ARTEAGA, SAN MARTIN ZACATEPEC, SAN MATEO NEJAPAM, SAN MIGUEL AHUEHUETITLAN, SAN MIGUEL AMATITLAN, SAN NICOLAS HIDALGO, SAN PEDRO Y SAN PABLO TEQUIXTEPEC, SAN SIMON ZAHUATLAN, SANTA CATARINA ZAPOQUILA, SANTA CRUZ DE BRAVO, SANTA CRUZ TACACHE DE MINA, SANTA MARIA CAMOTLAN, SANTIAGO AYUQUILILLA, SANTIAGO CHAZUMBA, SANTIAGO DEL RIO, SANTIAGO HUAJOLOTITLAN, SANTIAGO MILTEPEC, SANTIAGO TAMAZOLA, SANTIAGO YUCUYACHI, SANTO DOMINGO TONALA, SANTOS REYES YUCUNA, SILACAYOAPAM, ZAPOTITLAN LAGUNAS, ZAPOTITLAN PALMAS",5,-1,
876,ocd-division/country:mx/state:oa/loc:7,Diputación del Distrito Local 7 OAXACA,MX,OAX,"COICOYAN DE LAS FLORES, CONSTANCIA DEL ROSARIO, MESONES HIDALGO, PUTLA VILLA DE GUERRERO, LA REFORMA, SAN ANDRES CABECERA NUEVA, SAN JUAN CACAHUATEPEC, SAN JUAN MIXTEPEC, SAN MARTIN ITUNYOSO, SAN MARTIN PERAS, SAN PEDRO AMUZGOS, SAN SEBASTIAN TECOMAXTLAHUACA, SANTA CRUZ ITUNDUJIA, SANTA MARIA IPALAPA, SANTA MARIA ZACATEPEC, SANTIAGO JUXTLAHUACA",5,-1,
877,ocd-division/country:mx/state:oa/loc:8,Diputación del Distrito Local 8 OAXACA,MX,OAX,"CHALCATONGO DE HIDALGO, IXPANTEPEC NIEVES, MAGDALENA PEÑASCO, SAN AGUSTIN ATENANGO, SAN AGUSTIN TLACOTEPEC, SAN ANTONINO MONTE VERDE, SAN ANTONIO SINICAHUA, SAN BARTOLOME YUCUAÑE, SAN CRISTOBAL AMOLTEPEC, SAN ESTEBAN ATATLAHUCA, SAN JUAN ACHIUTLA, SAN JUAN ÑUMI, SAN JUAN TEITA, SAN MARTIN HUAMELULPAM, SAN MATEO PEÑASCO, SAN MATEO SINDIHUI, SAN MIGUEL ACHIUTLA, SAN MIGUEL EL GRANDE, SAN MIGUEL TLACOTEPEC, SAN PABLO TIJALTEPEC, SAN PEDRO MARTIR YUCUXACO, SAN PEDRO MOLINOS, SAN SEBASTIAN NICANANDUTA, SANTA CATARINA TAYATA, SANTA CATARINA TICUA, SANTA CATARINA YOSONOTU, SANTA CRUZ NUNDACO, SANTA CRUZ TACAHUA, SANTA CRUZ TAYATA, SANTA LUCIA MONTEVERDE, SANTA MARIA DEL ROSARIO, SANTA MARIA NDUAYACO, SANTA MARIA TATALTEPEC, SANTA MARIA YOLOTEPEC, SANTA MARIA YOSOYUA, SANTA MARIA YUCUHITI, SANTIAGO NUNDICHE, SANTIAGO NUYOO, SANTIAGO YOLOMECATL, SANTIAGO YOSONDUA, SANTO DOMINGO IXCATLAN, SANTO TOMAS OCOTEPEC, SANTOS REYES TEPEJILLO, H VILLA TEZOATLAN SEGURA Y LUNA CUNA IND OAX, HEROICA CIUDAD DE TLAXIACO",5,-1,
878,ocd-division/country:mx/state:oa/loc:9,Diputación del Distrito Local 9 OAXACA,MX,OAX,"ABEJONES, GUELATAO DE JUAREZ, IXTLAN DE JUAREZ, MAGDALENA APASCO, NATIVIDAD, NUEVO ZOQUIAPAM, REYES ETLA, SAN ANDRES SOLAGA, SAN ANDRES YAA, SAN BALTAZAR YATZACHI EL BAJO, SAN BARTOLOME ZOOGOCHO, SAN CRISTOBAL LACHIRIOAG, SAN FRANCISCO CAJONOS, SAN FRANCISCO LACHIGOLO, SAN ILDEFONSO VILLA ALTA, SAN JUAN ATEPEC, SAN JUAN BAUTISTA ATATLAHUCA, SAN JUAN BAUTISTA GUELACHE, SAN JUAN BAUTISTA VALLE NACIONAL, SAN JUAN CHICOMEZUCHIL, SAN JUAN DEL ESTADO, SAN JUAN EVANGELISTA ANALCO, SAN JUAN JUQUILA VIJANOS, SAN JUAN PETLAPA, SAN JUAN QUIOTEPEC, SAN JUAN TABAA, SAN JUAN YAEE, SAN JUAN YATZONA, SAN MATEO CAJONOS, SAN MELCHOR BETAZA, SAN MIGUEL ALOAPAM, SAN MIGUEL AMATLAN, SAN MIGUEL DEL RIO, VILLA TALEA DE CASTRO, SAN MIGUEL YOTAO, SAN PABLO MACUILTIANGUIS, SAN PABLO YAGANIZA, SAN PEDRO CAJONOS, SAN PEDRO YANERI, SAN PEDRO YOLOX, SANTA ANA YARENI, SANTA CATARINA IXTEPEJI, SANTA CATARINA LACHATAO, SANTA MARIA JALTIANGUIS, SANTA MARIA TEMAXCALAPA, SANTA MARIA YALINA, SANTA MARIA YAVESIA, SANTIAGO CAMOTLAN, SANTIAGO COMALTEPEC, SANTIAGO LALOPA, SANTIAGO LAXOPA, SANTIAGO XIACUI, SANTIAGO ZOOCHILA, SANTO DOMINGO ROAYAGA, SANTO DOMINGO TOMALTEPEC, SANTO DOMINGO XAGACIA, TANETZE DE ZARAGOZA, TEOCOCUILCO DE MARCOS PEREZ, TEOTITLAN DEL VALLE, TLALIXTAC DE CABRERA, CAPULALPAM DE MENDEZ, VILLA DE ETLA, VILLA HIDALGO",5,-1,
879,ocd-division/country:mx/state:oa/loc:10,Diputación del Distrito Local 10 OAXACA,MX,OAX,"ASUNCION CACALOTEPEC, MIXISTLAN DE LA REFORMA, SAN JUAN COMALTEPEC, SAN JUAN COTZOCON, SAN JUAN JUQUILA MIXES, SAN JUAN LALANA, SAN JUAN MAZATLAN, SAN LUCAS CAMOTLAN, SAN MIGUEL QUETZALTEPEC, SAN PEDRO OCOTEPEC, SAN PEDRO Y SAN PABLO AYUTLA, SANTA MARIA ALOTEPEC, SANTA MARIA TEPANTLALI, SANTA MARIA TLAHUITOLTEPEC, SANTIAGO ATITLAN, SANTIAGO CHOAPAM, SANTIAGO IXCUINTEPEC, SANTIAGO YAVEO, SANTIAGO ZACATEPEC, SANTO DOMINGO TEPUXTEPEC, TAMAZULAPAM DEL ESPIRITU SANTO, TOTONTEPEC VILLA DE MORELOS",5,-1,
880,ocd-division/country:mx/state:oa/loc:11,Diputación del Distrito Local 11 OAXACA,MX,OAX,"EL BARRIO DE LA SOLEDAD, CHAHUITES, MATIAS ROMERO AVENDAÑO, REFORMA DE PINEDA, SAN JUAN GUICHICOVI, SAN JUAN MAZATLAN, SAN MIGUEL CHIMALAPA, SAN PEDRO TAPANATEPEC, SANTA MARIA CHIMALAPA, SANTA MARIA PETAPA, SANTIAGO NILTEPEC, SANTO DOMINGO INGENIO, SANTO DOMINGO ZANATEPEC",5,-1,
881,ocd-division/country:mx/state:oa/loc:12,Diputación del Distrito Local 12 OAXACA,MX,OAX,"GUADALUPE ETLA, NAZARENO ETLA, OAXACA DE JUAREZ, SAN AGUSTIN ETLA, SAN AGUSTIN YATARENI, SAN ANDRES HUAYAPAM, SAN ANDRES IXTLAHUACA, SAN FELIPE TEJALAPAM, SAN LORENZO CACAOTEPEC, SAN PABLO ETLA, SAN PEDRO IXTLAHUACA, SAN SEBASTIAN TUTLA, SANTA CRUZ AMILPAS, SANTA LUCIA DEL CAMINO, SOLEDAD ETLA",5,-1,
882,ocd-division/country:mx/state:oa/loc:13,Diputación del Distrito Local 13 OAXACA,MX,OAX,"OAXACA DE JUAREZ, SAN JACINTO AMILPAS, SANTA MARIA ATZOMPA",5,-1,
883,ocd-division/country:mx/state:oa/loc:14,Diputación del Distrito Local 14 OAXACA,MX,OAX,OAXACA DE JUAREZ,5,-1,
884,ocd-division/country:mx/state:oa/loc:15,Diputación del Distrito Local 15 OAXACA,MX,OAX,"CUILAPAM DE GUERRERO, SAN ANTONIO DE LA CAL, SAN RAYMUNDO JALPAN, SANTA CRUZ XOXOCOTLAN, VILLA DE ZAACHILA",5,-1,
885,ocd-division/country:mx/state:oa/loc:16,Diputación del Distrito Local 16 OAXACA,MX,OAX,"ANIMAS TRUJANO, ASUNCION OCOTLAN, AYOQUEZCO DE ALDAMA, CIENEGA DE ZIMATLAN, MAGDALENA MIXTEPEC, OCOTLAN DE MORELOS, SAN AGUSTIN DE LAS JUNTAS, SAN ANDRES ZABACHE, SAN ANTONINO CASTILLO VELASCO, SAN ANTONINO EL ALTO, SAN ANTONIO HUITEPEC, SAN BARTOLO COYOTEPEC, SAN BERNARDO MIXTEPEC, SAN DIONISIO OCOTLAN, SAN JUAN CHILATECA, SAN MARTIN LACHILA, SAN MARTIN TILCAJETE, SAN MIGUEL MIXTEPEC, SAN PABLO CUATRO VENADOS, SAN PABLO HUIXTEPEC, SAN PEDRO APOSTOL, SAN PEDRO MARTIR, SAN VICENTE LACHIXIO, SANTA ANA TLAPACOYAN, SANTA ANA ZEGACHE, SANTA CATARINA QUIANE, SANTA CRUZ MIXTEPEC, SANTA GERTRUDIS, SANTA INES DEL MONTE, SANTA INES YATZECHE, SANTA LUCIA OCOTLAN, SANTA MARIA COYOTEPEC, SANTA MARIA LACHIXIO, SANTA MARIA SOLA, SANTIAGO APOSTOL, SANTIAGO TLAZOYALTEPEC, SANTO TOMAS JALIEZA, TRINIDAD ZAACHILA, ZIMATLAN DE ALVAREZ",5,-1,
886,ocd-division/country:mx/state:oa/loc:17,Diputación del Distrito Local 17 OAXACA,MX,OAX,"MAGDALENA TEITIPAC, NEJAPA DE MADERO, ROJAS DE CUAUHTEMOC, SAN BALTAZAR CHICHICAPAM, SAN BARTOLO YAUTEPEC, SAN BARTOLOME QUIALANA, SAN CARLOS YAUTEPEC, SAN DIONISIO OCOTEPEC, SAN FRANCISCO LOGUECHE, SAN JERONIMO TAVICHE, SAN JERONIMO TLACOCHAHUAYA, SAN JOSE LACHIGUIRI, SAN JUAN DEL RIO, SAN JUAN GUELAVIA, SAN JUAN LACHIGALLA, SAN JUAN LAJARCIA, SAN JUAN TEITIPAC, SAN LORENZO ALBARRADAS, SAN LUCAS QUIAVINI, SAN LUIS AMATLAN, SAN MIGUEL TILQUIAPAM, SAN PABLO VILLA DE MITLA, SAN PEDRO MARTIR QUIECHAPA, SAN PEDRO QUIATONI, SAN PEDRO TAVICHE, SAN PEDRO TOTOLAPAM, SAN SEBASTIAN ABASOLO, SAN SEBASTIAN TEITIPAC, SANTA ANA DEL VALLE, SANTA ANA TAVELA, SANTA CATARINA MINAS, SANTA CRUZ PAPALUTLA, SANTA MARIA DEL TULE, SANTA MARIA GUELACE, SANTA MARIA QUIEGOLANI, SANTA MARIA ZOQUITLAN, SANTIAGO MATATLAN, SANTO DOMINGO ALBARRADAS, TLACOLULA DE MATAMOROS, VILLA DIAZ ORDAZ, YAXE",5,-1,
887,ocd-division/country:mx/state:oa/loc:18,Diputación del Distrito Local 18 OAXACA,MX,OAX,"ASUNCION TLACOLULITA, GUEVEA DE HUMBOLDT, MAGDALENA TEQUISISTLAN, MAGDALENA TLACOTEPEC, SAN MIGUEL TENANGO, SAN PEDRO HUAMELULA, SANTA MARIA ECATEPEC, SANTA MARIA GUIENAGATI, SANTA MARIA JALAPA DEL MARQUES, SANTA MARIA MIXTEQUILLA, SANTA MARIA TOTOLAPILLA, SANTIAGO ASTATA, SANTIAGO LACHIGUIRI, SANTIAGO LAOLLAGA, SANTO DOMINGO CHIHUITAN, SANTO DOMINGO PETAPA, SANTO DOMINGO TEHUANTEPEC",5,-1,
888,ocd-division/country:mx/state:oa/loc:19,Diputación del Distrito Local 19 OAXACA,MX,OAX,"ASUNCION IXTALTEPEC, CIUDAD IXTEPEC, SALINA CRUZ, SAN BLAS ATEMPA, SAN PEDRO COMITANCILLO, SAN PEDRO HUILOTEPEC, SANTA MARIA XADANI",5,-1,
889,ocd-division/country:mx/state:oa/loc:20,Diputación del Distrito Local 20 OAXACA,MX,OAX,"EL ESPINAL, HEROICA CIUDAD DE JUCHITAN DE ZARAGOZA, SAN DIONISIO DEL MAR, SAN FRANCISCO DEL MAR, SAN FRANCISCO IXHUATAN, SAN MATEO DEL MAR, UNION HIDALGO",5,-1,
890,ocd-division/country:mx/state:oa/loc:21,Diputación del Distrito Local 21 OAXACA,MX,OAX,"COATECAS ALTAS, LA COMPAÑIA, HEROICA CIUDAD DE EJUTLA DE CRESPO, MAGDALENA OCOTLAN, LA PE, SAN AGUSTIN AMATENGO, SAN FRANCISCO CAHUACUA, SAN FRANCISCO SOLA, SAN GABRIEL MIXTEPEC, SAN ILDEFONSO SOLA, SAN JACINTO TLACOTEPEC, SAN JERONIMO COATLAN, SAN JOSE DEL PROGRESO, SAN LORENZO TEXMELUCAN, SAN MARTIN DE LOS CANSECOS, SAN MIGUEL EJUTLA, SAN NICOLAS, SAN PEDRO JUCHATENGO, SAN SEBASTIAN COATLAN, SAN SIMON ALMOLONGAS, SAN VICENTE COATLAN, SANTA CRUZ ZENZONTEPEC, SANTA MARIA ZANIZA, SANTIAGO AMOLTEPEC, SANTIAGO MINAS, SANTIAGO TEXTITLAN, SANTO DOMINGO TEOJOMULCO, VILLA SOLA DE VEGA, TANICHE, YOGANA, SAN MATEO YUCUTINDOO",5,-1,
891,ocd-division/country:mx/state:oa/loc:22,Diputación del Distrito Local 22 OAXACA,MX,OAX,"MARTIRES DE TACUBAYA, PINOTEPA DE DON LUIS, SAN AGUSTIN CHAYUCO, SAN ANDRES HUAXPALTEPEC, SAN ANTONIO TEPETLAPA, SAN JOSE ESTANCIA GRANDE, SAN JUAN BAUTISTA LO DE SOTO, SAN JUAN COLORADO, SAN LORENZO, SAN MIGUEL TLACAMAMA, SAN PEDRO ATOYAC, SAN PEDRO JICAYAN, SAN SEBASTIAN IXCAPA, SANTA CATARINA MECHOACAN, SANTA MARIA CORTIJO, SANTA MARIA HUAZOLOTITLAN, SANTIAGO IXTAYUTLA, SANTIAGO JAMILTEPEC, SANTIAGO LLANO GRANDE, SANTIAGO PINOTEPA NACIONAL, SANTIAGO TAPEXTLA, SANTO DOMINGO ARMENTA",5,-1,
892,ocd-division/country:mx/state:oa/loc:23,Diputación del Distrito Local 23 OAXACA,MX,OAX,"SAN JUAN LACHAO, SAN JUAN QUIAHIJE, SAN MIGUEL PANIXTLAHUACA, SAN PEDRO MIXTEPEC, VILLA DE TUTUTEPEC, SANTA CATARINA JUQUILA, SANTA MARIA TEMAXCALTEPEC, SANTIAGO TETEPEC, SANTIAGO YAITEPEC, SANTOS REYES NOPALA, TATALTEPEC DE VALDES",5,-1,
893,ocd-division/country:mx/state:oa/loc:24,Diputación del Distrito Local 24 OAXACA,MX,OAX,"CANDELARIA LOXICHA, MIAHUATLAN DE PORFIRIO DIAZ, MONJAS, SAN AGUSTIN LOXICHA, SAN ANDRES PAXTLAN, SAN BALTAZAR LOXICHA, SAN CRISTOBAL AMATLAN, SAN FRANCISCO OZOLOTEPEC, SAN ILDEFONSO AMATLAN, SAN JOSE DEL PEÑASCO, SAN JUAN MIXTEPEC, SAN JUAN OZOLOTEPEC, SAN MARCIAL OZOLOTEPEC, SAN MATEO RIO HONDO, SAN MIGUEL COATLAN, SAN MIGUEL DEL PUERTO, SAN MIGUEL SUCHIXTEPEC, SAN PABLO COATLAN, SAN PEDRO MIXTEPEC, SAN SEBASTIAN RIO HONDO, SANTA ANA, SANTA CATALINA QUIERI, SANTA CATARINA CUIXTLA, SANTA CATARINA LOXICHA, SANTA CATARINA QUIOQUITANI, SANTA CRUZ XITLA, SANTA LUCIA MIAHUATLAN, SANTA MARIA OZOLOTEPEC, SANTIAGO XANICA, SANTO DOMINGO OZOLOTEPEC, SANTO TOMAS TAMAZULAPAN, SITIO DE XITLAPEHUA",5,-1,
894,ocd-division/country:mx/state:oa/loc:25,Diputación del Distrito Local 25 OAXACA,MX,OAX,"PLUMA HIDALGO, SAN BARTOLOME LOXICHA, SAN MATEO PIÑAS, SAN PEDRO EL ALTO, SAN PEDRO POCHUTLA, SANTA MARIA COLOTEPEC, SANTA MARIA HUATULCO, SANTA MARIA TONAMECA, SANTO DOMINGO DE MORELOS",5,-1,
895,ocd-division/country:mx/state:pu/loc:1,Diputación del Distrito Local 1 PUEBLA,MX,PUE,"HONEY, FRANCISCO Z. MENA, JALPAN, NAUPAN, PAHUATLAN, PANTEPEC, TLACUILOTEPEC, TLAXCO, VENUSTIANO CARRANZA, XICOTEPEC",5,-1,
896,ocd-division/country:mx/state:pu/loc:2,Diputación del Distrito Local 2 PUEBLA,MX,PUE,"AHUACATLAN, AMIXTLAN, CAMOCUAUTLA, COATEPEC, CHICONCUAUTLA, HERMENEGILDO GALEANA, HUAUCHINANGO, JOPALA, JUAN GALINDO, SAN FELIPE TEPATLAN, TEPANGO DE RODRIGUEZ, TLAOLA, TLAPACOYA, ZIHUATEUTLA",5,-1,
897,ocd-division/country:mx/state:pu/loc:3,Diputación del Distrito Local 3 PUEBLA,MX,PUE,"AHUAZOTEPEC, AQUIXTLA, CHIGNAHUAPAN, IXTACAMAXTITLAN, LIBRES, OCOTEPEC, ZACATLAN",5,-1,
898,ocd-division/country:mx/state:pu/loc:4,Diputación del Distrito Local 4 PUEBLA,MX,PUE,"CAXHUACAN, CUAUTEMPAN, HUEHUETLA, HUEYTLALPAN, HUITZILAN DE SERDAN, ATLEQUIZAYAN, IXTEPEC, NAUZONTLA, OLINTLA, TEPETZINTLA, TETELA DE OCAMPO, XOCHIAPULCO, XOCHITLAN DE VICENTE SUAREZ, ZACAPOAXTLA, ZAPOTITLAN DE MENDEZ, ZARAGOZA, ZAUTLA, ZONGOZOTLA",5,-1,
899,ocd-division/country:mx/state:pu/loc:5,Diputación del Distrito Local 5 PUEBLA,MX,PUE,"ACATENO, ATEMPAN, AYOTOXCO DE GUERRERO, CUETZALAN DEL PROGRESO, HUEYAPAN, HUEYTAMALCO, JONOTLA, TENAMPULCO, TETELES DE AVILA CASTILLO, TLATLAUQUITEPEC, TUZAMAPAN DE GALEANA, YAONAHUAC, ZOQUIAPAN",5,-1,
900,ocd-division/country:mx/state:pu/loc:6,Diputación del Distrito Local 6 PUEBLA,MX,PUE,"CUYOACO, CHIGNAUTLA, GUADALUPE VICTORIA, LAFRAGUA, TEPEYAHUALCO, TEZIUTLAN, XIUTETELCO",5,-1,
901,ocd-division/country:mx/state:pu/loc:7,Diputación del Distrito Local 7 PUEBLA,MX,PUE,"SAN MARTIN TEXMELUCAN, SAN MATIAS TLALANCALECA, SAN SALVADOR EL VERDE, TLAHUAPAN",5,-1,
902,ocd-division/country:mx/state:pu/loc:8,Diputación del Distrito Local 8 PUEBLA,MX,PUE,"CALPAN, CORONANGO, CHIAUTZINGO, DOMINGO ARENAS, HUEJOTZINGO, JUAN C. BONILLA, NEALTICAN, SAN FELIPE TEOTLALCINGO, SAN MIGUEL XOXTLA, SAN NICOLAS DE LOS RANCHOS, TLALTENANGO",5,-1,
903,ocd-division/country:mx/state:pu/loc:9,Diputación del Distrito Local 9 PUEBLA,MX,PUE,"CUAUTLANCINGO, PUEBLA",5,-1,
904,ocd-division/country:mx/state:pu/loc:10,Diputación del Distrito Local 10 PUEBLA,MX,PUE,PUEBLA,5,-1,
905,ocd-division/country:mx/state:pu/loc:11,Diputación del Distrito Local 11 PUEBLA,MX,PUE,PUEBLA,5,-1,
906,ocd-division/country:mx/state:pu/loc:12,Diputación del Distrito Local 12 PUEBLA,MX,PUE,"ACAJETE, AMOZOC, ATOYATEMPAN, CUAUTINCHAN, MIXTLA, PUEBLA, SANTO TOMAS HUEYOTLIPAN, TECALI DE HERRERA, TEPATLAXCO DE HIDALGO, TLANEPANTLA, TZICATLACOYAN",5,-1,
907,ocd-division/country:mx/state:pu/loc:13,Diputación del Distrito Local 13 PUEBLA,MX,PUE,"ACATZINGO, CUAPIAXTLA DE MADERO, MAZAPILTEPEC DE JUAREZ, NOPALUCAN, RAFAEL LARA GRAJALES, LOS REYES DE JUAREZ, SAN JOSE CHIAPA, SOLTEPEC, TEPEACA",5,-1,
908,ocd-division/country:mx/state:pu/loc:14,Diputación del Distrito Local 14 PUEBLA,MX,PUE,"ALJOJUCA, ATZITZINTLA, CHALCHICOMULA DE SESMA, CHICHIQUILA, CHILCHOTLA, ESPERANZA, ORIENTAL, QUIMIXTLAN, SAN JUAN ATENCO, SAN NICOLAS BUENOS AIRES, SAN SALVADOR EL SECO, TLACHICHUCA",5,-1,
909,ocd-division/country:mx/state:pu/loc:15,Diputación del Distrito Local 15 PUEBLA,MX,PUE,"GENERAL FELIPE ANGELES, PALMAR DE BRAVO, QUECHOLAC, SAN SALVADOR HUIXCOLOTLA, TECAMACHALCO, YEHUALTEPEC",5,-1,
910,ocd-division/country:mx/state:pu/loc:16,Diputación del Distrito Local 16 PUEBLA,MX,PUE,PUEBLA,5,-1,
911,ocd-division/country:mx/state:pu/loc:17,Diputación del Distrito Local 17 PUEBLA,MX,PUE,PUEBLA,5,-1,
912,ocd-division/country:mx/state:pu/loc:18,Diputación del Distrito Local 18 PUEBLA,MX,PUE,"SAN ANDRES CHOLULA, SAN PEDRO CHOLULA",5,-1,
913,ocd-division/country:mx/state:pu/loc:19,Diputación del Distrito Local 19 PUEBLA,MX,PUE,PUEBLA,5,-1,
914,ocd-division/country:mx/state:pu/loc:20,Diputación del Distrito Local 20 PUEBLA,MX,PUE,PUEBLA,5,-1,
915,ocd-division/country:mx/state:pu/loc:21,Diputación del Distrito Local 21 PUEBLA,MX,PUE,"ATLIXCO, ATZITZIHUACAN, OCOYUCAN, SAN DIEGO LA MESA TOCHIMILTZINGO, SAN GREGORIO ATZOMPA, SAN JERONIMO TECUANIPAN, SANTA ISABEL CHOLULA, TIANGUISMANALCO, TOCHIMILCO",5,-1,
916,ocd-division/country:mx/state:pu/loc:22,Diputación del Distrito Local 22 PUEBLA,MX,PUE,"ACTEOPAN, ALBINO ZERTUCHE, ATZALA, COHETZALA, COHUECAN, CHIAUTLA, CHIETLA, CHILA DE LA SAL, HUAQUECHULA, HUEHUETLAN EL CHICO, IXCAMILPA DE GUERRERO, IZUCAR DE MATAMOROS, JOLALPAN, TEOTLALCO, TEPEMAXALCO, TEPEOJUMA, TEPEXCO, TILAPA, TLAPANALA, XICOTLAN",5,-1,
917,ocd-division/country:mx/state:pu/loc:23,Diputación del Distrito Local 23 PUEBLA,MX,PUE,"ACATLAN, AHUATLAN, AHUEHUETITLA, AXUTLA, COATZINGO, CUAYUCA DE ANDRADE, CHIGMECATITLAN, CHILA, CHINANTLA, EPATLAN, GUADALUPE, HUATLATLAUCA, HUEHUETLAN EL GRANDE, HUITZILTEPEC, LA MAGDALENA TLATLAUQUITEPEC, MOLCAXAC, PETLALCINGO, PIAXTLA, SAN JERONIMO XAYACATLAN, SAN JUAN ATZOMPA, SAN MARTIN TOTOLTEPEC, SAN MIGUEL IXITLAN, SAN PABLO ANICANO, SAN PEDRO YELOIXTLAHUACA, SANTA CATARINA TLALTEMPAN, SANTA INES AHUATEMPAN, TECOMATLAN, TEHUITZINGO, TEOPANTLAN, TEPEXI DE RODRIGUEZ, TEPEYAHUALCO DE CUAUHTEMOC, TOCHTEPEC, TOTOLTEPEC DE GUERRERO, TULCINGO, XAYACATLAN DE BRAVO, XOCHILTEPEC, XOCHITLAN TODOS SANTOS, ZACAPALA",5,-1,
918,ocd-division/country:mx/state:pu/loc:24,Diputación del Distrito Local 24 PUEBLA,MX,PUE,"ATEXCAL, CALTEPEC, COYOTEPEC, IXCAQUIXTLA, JUAN N. MENDEZ, TEHUACAN, TEPANCO DE LOPEZ, TLACOTEPEC DE BENITO JUAREZ, ZAPOTITLAN",5,-1,
919,ocd-division/country:mx/state:pu/loc:25,Diputación del Distrito Local 25 PUEBLA,MX,PUE,"CAÑADA MORELOS, CHAPULCO, NICOLAS BRAVO, SANTIAGO MIAHUATLAN, TEHUACAN",5,-1,
920,ocd-division/country:mx/state:pu/loc:26,Diputación del Distrito Local 26 PUEBLA,MX,PUE,"AJALPAN, ALTEPEXI, COXCATLAN, COYOMEAPAN, ELOXOCHITLAN, SAN ANTONIO CAÑADA, SAN GABRIEL CHILAC, SAN JOSE MIAHUATLAN, SAN SEBASTIAN TLACOTEPEC, VICENTE GUERRERO, ZINACATEPEC, ZOQUITLAN",5,-1,
921,ocd-division/country:mx/state:qt/loc:1,Diputación del Distrito Local 1 QUERÉTARO,MX,QUE,QUERETARO,5,-1,
922,ocd-division/country:mx/state:qt/loc:2,Diputación del Distrito Local 2 QUERÉTARO,MX,QUE,QUERETARO,5,-1,
923,ocd-division/country:mx/state:qt/loc:3,Diputación del Distrito Local 3 QUERÉTARO,MX,QUE,QUERETARO,5,-1,
924,ocd-division/country:mx/state:qt/loc:4,Diputación del Distrito Local 4 QUERÉTARO,MX,QUE,QUERETARO,5,-1,
925,ocd-division/country:mx/state:qt/loc:5,Diputación del Distrito Local 5 QUERÉTARO,MX,QUE,QUERETARO,5,-1,
926,ocd-division/country:mx/state:qt/loc:6,Diputación del Distrito Local 6 QUERÉTARO,MX,QUE,"CORREGIDORA, QUERETARO",5,-1,
927,ocd-division/country:mx/state:qt/loc:7,Diputación del Distrito Local 7 QUERÉTARO,MX,QUE,"CORREGIDORA, HUIMILPAN",5,-1,
928,ocd-division/country:mx/state:qt/loc:8,Diputación del Distrito Local 8 QUERÉTARO,MX,QUE,"AMEALCO DE BONFIL, SAN JUAN DEL RIO",5,-1,
929,ocd-division/country:mx/state:qt/loc:9,Diputación del Distrito Local 9 QUERÉTARO,MX,QUE,SAN JUAN DEL RIO,5,-1,
930,ocd-division/country:mx/state:qt/loc:10,Diputación del Distrito Local 10 QUERÉTARO,MX,QUE,"PEDRO ESCOBEDO, SAN JUAN DEL RIO",5,-1,
931,ocd-division/country:mx/state:qt/loc:11,Diputación del Distrito Local 11 QUERÉTARO,MX,QUE,"COLON, TEQUISQUIAPAN",5,-1,
932,ocd-division/country:mx/state:qt/loc:12,Diputación del Distrito Local 12 QUERÉTARO,MX,QUE,EL MARQUES,5,-1,
933,ocd-division/country:mx/state:qt/loc:13,Diputación del Distrito Local 13 QUERÉTARO,MX,QUE,QUERETARO,5,-1,
934,ocd-division/country:mx/state:qt/loc:14,Diputación del Distrito Local 14 QUERÉTARO,MX,QUE,"CADEREYTA DE MONTES, EZEQUIEL MONTES, TOLIMAN",5,-1,
935,ocd-division/country:mx/state:qt/loc:15,Diputación del Distrito Local 15 QUERÉTARO,MX,QUE,"ARROYO SECO, JALPAN DE SERRA, LANDA DE MATAMOROS, PEÑAMILLER, PINAL DE AMOLES, SAN JOAQUIN",5,-1,
936,ocd-division/country:mx/state:qr/loc:1,Diputación del Distrito Local 1 QUINTANA ROO,MX,ROO,"BENITO JUAREZ, ISLA MUJERES, LAZARO CARDENAS, SOLIDARIDAD, PUERTO MORELOS",5,-1,
937,ocd-division/country:mx/state:qr/loc:2,Diputación del Distrito Local 2 QUINTANA ROO,MX,ROO,BENITO JUAREZ,5,-1,
938,ocd-division/country:mx/state:qr/loc:3,Diputación del Distrito Local 3 QUINTANA ROO,MX,ROO,BENITO JUAREZ,5,-1,
939,ocd-division/country:mx/state:qr/loc:4,Diputación del Distrito Local 4 QUINTANA ROO,MX,ROO,BENITO JUAREZ,5,-1,
940,ocd-division/country:mx/state:qr/loc:5,Diputación del Distrito Local 5 QUINTANA ROO,MX,ROO,BENITO JUAREZ,5,-1,
941,ocd-division/country:mx/state:qr/loc:6,Diputación del Distrito Local 6 QUINTANA ROO,MX,ROO,BENITO JUAREZ,5,-1,
942,ocd-division/country:mx/state:qr/loc:7,Diputación del Distrito Local 7 QUINTANA ROO,MX,ROO,BENITO JUAREZ,5,-1,
943,ocd-division/country:mx/state:qr/loc:8,Diputación del Distrito Local 8 QUINTANA ROO,MX,ROO,"BENITO JUAREZ, PUERTO MORELOS",5,-1,
944,ocd-division/country:mx/state:qr/loc:9,Diputación del Distrito Local 9 QUINTANA ROO,MX,ROO,"SOLIDARIDAD, TULUM, PUERTO MORELOS",5,-1,
945,ocd-division/country:mx/state:qr/loc:10,Diputación del Distrito Local 10 QUINTANA ROO,MX,ROO,SOLIDARIDAD,5,-1,
946,ocd-division/country:mx/state:qr/loc:11,Diputación del Distrito Local 11 QUINTANA ROO,MX,ROO,COZUMEL,5,-1,
947,ocd-division/country:mx/state:qr/loc:12,Diputación del Distrito Local 12 QUINTANA ROO,MX,ROO,"FELIPE CARRILLO PUERTO, JOSE MARIA MORELOS",5,-1,
948,ocd-division/country:mx/state:qr/loc:13,Diputación del Distrito Local 13 QUINTANA ROO,MX,ROO,"JOSE MARIA MORELOS, OTHON P. BLANCO, BACALAR",5,-1,
949,ocd-division/country:mx/state:qr/loc:14,Diputación del Distrito Local 14 QUINTANA ROO,MX,ROO,OTHON P. BLANCO,5,-1,
950,ocd-division/country:mx/state:qr/loc:15,Diputación del Distrito Local 15 QUINTANA ROO,MX,ROO,OTHON P. BLANCO,5,-1,
951,ocd-division/country:mx/state:sl/loc:1,Diputación del Distrito Local 1 SAN LUIS POTOSÍ,MX,SLP,"CATORCE, CEDRAL, CHARCAS, MATEHUALA, VANEGAS, VENADO, VILLA DE GUADALUPE, VILLA DE LA PAZ",5,-1,
952,ocd-division/country:mx/state:sl/loc:2,Diputación del Distrito Local 2 SAN LUIS POTOSÍ,MX,SLP,SAN LUIS POTOSI,5,-1,
953,ocd-division/country:mx/state:sl/loc:3,Diputación del Distrito Local 3 SAN LUIS POTOSÍ,MX,SLP,"ARMADILLO DE LOS INFANTE, CERRO DE SAN PEDRO, SANTA MARIA DEL RIO, TIERRA NUEVA, VILLA DE ARISTA, VILLA DE ARRIAGA, VILLA DE REYES, VILLA HIDALGO, ZARAGOZA",5,-1,
954,ocd-division/country:mx/state:sl/loc:4,Diputación del Distrito Local 4 SAN LUIS POTOSÍ,MX,SLP,"AHUALULCO, MEXQUITIC DE CARMONA, MOCTEZUMA, SALINAS, SANTO DOMINGO, VILLA DE RAMOS",5,-1,
955,ocd-division/country:mx/state:sl/loc:5,Diputación del Distrito Local 5 SAN LUIS POTOSÍ,MX,SLP,"SAN LUIS POTOSI, SOLEDAD DE GRACIANO SANCHEZ",5,-1,
956,ocd-division/country:mx/state:sl/loc:6,Diputación del Distrito Local 6 SAN LUIS POTOSÍ,MX,SLP,SAN LUIS POTOSI,5,-1,
957,ocd-division/country:mx/state:sl/loc:7,Diputación del Distrito Local 7 SAN LUIS POTOSÍ,MX,SLP,SAN LUIS POTOSI,5,-1,
958,ocd-division/country:mx/state:sl/loc:8,Diputación del Distrito Local 8 SAN LUIS POTOSÍ,MX,SLP,SAN LUIS POTOSI,5,-1,
959,ocd-division/country:mx/state:sl/loc:9,Diputación del Distrito Local 9 SAN LUIS POTOSÍ,MX,SLP,SOLEDAD DE GRACIANO SANCHEZ,5,-1,
960,ocd-division/country:mx/state:sl/loc:10,Diputación del Distrito Local 10 SAN LUIS POTOSÍ,MX,SLP,"CERRITOS, CIUDAD FERNANDEZ, RIOVERDE, SAN NICOLAS TOLENTINO, VILLA JUAREZ",5,-1,
961,ocd-division/country:mx/state:sl/loc:11,Diputación del Distrito Local 11 SAN LUIS POTOSÍ,MX,SLP,"ALAQUINES, CARDENAS, CIUDAD DEL MAIZ, GUADALCAZAR, LAGUNILLAS, RAYON, SAN CIRO DE ACOSTA, SANTA CATARINA, TAMASOPO, EL NARANJO",5,-1,
962,ocd-division/country:mx/state:sl/loc:12,Diputación del Distrito Local 12 SAN LUIS POTOSÍ,MX,SLP,CIUDAD VALLES,5,-1,
963,ocd-division/country:mx/state:sl/loc:13,Diputación del Distrito Local 13 SAN LUIS POTOSÍ,MX,SLP,"COXCATLAN, EBANO, SAN ANTONIO, SAN VICENTE TANCUAYALAB, TAMPAMOLON CORONA, TAMUIN, TANLAJAS, TANQUIAN DE ESCOBEDO",5,-1,
964,ocd-division/country:mx/state:sl/loc:14,Diputación del Distrito Local 14 SAN LUIS POTOSÍ,MX,SLP,"AQUISMON, TANCANHUITZ, HUEHUETLAN, AXTLA DE TERRAZAS, XILITLA",5,-1,
965,ocd-division/country:mx/state:sl/loc:15,Diputación del Distrito Local 15 SAN LUIS POTOSÍ,MX,SLP,"SAN MARTIN CHALCHICUAUTLA, TAMAZUNCHALE, TAMPACAN, MATLAPA",5,-1,
966,ocd-division/country:mx/state:si/loc:1,Diputación del Distrito Local 1 SINALOA,MX,SIN,"CHOIX, EL FUERTE",5,-1,
967,ocd-division/country:mx/state:si/loc:2,Diputación del Distrito Local 2 SINALOA,MX,SIN,AHOME,5,-1,
968,ocd-division/country:mx/state:si/loc:3,Diputación del Distrito Local 3 SINALOA,MX,SIN,AHOME,5,-1,
969,ocd-division/country:mx/state:si/loc:4,Diputación del Distrito Local 4 SINALOA,MX,SIN,"AHOME, GUASAVE",5,-1,
970,ocd-division/country:mx/state:si/loc:5,Diputación del Distrito Local 5 SINALOA,MX,SIN,AHOME,5,-1,
971,ocd-division/country:mx/state:si/loc:6,Diputación del Distrito Local 6 SINALOA,MX,SIN,"GUASAVE, SINALOA",5,-1,
972,ocd-division/country:mx/state:si/loc:7,Diputación del Distrito Local 7 SINALOA,MX,SIN,GUASAVE,5,-1,
973,ocd-division/country:mx/state:si/loc:8,Diputación del Distrito Local 8 SINALOA,MX,SIN,GUASAVE,5,-1,
974,ocd-division/country:mx/state:si/loc:9,Diputación del Distrito Local 9 SINALOA,MX,SIN,"ANGOSTURA, SALVADOR ALVARADO",5,-1,
975,ocd-division/country:mx/state:si/loc:10,Diputación del Distrito Local 10 SINALOA,MX,SIN,"BADIRAGUATO, MOCORITO, NAVOLATO",5,-1,
976,ocd-division/country:mx/state:si/loc:11,Diputación del Distrito Local 11 SINALOA,MX,SIN,NAVOLATO,5,-1,
977,ocd-division/country:mx/state:si/loc:12,Diputación del Distrito Local 12 SINALOA,MX,SIN,CULIACAN,5,-1,
978,ocd-division/country:mx/state:si/loc:13,Diputación del Distrito Local 13 SINALOA,MX,SIN,CULIACAN,5,-1,
979,ocd-division/country:mx/state:si/loc:14,Diputación del Distrito Local 14 SINALOA,MX,SIN,CULIACAN,5,-1,
980,ocd-division/country:mx/state:si/loc:15,Diputación del Distrito Local 15 SINALOA,MX,SIN,CULIACAN,5,-1,
981,ocd-division/country:mx/state:si/loc:16,Diputación del Distrito Local 16 SINALOA,MX,SIN,CULIACAN,5,-1,
982,ocd-division/country:mx/state:si/loc:17,Diputación del Distrito Local 17 SINALOA,MX,SIN,CULIACAN,5,-1,
983,ocd-division/country:mx/state:si/loc:18,Diputación del Distrito Local 18 SINALOA,MX,SIN,CULIACAN,5,-1,
984,ocd-division/country:mx/state:si/loc:19,Diputación del Distrito Local 19 SINALOA,MX,SIN,"COSALA, CULIACAN, ELOTA, SAN IGNACIO",5,-1,
985,ocd-division/country:mx/state:si/loc:20,Diputación del Distrito Local 20 SINALOA,MX,SIN,MAZATLAN,5,-1,
986,ocd-division/country:mx/state:si/loc:21,Diputación del Distrito Local 21 SINALOA,MX,SIN,MAZATLAN,5,-1,
987,ocd-division/country:mx/state:si/loc:22,Diputación del Distrito Local 22 SINALOA,MX,SIN,MAZATLAN,5,-1,
988,ocd-division/country:mx/state:si/loc:23,Diputación del Distrito Local 23 SINALOA,MX,SIN,"CONCORDIA, MAZATLAN",5,-1,
989,ocd-division/country:mx/state:si/loc:24,Diputación del Distrito Local 24 SINALOA,MX,SIN,"ESCUINAPA, ROSARIO",5,-1,
990,ocd-division/country:mx/state:so/loc:1,Diputación del Distrito Local 1 SONORA,MX,SON,SAN LUIS RIO COLORADO,5,-1,
991,ocd-division/country:mx/state:so/loc:2,Diputación del Distrito Local 2 SONORA,MX,SON,"PUERTO PEÑASCO, SAN LUIS RIO COLORADO",5,-1,
992,ocd-division/country:mx/state:so/loc:3,Diputación del Distrito Local 3 SONORA,MX,SON,"ALTAR, ATIL, OQUITOA, SARIC, TRINCHERAS, TUBUTAMA, CABORCA, PITIQUITO, GENERAL PLUTARCO ELIAS CALLES",5,-1,
993,ocd-division/country:mx/state:so/loc:4,Diputación del Distrito Local 4 SONORA,MX,SON,"MAGDALENA, NOGALES, SANTA CRUZ",5,-1,
994,ocd-division/country:mx/state:so/loc:5,Diputación del Distrito Local 5 SONORA,MX,SON,NOGALES,5,-1,
995,ocd-division/country:mx/state:so/loc:6,Diputación del Distrito Local 6 SONORA,MX,SON,HERMOSILLO,5,-1,
996,ocd-division/country:mx/state:so/loc:7,Diputación del Distrito Local 7 SONORA,MX,SON,"AGUA PRIETA, BACOACHI, CANANEA, FRONTERAS, NACO",5,-1,
997,ocd-division/country:mx/state:so/loc:8,Diputación del Distrito Local 8 SONORA,MX,SON,HERMOSILLO,5,-1,
998,ocd-division/country:mx/state:so/loc:9,Diputación del Distrito Local 9 SONORA,MX,SON,HERMOSILLO,5,-1,
999,ocd-division/country:mx/state:so/loc:10,Diputación del Distrito Local 10 SONORA,MX,SON,HERMOSILLO,5,-1,
1000,ocd-division/country:mx/state:so/loc:11,Diputación del Distrito Local 11 SONORA,MX,SON,HERMOSILLO,5,-1,
1001,ocd-division/country:mx/state:so/loc:12,Diputación del Distrito Local 12 SONORA,MX,SON,HERMOSILLO,5,-1,
1002,ocd-division/country:mx/state:so/loc:13,Diputación del Distrito Local 13 SONORA,MX,SON,GUAYMAS,5,-1,
1003,ocd-division/country:mx/state:so/loc:14,Diputación del Distrito Local 14 SONORA,MX,SON,"BACUM, EMPALME, GUAYMAS, SAN IGNACIO RIO MUERTO",5,-1,
1004,ocd-division/country:mx/state:so/loc:15,Diputación del Distrito Local 15 SONORA,MX,SON,CAJEME,5,-1,
1005,ocd-division/country:mx/state:so/loc:16,Diputación del Distrito Local 16 SONORA,MX,SON,CAJEME,5,-1,
1006,ocd-division/country:mx/state:so/loc:17,Diputación del Distrito Local 17 SONORA,MX,SON,CAJEME,5,-1,
1007,ocd-division/country:mx/state:so/loc:18,Diputación del Distrito Local 18 SONORA,MX,SON,"ACONCHI, ARIVECHI, ARIZPE, BACADEHUACHI, BACANORA, BACERAC, BANAMICHI, BAVIACORA, BAVISPE, BENJAMIN HILL, CUCURPE, CUMPAS, DIVISADEROS, GRANADOS, HUACHINERA, HUASABAS, HUEPAC, IMURIS, MOCTEZUMA, NACORI CHICO, NACOZARI DE GARCIA, SAHUARIPA, SAN FELIPE DE JESUS, SAN JAVIER, SAN PEDRO DE LA CUEVA, SANTA ANA, SOYOPA, SUAQUI GRANDE, TEPACHE, VILLA HIDALGO, VILLA PESQUEIRA, CARBO, LA COLORADA, MAZATAN, OPODEPE, RAYON, SAN MIGUEL DE HORCASITAS, URES",5,-1,
1008,ocd-division/country:mx/state:so/loc:19,Diputación del Distrito Local 19 SONORA,MX,SON,NAVOJOA,5,-1,
1009,ocd-division/country:mx/state:so/loc:20,Diputación del Distrito Local 20 SONORA,MX,SON,"ETCHOJOA, NAVOJOA, BENITO JUAREZ",5,-1,
1010,ocd-division/country:mx/state:so/loc:21,Diputación del Distrito Local 21 SONORA,MX,SON,"ALAMOS, HUATABAMPO, ONAVAS, QUIRIEGO, ROSARIO, YECORA",5,-1,
1011,ocd-division/country:mx/state:tb/loc:1,Diputación del Distrito Local 1 TABASCO,MX,TAB,"BALANCAN, TENOSIQUE",5,-1,
1012,ocd-division/country:mx/state:tb/loc:2,Diputación del Distrito Local 2 TABASCO,MX,TAB,CARDENAS,5,-1,
1013,ocd-division/country:mx/state:tb/loc:3,Diputación del Distrito Local 3 TABASCO,MX,TAB,CARDENAS,5,-1,
1014,ocd-division/country:mx/state:tb/loc:4,Diputación del Distrito Local 4 TABASCO,MX,TAB,"CARDENAS, HUIMANGUILLO",5,-1,
1015,ocd-division/country:mx/state:tb/loc:5,Diputación del Distrito Local 5 TABASCO,MX,TAB,CENTLA,5,-1,
1016,ocd-division/country:mx/state:tb/loc:6,Diputación del Distrito Local 6 TABASCO,MX,TAB,CENTRO,5,-1,
1017,ocd-division/country:mx/state:tb/loc:7,Diputación del Distrito Local 7 TABASCO,MX,TAB,"CENTRO, CUNDUACAN",5,-1,
1018,ocd-division/country:mx/state:tb/loc:8,Diputación del Distrito Local 8 TABASCO,MX,TAB,CENTRO,5,-1,
1019,ocd-division/country:mx/state:tb/loc:9,Diputación del Distrito Local 9 TABASCO,MX,TAB,CENTRO,5,-1,
1020,ocd-division/country:mx/state:tb/loc:10,Diputación del Distrito Local 10 TABASCO,MX,TAB,CENTRO,5,-1,
1021,ocd-division/country:mx/state:tb/loc:11,Diputación del Distrito Local 11 TABASCO,MX,TAB,"JALAPA, MACUSPANA, TACOTALPA",5,-1,
1022,ocd-division/country:mx/state:tb/loc:12,Diputación del Distrito Local 12 TABASCO,MX,TAB,CENTRO,5,-1,
1023,ocd-division/country:mx/state:tb/loc:13,Diputación del Distrito Local 13 TABASCO,MX,TAB,COMALCALCO,5,-1,
1024,ocd-division/country:mx/state:tb/loc:14,Diputación del Distrito Local 14 TABASCO,MX,TAB,CUNDUACAN,5,-1,
1025,ocd-division/country:mx/state:tb/loc:15,Diputación del Distrito Local 15 TABASCO,MX,TAB,"EMILIANO ZAPATA, JONUTA, MACUSPANA",5,-1,
1026,ocd-division/country:mx/state:tb/loc:16,Diputación del Distrito Local 16 TABASCO,MX,TAB,HUIMANGUILLO,5,-1,
1027,ocd-division/country:mx/state:tb/loc:17,Diputación del Distrito Local 17 TABASCO,MX,TAB,"COMALCALCO, JALPA DE MENDEZ",5,-1,
1028,ocd-division/country:mx/state:tb/loc:18,Diputación del Distrito Local 18 TABASCO,MX,TAB,MACUSPANA,5,-1,
1029,ocd-division/country:mx/state:tb/loc:19,Diputación del Distrito Local 19 TABASCO,MX,TAB,NACAJUCA,5,-1,
1030,ocd-division/country:mx/state:tb/loc:20,Diputación del Distrito Local 20 TABASCO,MX,TAB,"COMALCALCO, PARAISO",5,-1,
1031,ocd-division/country:mx/state:tb/loc:21,Diputación del Distrito Local 21 TABASCO,MX,TAB,"CENTRO, TEAPA",5,-1,
1032,ocd-division/country:mx/state:tl/loc:1,Diputación del Distrito Local 1 TAMAULIPAS,MX,TAM,NUEVO LAREDO,5,-1,
1033,ocd-division/country:mx/state:tl/loc:2,Diputación del Distrito Local 2 TAMAULIPAS,MX,TAM,NUEVO LAREDO,5,-1,
1034,ocd-division/country:mx/state:tl/loc:3,Diputación del Distrito Local 3 TAMAULIPAS,MX,TAM,"CAMARGO, GUERRERO, GUSTAVO DIAZ ORDAZ, MIER, MIGUEL ALEMAN, NUEVO LAREDO",5,-1,
1035,ocd-division/country:mx/state:tl/loc:4,Diputación del Distrito Local 4 TAMAULIPAS,MX,TAM,REYNOSA,5,-1,
1036,ocd-division/country:mx/state:tl/loc:5,Diputación del Distrito Local 5 TAMAULIPAS,MX,TAM,REYNOSA,5,-1,
1037,ocd-division/country:mx/state:tl/loc:6,Diputación del Distrito Local 6 TAMAULIPAS,MX,TAM,REYNOSA,5,-1,
1038,ocd-division/country:mx/state:tl/loc:7,Diputación del Distrito Local 7 TAMAULIPAS,MX,TAM,REYNOSA,5,-1,
1039,ocd-division/country:mx/state:tl/loc:8,Diputación del Distrito Local 8 TAMAULIPAS,MX,TAM,"REYNOSA, RIO BRAVO",5,-1,
1040,ocd-division/country:mx/state:tl/loc:9,Diputación del Distrito Local 9 TAMAULIPAS,MX,TAM,"MATAMOROS, VALLE HERMOSO",5,-1,
1041,ocd-division/country:mx/state:tl/loc:10,Diputación del Distrito Local 10 TAMAULIPAS,MX,TAM,MATAMOROS,5,-1,
1042,ocd-division/country:mx/state:tl/loc:11,Diputación del Distrito Local 11 TAMAULIPAS,MX,TAM,MATAMOROS,5,-1,
1043,ocd-division/country:mx/state:tl/loc:12,Diputación del Distrito Local 12 TAMAULIPAS,MX,TAM,MATAMOROS,5,-1,
1044,ocd-division/country:mx/state:tl/loc:13,Diputación del Distrito Local 13 TAMAULIPAS,MX,TAM,"ABASOLO, BURGOS, CRUILLAS, GÜEMEZ, HIDALGO, JIMENEZ, MAINERO, MENDEZ, PADILLA, SAN CARLOS, SAN FERNANDO, SAN NICOLAS, VILLAGRAN",5,-1,
1045,ocd-division/country:mx/state:tl/loc:14,Diputación del Distrito Local 14 TAMAULIPAS,MX,TAM,VICTORIA,5,-1,
1046,ocd-division/country:mx/state:tl/loc:15,Diputación del Distrito Local 15 TAMAULIPAS,MX,TAM,VICTORIA,5,-1,
1047,ocd-division/country:mx/state:tl/loc:16,Diputación del Distrito Local 16 TAMAULIPAS,MX,TAM,"ANTIGUO MORELOS, BUSTAMANTE, CASAS, GOMEZ FARIAS, JAUMAVE, LLERA, MIQUIHUANA, NUEVO MORELOS, OCAMPO, PALMILLAS, SOTO LA MARINA, TULA, XICOTENCATL",5,-1,
1048,ocd-division/country:mx/state:tl/loc:17,Diputación del Distrito Local 17 TAMAULIPAS,MX,TAM,"GONZALEZ, EL MANTE",5,-1,
1049,ocd-division/country:mx/state:tl/loc:18,Diputación del Distrito Local 18 TAMAULIPAS,MX,TAM,"ALDAMA, ALTAMIRA",5,-1,
1050,ocd-division/country:mx/state:tl/loc:19,Diputación del Distrito Local 19 TAMAULIPAS,MX,TAM,"ALTAMIRA, CIUDAD MADERO",5,-1,
1051,ocd-division/country:mx/state:tl/loc:20,Diputación del Distrito Local 20 TAMAULIPAS,MX,TAM,CIUDAD MADERO,5,-1,
1052,ocd-division/country:mx/state:tl/loc:21,Diputación del Distrito Local 21 TAMAULIPAS,MX,TAM,TAMPICO,5,-1,
1053,ocd-division/country:mx/state:tl/loc:22,Diputación del Distrito Local 22 TAMAULIPAS,MX,TAM,TAMPICO,5,-1,
1054,ocd-division/country:mx/state:tm/loc:1,Diputación del Distrito Local 1 TLAXCALA,MX,TLA,"CALPULALPAN, ESPAÑITA, SANCTORUM DE LAZARO CARDENAS, NANACAMILPA DE MARIANO ARISTA, BENITO JUAREZ",5,-1,
1055,ocd-division/country:mx/state:tm/loc:2,Diputación del Distrito Local 2 TLAXCALA,MX,TLA,"ATLANGATEPEC, TETLA DE LA SOLIDARIDAD, TLAXCO",5,-1,
1056,ocd-division/country:mx/state:tm/loc:3,Diputación del Distrito Local 3 TLAXCALA,MX,TLA,"CUAXOMULCO, TERRENATE, TOCATLAN, TZOMPANTEPEC, XALOZTOC, SAN JOSE TEACALCO, EMILIANO ZAPATA, LAZARO CARDENAS",5,-1,
1057,ocd-division/country:mx/state:tm/loc:4,Diputación del Distrito Local 4 TLAXCALA,MX,TLA,"APIZACO, SANTA CRUZ TLAXCALA",5,-1,
1058,ocd-division/country:mx/state:tm/loc:5,Diputación del Distrito Local 5 TLAXCALA,MX,TLA,"APIZACO, MUÑOZ DE DOMINGO ARENAS, ESPAÑITA, HUEYOTLIPAN, XALTOCAN, YAUHQUEMEHCAN, SAN LUCAS TECOPILCO",5,-1,
1059,ocd-division/country:mx/state:tm/loc:6,Diputación del Distrito Local 6 TLAXCALA,MX,TLA,"IXTACUIXTLA DE MARIANO MATAMOROS, PANOTLA, TOTOLAC",5,-1,
1060,ocd-division/country:mx/state:tm/loc:7,Diputación del Distrito Local 7 TLAXCALA,MX,TLA,TLAXCALA,5,-1,
1061,ocd-division/country:mx/state:tm/loc:8,Diputación del Distrito Local 8 TLAXCALA,MX,TLA,"AMAXAC DE GUERRERO, APETATITLAN DE ANTONIO CARVAJAL, CONTLA DE JUAN CUAMATZI, SANTA CRUZ TLAXCALA",5,-1,
1062,ocd-division/country:mx/state:tm/loc:9,Diputación del Distrito Local 9 TLAXCALA,MX,TLA,"CHIAUTEMPAN, LA MAGDALENA TLALTELULCO",5,-1,
1063,ocd-division/country:mx/state:tm/loc:10,Diputación del Distrito Local 10 TLAXCALA,MX,TLA,"HUAMANTLA, IXTENCO, ZITLALTEPEC DE TRINIDAD SANCHEZ SANTOS",5,-1,
1064,ocd-division/country:mx/state:tm/loc:11,Diputación del Distrito Local 11 TLAXCALA,MX,TLA,"ATLTZAYANCA, EL CARMEN TEQUEXQUITLA, CUAPIAXTLA, HUAMANTLA",5,-1,
1065,ocd-division/country:mx/state:tm/loc:12,Diputación del Distrito Local 12 TLAXCALA,MX,TLA,"MAZATECOCHCO DE JOSE MARIA MORELOS, ACUAMANALA DE MIGUEL HIDALGO, TEOLOCHOLCO, PAPALOTLA DE XICOHTENCATL, SANTA CRUZ QUILEHTLA, SANTA ISABEL XILOXOXTLA, SAN FRANCISCO TETLANOHCAN",5,-1,
1066,ocd-division/country:mx/state:tm/loc:13,Diputación del Distrito Local 13 TLAXCALA,MX,TLA,"TEPEYANCO, XICOHTZINCO, ZACATELCO, SANTA CATARINA AYOMETLA, SAN LORENZO AXOCOMANITLA",5,-1,
1067,ocd-division/country:mx/state:tm/loc:14,Diputación del Distrito Local 14 TLAXCALA,MX,TLA,"TEPETITLA DE LARDIZABAL, NATIVITAS, TETLATLAHUCA, SANTA APOLONIA TEACALCO, SAN JUAN HUACTZINCO, SAN DAMIAN TEXOLOC, SAN JERONIMO ZACUALPAN, SANTA ANA NOPALUCAN",5,-1,
1068,ocd-division/country:mx/state:tm/loc:15,Diputación del Distrito Local 15 TLAXCALA,MX,TLA,"SAN PABLO DEL MONTE, TENANCINGO",5,-1,
1069,ocd-division/country:mx/state:ve/loc:1,Diputación del Distrito Local 1 VERACRUZ DE IGNACIO DE LA LLAVE,MX,VER,"CHINAMPA DE GOROSTIZA, OZULUAMA, PANUCO, PUEBLO VIEJO, TAMALIN, TAMPICO ALTO, TANTIMA, TEMPOAL, EL HIGO",5,-1,
1070,ocd-division/country:mx/state:ve/loc:2,Diputación del Distrito Local 2 VERACRUZ DE IGNACIO DE LA LLAVE,MX,VER,"NARANJOS AMATLAN, CITLALTEPETL, CHALMA, CHICONAMEL, CHICONTEPEC, CHONTLA, IXCATEPEC, PLATON SANCHEZ, TANCOCO, TANTOYUCA, TEPETZINTLA",5,-1,
1071,ocd-division/country:mx/state:ve/loc:3,Diputación del Distrito Local 3 VERACRUZ DE IGNACIO DE LA LLAVE,MX,VER,"CAZONES DE HERRERA, TAMIAHUA, TIHUATLAN, TUXPAN",5,-1,
1072,ocd-division/country:mx/state:ve/loc:4,Diputación del Distrito Local 4 VERACRUZ DE IGNACIO DE LA LLAVE,MX,VER,"ALAMO TEMAPACHE, BENITO JUAREZ, CASTILLO DE TEAYO, CERRO AZUL, HUAYACOCOTLA, ILAMATLAN, IXHUATLAN DE MADERO, TEXCATEPEC, TLACHICHILCO, ZACUALPAN, ZONTECOMATLAN",5,-1,
1073,ocd-division/country:mx/state:ve/loc:5,Diputación del Distrito Local 5 VERACRUZ DE IGNACIO DE LA LLAVE,MX,VER,"COATZINTLA, POZA RICA DE HIDALGO",5,-1,
1074,ocd-division/country:mx/state:ve/loc:6,Diputación del Distrito Local 6 VERACRUZ DE IGNACIO DE LA LLAVE,MX,VER,"COAHUITLAN, COXQUIHUI, COYUTLA, CHUMATLAN, ESPINAL, FILOMENO MATA, MECATLAN, PAPANTLA, ZOZOCOLCO DE HIDALGO",5,-1,
1075,ocd-division/country:mx/state:ve/loc:7,Diputación del Distrito Local 7 VERACRUZ DE IGNACIO DE LA LLAVE,MX,VER,"GUTIERREZ ZAMORA, MARTINEZ DE LA TORRE, TECOLUTLA, TLAPACOYAN, SAN RAFAEL",5,-1,
1076,ocd-division/country:mx/state:ve/loc:8,Diputación del Distrito Local 8 VERACRUZ DE IGNACIO DE LA LLAVE,MX,VER,"ACATLAN, ALTO LUCERO DE GUTIERREZ BARRIOS, COACOATZINTLA, COLIPA, CHICONQUIACO, JILOTEPEC, JUCHIQUE DE FERRER, LANDERO Y COSS, MIAHUATLAN, MISANTLA, NAOLINCO, NAUTLA, TENOCHTITLAN, TEPETLAN, TLACOLULAN, TONAYAN, VEGA DE ALATORRE, YECUATLA",5,-1,
1077,ocd-division/country:mx/state:ve/loc:9,Diputación del Distrito Local 9 VERACRUZ DE IGNACIO DE LA LLAVE,MX,VER,"ALTOTONGA, ATZALAN, JALACINGO, LAS MINAS, PEROTE, LAS VIGAS DE RAMIREZ, TATATILA, VILLA ALDAMA",5,-1,
1078,ocd-division/country:mx/state:ve/loc:10,Diputación del Distrito Local 10 VERACRUZ DE IGNACIO DE LA LLAVE,MX,VER,XALAPA,5,-1,
1079,ocd-division/country:mx/state:ve/loc:11,Diputación del Distrito Local 11 VERACRUZ DE IGNACIO DE LA LLAVE,MX,VER,XALAPA,5,-1,
1080,ocd-division/country:mx/state:ve/loc:12,Diputación del Distrito Local 12 VERACRUZ DE IGNACIO DE LA LLAVE,MX,VER,"ACAJETE, AYAHUALULCO, BANDERILLA, COATEPEC, COSAUTLAN DE CARVAJAL, IXHUACAN DE LOS REYES, RAFAEL LUCIO, TEOCELO, TLALNELHUAYOCAN, XICO",5,-1,
1081,ocd-division/country:mx/state:ve/loc:13,Diputación del Distrito Local 13 VERACRUZ DE IGNACIO DE LA LLAVE,MX,VER,"ACTOPAN, LA ANTIGUA, APAZAPAN, TLALTETELA, EMILIANO ZAPATA, JALCOMULCO, PASO DE OVEJAS, PUENTE NACIONAL, URSULO GALVAN",5,-1,
1082,ocd-division/country:mx/state:ve/loc:14,Diputación del Distrito Local 14 VERACRUZ DE IGNACIO DE LA LLAVE,MX,VER,VERACRUZ,5,-1,
1083,ocd-division/country:mx/state:ve/loc:15,Diputación del Distrito Local 15 VERACRUZ DE IGNACIO DE LA LLAVE,MX,VER,VERACRUZ,5,-1,
1084,ocd-division/country:mx/state:ve/loc:16,Diputación del Distrito Local 16 VERACRUZ DE IGNACIO DE LA LLAVE,MX,VER,"ACULA, ALVARADO, BOCA DEL RIO, IGNACIO DE LA LLAVE, TLALIXCOYAN",5,-1,
1085,ocd-division/country:mx/state:ve/loc:17,Diputación del Distrito Local 17 VERACRUZ DE IGNACIO DE LA LLAVE,MX,VER,"CAMARON DE TEJEDA, ATOYAC, CARRILLO PUERTO, COTAXTLA, CUITLAHUAC, JAMAPA, MANLIO FABIO ALTAMIRANO, MEDELLIN DE BRAVO, PASO DEL MACHO, SOLEDAD DE DOBLADO",5,-1,
1086,ocd-division/country:mx/state:ve/loc:18,Diputación del Distrito Local 18 VERACRUZ DE IGNACIO DE LA LLAVE,MX,VER,"ALPATLAHUAC, CALCAHUALCO, COMAPA, COSCOMATEPEC, CHOCAMAN, HUATUSCO, IXHUATLAN DEL CAFE, SOCHIAPA, TENAMPA, TEPATLAXCO, TLACOTEPEC DE MEJIA, TOMATLAN, TOTUTLA, ZENTLA",5,-1,
1087,ocd-division/country:mx/state:ve/loc:19,Diputación del Distrito Local 19 VERACRUZ DE IGNACIO DE LA LLAVE,MX,VER,"AMATLAN DE LOS REYES, CORDOBA, YANGA",5,-1,
1088,ocd-division/country:mx/state:ve/loc:20,Diputación del Distrito Local 20 VERACRUZ DE IGNACIO DE LA LLAVE,MX,VER,"ATZACAN, FORTIN, IXTACZOQUITLAN, ORIZABA",5,-1,
1089,ocd-division/country:mx/state:ve/loc:21,Diputación del Distrito Local 21 VERACRUZ DE IGNACIO DE LA LLAVE,MX,VER,"ACULTZINGO, AQUILA, CAMERINO Z. MENDOZA, HUILOAPAN DE CUAUHTEMOC, IXHUATLANCILLO, MALTRATA, MARIANO ESCOBEDO, NOGALES, LA PERLA, RIO BLANCO",5,-1,
1090,ocd-division/country:mx/state:ve/loc:22,Diputación del Distrito Local 22 VERACRUZ DE IGNACIO DE LA LLAVE,MX,VER,"ASTACINGA, ATLAHUILCO, COETZALA, MAGDALENA, MIXTLA DE ALTAMIRANO, NARANJAL, RAFAEL DELGADO, LOS REYES, SAN ANDRES TENEJAPAN, SOLEDAD ATZOMPA, TEHUIPANGO, TEQUILA, TEXHUACAN, TEZONAPA, TLAQUILPA, TLILAPAN, XOXOCOTLA, ZONGOLICA",5,-1,
1091,ocd-division/country:mx/state:ve/loc:23,Diputación del Distrito Local 23 VERACRUZ DE IGNACIO DE LA LLAVE,MX,VER,"COSAMALOAPAN, CUICHAPA, CHACALTIANGUIS, IXMATLAHUACAN, OMEALCA, OTATITLAN, TIERRA BLANCA, TLACOJALPAN, TUXTILLA, TRES VALLES",5,-1,
1092,ocd-division/country:mx/state:ve/loc:24,Diputación del Distrito Local 24 VERACRUZ DE IGNACIO DE LA LLAVE,MX,VER,"AMATITLAN, ANGEL R. CABADA, ISLA, JUAN RODRIGUEZ CLARA, LERDO DE TEJADA, SALTABARRANCA, SANTIAGO TUXTLA, JOSE AZUETA, TLACOTALPAN, CARLOS A. CARRILLO",5,-1,
1093,ocd-division/country:mx/state:ve/loc:25,Diputación del Distrito Local 25 VERACRUZ DE IGNACIO DE LA LLAVE,MX,VER,"CATEMACO, HUEYAPAN DE OCAMPO, SAN ANDRES TUXTLA",5,-1,
1094,ocd-division/country:mx/state:ve/loc:26,Diputación del Distrito Local 26 VERACRUZ DE IGNACIO DE LA LLAVE,MX,VER,"COSOLEACAQUE, CHINAMECA, JALTIPAN, MECAYAPAN, OTEAPAN, PAJAPAN, SOTEAPAN, ZARAGOZA, TATAHUICAPAN DE JUAREZ",5,-1,
1095,ocd-division/country:mx/state:ve/loc:27,Diputación del Distrito Local 27 VERACRUZ DE IGNACIO DE LA LLAVE,MX,VER,"ACAYUCAN, OLUTA, PLAYA VICENTE, SAN JUAN EVANGELISTA, SAYULA DE ALEMAN, SOCONUSCO, TEXISTEPEC, SANTIAGO SOCHIAPAN",5,-1,
1096,ocd-division/country:mx/state:ve/loc:28,Diputación del Distrito Local 28 VERACRUZ DE IGNACIO DE LA LLAVE,MX,VER,"HIDALGOTITLAN, JESUS CARRANZA, MINATITLAN, UXPANAPA",5,-1,
1097,ocd-division/country:mx/state:ve/loc:29,Diputación del Distrito Local 29 VERACRUZ DE IGNACIO DE LA LLAVE,MX,VER,COATZACOALCOS,5,-1,
1098,ocd-division/country:mx/state:ve/loc:30,Diputación del Distrito Local 30 VERACRUZ DE IGNACIO DE LA LLAVE,MX,VER,"COATZACOALCOS, LAS CHOAPAS, IXHUATLAN DEL SURESTE, MOLOACAN, NANCHITAL DE LAZARO CARDENAS DEL RIO, AGUA DULCE",5,-1,
1099,ocd-division/country:mx/state:yu/loc:1,Diputación del Distrito Local 1 YUCATÁN,MX,YUC,MERIDA,5,-1,
1100,ocd-division/country:mx/state:yu/loc:2,Diputación del Distrito Local 2 YUCATÁN,MX,YUC,MERIDA,5,-1,
1101,ocd-division/country:mx/state:yu/loc:3,Diputación del Distrito Local 3 YUCATÁN,MX,YUC,MERIDA,5,-1,
1102,ocd-division/country:mx/state:yu/loc:4,Diputación del Distrito Local 4 YUCATÁN,MX,YUC,MERIDA,5,-1,
1103,ocd-division/country:mx/state:yu/loc:5,Diputación del Distrito Local 5 YUCATÁN,MX,YUC,MERIDA,5,-1,
1104,ocd-division/country:mx/state:yu/loc:6,Diputación del Distrito Local 6 YUCATÁN,MX,YUC,"ACANCEH, KANASIN, SEYE, TIMUCUY, TIXPEHUAL",5,-1,
1105,ocd-division/country:mx/state:yu/loc:7,Diputación del Distrito Local 7 YUCATÁN,MX,YUC,MERIDA,5,-1,
1106,ocd-division/country:mx/state:yu/loc:8,Diputación del Distrito Local 8 YUCATÁN,MX,YUC,"ABALA, CELESTUN, CHOCHOLA, HUNUCMA, KINCHIL, KOPOMA, SAMAHIL, TETIZ, UCU, UMAN",5,-1,
1107,ocd-division/country:mx/state:yu/loc:9,Diputación del Distrito Local 9 YUCATÁN,MX,YUC,"BACA, CONKAL, CHICXULUB PUEBLO, DZEMUL, IXIL, MOCOCHA, MOTUL, MUXUPIP, PROGRESO, TELCHAC PUEBLO, TELCHAC PUERTO, YAXKUKUL",5,-1,
1108,ocd-division/country:mx/state:yu/loc:10,Diputación del Distrito Local 10 YUCATÁN,MX,YUC,"CALOTMUL, ESPITA, PANABA, RIO LAGARTOS, SAN FELIPE, SUCILA, TEMOZON, TIZIMIN",5,-1,
1109,ocd-division/country:mx/state:yu/loc:11,Diputación del Distrito Local 11 YUCATÁN,MX,YUC,"CUNCUNUL, CHEMAX, CHICHIMILA, CHIKINDZONOT, TEKOM, TIXCACALCUPUL, VALLADOLID",5,-1,
1110,ocd-division/country:mx/state:yu/loc:12,Diputación del Distrito Local 12 YUCATÁN,MX,YUC,"AKIL, CHACSINKIN, OXKUTZCAB, PETO, TAHDZIU, TEKAX, TIXMEHUAC, TZUCACAB",5,-1,
1111,ocd-division/country:mx/state:yu/loc:13,Diputación del Distrito Local 13 YUCATÁN,MX,YUC,"CHAPAB, CHUMAYEL, DZAN, HALACHO, MAMA, MANI, MAXCANU, MUNA, OPICHEN, SACALUM, SANTA ELENA, TICUL",5,-1,
1112,ocd-division/country:mx/state:yu/loc:14,Diputación del Distrito Local 14 YUCATÁN,MX,YUC,"CANTAMAYEC, CUZAMA, CHANKOM, DZITAS, HOCABA, HOMUN, HUHI, KANTUNIL, KAUA, MAYAPAN, QUINTANA ROO, SANAHCAT, SOTUTA, SUDZAL, TEABO, TECOH, TEKIT, TINUM, UAYMA, XOCCHEL, YAXCABA",5,-1,
1113,ocd-division/country:mx/state:yu/loc:15,Diputación del Distrito Local 15 YUCATÁN,MX,YUC,"BOKOBA, BUCTZOTZ, CACALCHEN, CANSAHCAB, CENOTILLO, DZIDZANTUN, DZILAM DE BRAVO, DZILAM GONZALEZ, DZONCAUICH, HOCTUN, IZAMAL, SINANCHE, SUMA, TAHMEK, TEKAL DE VENEGAS, TEKANTO, TEMAX, TEPAKAN, TEYA, TIXKOKOB, TUNKAS, YOBAIN",5,-1,
1114,ocd-division/country:mx/state:za/loc:1,Diputación del Distrito Local 1 ZACATECAS,MX,ZAC,ZACATECAS,5,-1,
1115,ocd-division/country:mx/state:za/loc:2,Diputación del Distrito Local 2 ZACATECAS,MX,ZAC,"CALERA, MORELOS, ZACATECAS",5,-1,
1116,ocd-division/country:mx/state:za/loc:3,Diputación del Distrito Local 3 ZACATECAS,MX,ZAC,GUADALUPE,5,-1,
1117,ocd-division/country:mx/state:za/loc:4,Diputación del Distrito Local 4 ZACATECAS,MX,ZAC,"GUADALUPE, VETAGRANDE",5,-1,
1118,ocd-division/country:mx/state:za/loc:5,Diputación del Distrito Local 5 ZACATECAS,MX,ZAC,FRESNILLO,5,-1,
1119,ocd-division/country:mx/state:za/loc:6,Diputación del Distrito Local 6 ZACATECAS,MX,ZAC,"FRESNILLO, GENERAL ENRIQUE ESTRADA",5,-1,
1120,ocd-division/country:mx/state:za/loc:7,Diputación del Distrito Local 7 ZACATECAS,MX,ZAC,"FRESNILLO, VALPARAISO",5,-1,
1121,ocd-division/country:mx/state:za/loc:8,Diputación del Distrito Local 8 ZACATECAS,MX,ZAC,"GENERAL PANFILO NATERA, OJOCALIENTE, VILLA GONZALEZ ORTEGA, TRANCOSO",5,-1,
1122,ocd-division/country:mx/state:za/loc:9,Diputación del Distrito Local 9 ZACATECAS,MX,ZAC,"LORETO, NORIA DE ANGELES, VILLA GARCIA",5,-1,
1123,ocd-division/country:mx/state:za/loc:10,Diputación del Distrito Local 10 ZACATECAS,MX,ZAC,"JEREZ, MONTE ESCOBEDO, SUSTICACAN, TEPETONGO",5,-1,
1124,ocd-division/country:mx/state:za/loc:11,Diputación del Distrito Local 11 ZACATECAS,MX,ZAC,"CUAUHTEMOC, GENARO CODINA, LUIS MOYA, OJOCALIENTE, VILLANUEVA",5,-1,
1125,ocd-division/country:mx/state:za/loc:12,Diputación del Distrito Local 12 ZACATECAS,MX,ZAC,"CONCEPCION DEL ORO, MAZAPIL, MELCHOR OCAMPO, PANUCO, EL SALVADOR, VILLA DE COS",5,-1,
1126,ocd-division/country:mx/state:za/loc:13,Diputación del Distrito Local 13 ZACATECAS,MX,ZAC,"APULCO, EL PLATEADO DE JOAQUIN AMARO, HUANUSCO, JALPA, NOCHISTLAN DE MEJIA, TABASCO",5,-1,
1127,ocd-division/country:mx/state:za/loc:14,Diputación del Distrito Local 14 ZACATECAS,MX,ZAC,"APOZOL, ATOLINGA, BENITO JUAREZ, TRINIDAD GARCIA DE LA CADENA, JUCHIPILA, MEZQUITAL DEL ORO, MOMAX, MOYAHUA DE ESTRADA, TEPECHITLAN, TEUL DE GONZALEZ ORTEGA, TLALTENANGO DE SANCHEZ ROMAN, SANTA MARIA DE LA PAZ",5,-1,
1128,ocd-division/country:mx/state:za/loc:15,Diputación del Distrito Local 15 ZACATECAS,MX,ZAC,"PINOS, VILLA HIDALGO",5,-1,
1129,ocd-division/country:mx/state:za/loc:16,Diputación del Distrito Local 16 ZACATECAS,MX,ZAC,"CAÑITAS DE FELIPE PESCADOR, RIO GRANDE, SAIN ALTO",5,-1,
1130,ocd-division/country:mx/state:za/loc:17,Diputación del Distrito Local 17 ZACATECAS,MX,ZAC,"CHALCHIHUITES, JIMENEZ DEL TEUL, SOMBRERETE",5,-1,
1131,ocd-division/country:mx/state:za/loc:18,Diputación del Distrito Local 18 ZACATECAS,MX,ZAC,"GENERAL FRANCISCO R. MURGUIA, JUAN ALDAMA, MIGUEL AUZA, RIO GRANDE",5,-1,
